{"type": "FeatureCollection", "features": [{"type": "Feature", "id": 1, "geometry": {"type": "Point", "coordinates": [-84.3919412536342, 33.7784813800728]}, "properties": {"objectid": 1, "globalid": "30309420-b75d-4d7c-bd09-81cab80b6b1f", "CreationDate": 1660075138786, "Creator": "wsims6_GTFacilities", "EditDate": 1660075138786, "Editor": "wsims6_GTFacilities", "location_name": "O\u2019Keefe Language Institute 1", "bench_material": "Wood", "bench_condition": "Good", "commemorative_bench": "No", "donor_name": null, "donor_information": null, "bench_comments": "Bench is located near the ADA entrance to the Language institute "}}, {"type": "Feature", "id": 2, "geometry": {"type": "Point", "coordinates": [-84.392036734249, 33.7783084774565]}, "properties": {"objectid": 2, "globalid": "4369ab48-cbb6-4925-9d65-a6c85704749f", "CreationDate": 1660075224963, "Creator": "wsims6_GTFacilities", "EditDate": 1660075224963, "Editor": "wsims6_GTFacilities", "location_name": "O\u2019Keefe language institute 2", "bench_material": "Wood", "bench_condition": "Good", "commemorative_bench": "No", "donor_name": null, "donor_information": null, "bench_comments": "Located beside the stairs entering the Language Institute. "}}, {"type": "Feature", "id": 3, "geometry": {"type": "Point", "coordinates": [-84.3979350448065, 33.7743287067623]}, "properties": {"objectid": 3, "globalid": "47f9ddfb-ee3f-43db-91d3-67d89d94e241", "CreationDate": 1698687056869, "Creator": "dsimsGT", "EditDate": 1734462000828, "Editor": "dsimsGT", "location_name": "Campanile 2", "bench_material": "Wood", "bench_condition": "Good", "commemorative_bench": "Yes", "donor_name": null, "donor_information": "A Whitley family tradition ", "bench_comments": null}}, {"type": "Feature", "id": 4, "geometry": {"type": "Point", "coordinates": [-84.3979600488139, 33.7743695720769]}, "properties": {"objectid": 4, "globalid": "2b8609f0-3e7d-476d-bb58-dfa782407499", "CreationDate": 1698687065351, "Creator": "dsimsGT", "EditDate": 1720201767900, "Editor": "dsimsGT", "location_name": "Campanile 3", "bench_material": "Wood", "bench_condition": "Good", "commemorative_bench": "Yes", "donor_name": "Two jolly good fellows", "donor_information": "Bruce W. Whitley, BC \u201869 and Stephen C. Hall, IM \u201867\nWe drink our whiskey clear. \n", "bench_comments": null}}, {"type": "Feature", "id": 5, "geometry": {"type": "Point", "coordinates": [-84.3979920112142, 33.7744276033523]}, "properties": {"objectid": 5, "globalid": "37f6b44a-67e6-494f-b94b-8f6446928882", "CreationDate": 1698687073279, "Creator": "dsimsGT", "EditDate": 1720201773489, "Editor": "dsimsGT", "location_name": "Campanile 4", "bench_material": "Wood", "bench_condition": "Good", "commemorative_bench": "No", "donor_name": null, "donor_information": null, "bench_comments": "No donor plaque yet. "}}, {"type": "Feature", "id": 6, "geometry": {"type": "Point", "coordinates": [-84.3980321234083, 33.7744784173837]}, "properties": {"objectid": 6, "globalid": "bd495020-33c9-40f7-b4c9-e61dd50b2b90", "CreationDate": 1698687090845, "Creator": "dsimsGT", "EditDate": 1720201779683, "Editor": "dsimsGT", "location_name": "Campanile 5", "bench_material": "Wood", "bench_condition": "Good", "commemorative_bench": "No", "donor_name": null, "donor_information": null, "bench_comments": "No donor plaque yet. "}}, {"type": "Feature", "id": 7, "geometry": {"type": "Point", "coordinates": [-84.3979109499163, 33.7742885048885]}, "properties": {"objectid": 7, "globalid": "e8ab2f72-cbc5-4d04-a9cd-95c8f93b125b", "CreationDate": 1698687190938, "Creator": "dsimsGT", "EditDate": 1734461951917, "Editor": "dsimsGT", "location_name": "Campanile 1", "bench_material": "Wood", "bench_condition": "Good", "commemorative_bench": "Yes", "donor_name": null, "donor_information": "Class of 1974 50th reunion committee project ", "bench_comments": null}}, {"type": "Feature", "id": 8, "geometry": {"type": "Point", "coordinates": [-84.3985484016337, 33.7748985849175]}, "properties": {"objectid": 8, "globalid": "774bad42-cd14-4059-8b0e-2bc26cc089f5", "CreationDate": 1720201130428, "Creator": "dsimsGT", "EditDate": 1720201130428, "Editor": "dsimsGT", "location_name": "Test survey", "bench_material": "Wood", "bench_condition": "Good", "commemorative_bench": "No", "donor_name": null, "donor_information": null, "bench_comments": "Test survey for demonstration."}}, {"type": "Feature", "id": 9, "geometry": {"type": "Point", "coordinates": [-84.3991562942746, 33.7738230945437]}, "properties": {"objectid": 9, "globalid": "f3c2d5ce-6c40-4146-abd9-607797fc6c47", "CreationDate": 1720621750174, "Creator": "dsimsGT", "EditDate": 1720621750174, "Editor": "dsimsGT", "location_name": "Student center 2", "bench_material": "Wood", "bench_condition": "Good", "commemorative_bench": "No", "donor_name": null, "donor_information": null, "bench_comments": null}}, {"type": "Feature", "id": 10, "geometry": {"type": "Point", "coordinates": [-84.3913104066667, 33.772881021]}, "properties": {"objectid": 10, "globalid": "4bba8285-b5ce-44e3-a62f-ac8194a9c906", "CreationDate": 1724175675443, "Creator": "dsimsGT", "EditDate": 1724175675443, "Editor": "dsimsGT", "location_name": "Glenn towers courtyard 1", "bench_material": "Wood", "bench_condition": "Fair", "commemorative_bench": "No", "donor_name": null, "donor_information": null, "bench_comments": null}}, {"type": "Feature", "id": 11, "geometry": {"type": "Point", "coordinates": [-84.3911966488333, 33.7729437155]}, "properties": {"objectid": 11, "globalid": "487accb0-0388-43f8-8476-28e75ceb6f74", "CreationDate": 1724175824844, "Creator": "dsimsGT", "EditDate": 1724175824844, "Editor": "dsimsGT", "location_name": "Glenn towers 2", "bench_material": "Wood", "bench_condition": "Good", "commemorative_bench": "No", "donor_name": null, "donor_information": null, "bench_comments": null}}, {"type": "Feature", "id": 12, "geometry": {"type": "Point", "coordinates": [-84.3915841368015, 33.7730816567654]}, "properties": {"objectid": 12, "globalid": "3ad65759-185e-4a22-8e2f-765d12b9d76c", "CreationDate": 1724176091661, "Creator": "gtfm_kabernathy", "EditDate": 1724176091661, "Editor": "gtfm_kabernathy", "location_name": "Glenn Towers Courtyard Left 1 ", "bench_material": "Wood", "bench_condition": "Good", "commemorative_bench": "No", "donor_name": null, "donor_information": null, "bench_comments": null}}, {"type": "Feature", "id": 13, "geometry": {"type": "Point", "coordinates": [-84.3915806756842, 33.7731343046605]}, "properties": {"objectid": 13, "globalid": "98bc599c-c02a-41ea-8912-8888650b02f1", "CreationDate": 1724176208017, "Creator": "gtfm_kabernathy", "EditDate": 1724176208017, "Editor": "gtfm_kabernathy", "location_name": "Glenn Towers Courtyard Left 2 ", "bench_material": "Wood", "bench_condition": "Good", "commemorative_bench": "No", "donor_name": null, "donor_information": null, "bench_comments": null}}, {"type": "Feature", "id": 14, "geometry": {"type": "Point", "coordinates": [-84.3911141063866, 33.7728587682986]}, "properties": {"objectid": 14, "globalid": "224b50d3-ffb1-4431-bf0f-ca4eada802d5", "CreationDate": 1724176249895, "Creator": "dsimsGT", "EditDate": 1724177065800, "Editor": "wsims6_GTFacilities", "location_name": "Glenn towers 3", "bench_material": "Wood", "bench_condition": "Good", "commemorative_bench": "No", "donor_name": null, "donor_information": null, "bench_comments": null}}, {"type": "Feature", "id": 15, "geometry": {"type": "Point", "coordinates": [-84.3915418298442, 33.7731484774189]}, "properties": {"objectid": 15, "globalid": "aa93750d-6572-4576-98c1-a58f535e1cb5", "CreationDate": 1724176331810, "Creator": "gtfm_kabernathy", "EditDate": 1724176331810, "Editor": "gtfm_kabernathy", "location_name": "Glenn Towers Courtyard Left 3 ", "bench_material": "Wood", "bench_condition": "Good", "commemorative_bench": "No", "donor_name": null, "donor_information": null, "bench_comments": null}}, {"type": "Feature", "id": 16, "geometry": {"type": "Point", "coordinates": [-84.3910767790708, 33.7728841912132]}, "properties": {"objectid": 16, "globalid": "3fb8c6e7-564b-4893-be0c-508ae5f1d5f3", "CreationDate": 1724176429722, "Creator": "dsimsGT", "EditDate": 1724176429722, "Editor": "dsimsGT", "location_name": "Glenn towers 4", "bench_material": "Wood", "bench_condition": "Good", "commemorative_bench": "No", "donor_name": null, "donor_information": null, "bench_comments": null}}, {"type": "Feature", "id": 17, "geometry": {"type": "Point", "coordinates": [-84.3915036190337, 33.7730938645962]}, "properties": {"objectid": 17, "globalid": "6640fda3-e7be-4bd9-b2fe-7d53e05a1640", "CreationDate": 1724176449325, "Creator": "gtfm_kabernathy", "EditDate": 1724176449325, "Editor": "gtfm_kabernathy", "location_name": "Glenn Towers Courtyard Left 4 ", "bench_material": "Wood", "bench_condition": "Good", "commemorative_bench": "No", "donor_name": null, "donor_information": null, "bench_comments": null}}, {"type": "Feature", "id": 18, "geometry": {"type": "Point", "coordinates": [-84.3914492634075, 33.773302611657]}, "properties": {"objectid": 18, "globalid": "c220b936-d0ce-4626-9653-ec705701a9a1", "CreationDate": 1724176558504, "Creator": "gtfm_kabernathy", "EditDate": 1724176558504, "Editor": "gtfm_kabernathy", "location_name": "Glenn Towers Courtyard Left 5", "bench_material": "Wood", "bench_condition": "Good", "commemorative_bench": "No", "donor_name": null, "donor_information": null, "bench_comments": null}}, {"type": "Feature", "id": 19, "geometry": {"type": "Point", "coordinates": [-84.3910336991023, 33.7730922965204]}, "properties": {"objectid": 19, "globalid": "d72a39e9-a511-4c3a-93c8-30a0636c9da9", "CreationDate": 1724176610187, "Creator": "dsimsGT", "EditDate": 1724176610187, "Editor": "dsimsGT", "location_name": "Glenn towers 6", "bench_material": "Wood", "bench_condition": "Good", "commemorative_bench": "No", "donor_name": null, "donor_information": null, "bench_comments": null}}, {"type": "Feature", "id": 20, "geometry": {"type": "Point", "coordinates": [-84.3910854846308, 33.7730757484994]}, "properties": {"objectid": 20, "globalid": "9cc79e11-e67b-4430-b55e-9cf418d44c35", "CreationDate": 1724176676263, "Creator": "dsimsGT", "EditDate": 1724176676263, "Editor": "dsimsGT", "location_name": "Glenn towers 5", "bench_material": "Wood", "bench_condition": "Good", "commemorative_bench": "No", "donor_name": null, "donor_information": null, "bench_comments": null}}, {"type": "Feature", "id": 21, "geometry": {"type": "Point", "coordinates": [-84.3914327834198, 33.7734172062571]}, "properties": {"objectid": 21, "globalid": "7f827f6b-7bda-4fa6-a4f0-041bdb964db4", "CreationDate": 1724176689679, "Creator": "gtfm_kabernathy", "EditDate": 1724176689679, "Editor": "gtfm_kabernathy", "location_name": "Glenn Towers Courtyard Left 6 ", "bench_material": "Wood", "bench_condition": "Good", "commemorative_bench": "No", "donor_name": null, "donor_information": null, "bench_comments": null}}, {"type": "Feature", "id": 22, "geometry": {"type": "Point", "coordinates": [-84.3910922719353, 33.7731470923782]}, "properties": {"objectid": 22, "globalid": "cfe3de98-2bba-4dcf-868f-210f2af9c86a", "CreationDate": 1724176742398, "Creator": "dsimsGT", "EditDate": 1724177051703, "Editor": "wsims6_GTFacilities", "location_name": "Glenn towers 8", "bench_material": "Wood", "bench_condition": "Good", "commemorative_bench": "No", "donor_name": null, "donor_information": null, "bench_comments": null}}, {"type": "Feature", "id": 23, "geometry": {"type": "Point", "coordinates": [-84.3910391178671, 33.7731292272882]}, "properties": {"objectid": 23, "globalid": "f0b523ea-16d4-46b1-916a-1c17c3d4f7c3", "CreationDate": 1724176820125, "Creator": "dsimsGT", "EditDate": 1724176820125, "Editor": "dsimsGT", "location_name": "Glen towers 7", "bench_material": "Wood", "bench_condition": "Good", "commemorative_bench": "No", "donor_name": null, "donor_information": null, "bench_comments": null}}, {"type": "Feature", "id": 24, "geometry": {"type": "Point", "coordinates": [-84.3914223610942, 33.7735274842245]}, "properties": {"objectid": 24, "globalid": "d3539748-bed8-49bc-b494-ddf9cba4dff3", "CreationDate": 1724176847782, "Creator": "gtfm_kabernathy", "EditDate": 1724176847782, "Editor": "gtfm_kabernathy", "location_name": "Glenn Towers Courtyard Left 7", "bench_material": "Wood", "bench_condition": "Good", "commemorative_bench": "No", "donor_name": null, "donor_information": null, "bench_comments": null}}, {"type": "Feature", "id": 25, "geometry": {"type": "Point", "coordinates": [-84.3911615086875, 33.7733010846082]}, "properties": {"objectid": 25, "globalid": "b0ad4521-5b4c-40ba-889e-4f3b26331c1d", "CreationDate": 1724176885685, "Creator": "dsimsGT", "EditDate": 1724177014762, "Editor": "wsims6_GTFacilities", "location_name": "Glenn towers 9", "bench_material": "Wood", "bench_condition": "Good", "commemorative_bench": "No", "donor_name": null, "donor_information": null, "bench_comments": null}}, {"type": "Feature", "id": 26, "geometry": {"type": "Point", "coordinates": [-84.3911653149355, 33.7734136649366]}, "properties": {"objectid": 26, "globalid": "91ee32cb-7da6-4048-84ba-1bda093004ba", "CreationDate": 1724176922250, "Creator": "dsimsGT", "EditDate": 1724176922250, "Editor": "dsimsGT", "location_name": "Glen towers 10", "bench_material": "Wood", "bench_condition": "Good", "commemorative_bench": "No", "donor_name": null, "donor_information": null, "bench_comments": null}}, {"type": "Feature", "id": 27, "geometry": {"type": "Point", "coordinates": [-84.3911718372784, 33.7735223623672]}, "properties": {"objectid": 27, "globalid": "7f8c2f3f-43b8-4761-bc3d-6f8cec20564b", "CreationDate": 1724176945147, "Creator": "gtfm_kabernathy", "EditDate": 1724176945147, "Editor": "gtfm_kabernathy", "location_name": "Glenn Towers Courtyard Right 1", "bench_material": "Wood", "bench_condition": "Good", "commemorative_bench": "No", "donor_name": null, "donor_information": null, "bench_comments": null}}, {"type": "Feature", "id": 28, "geometry": {"type": "Point", "coordinates": [-84.3980690627541, 33.774533699087]}, "properties": {"objectid": 28, "globalid": "cf2a7e9b-e023-40dd-9335-2540db99fbcd", "CreationDate": 1734462212389, "Creator": "dsimsGT", "EditDate": 1734462212389, "Editor": "dsimsGT", "location_name": "Campanile 6", "bench_material": "Wood", "bench_condition": "Good", "commemorative_bench": "Yes", "donor_name": "Robert & Frederika Sitkoff", "donor_information": "IMGT - AEPI 1970-1974", "bench_comments": null}}, {"type": "Feature", "id": 29, "geometry": {"type": "Point", "coordinates": [-84.403015, 33.7752110000001]}, "properties": {"objectid": 29, "globalid": "cbfec7b4-e195-4c87-a24f-0f0f962619ca", "CreationDate": 1734553141683, "Creator": "dsimsGT", "EditDate": 1734553255874, "Editor": "dsimsGT", "location_name": null, "bench_material": "Wood", "bench_condition": "Good", "commemorative_bench": "Yes", "donor_name": "Campell Commemorative Bench ", "donor_information": "In Memory of Elizabeth Campell 1966-2013Tree - Emerald City Tulip PoplarCommemorative Bench Program", "bench_comments": "Commemorative Benches"}}, {"type": "Feature", "id": 30, "geometry": {"type": "Point", "coordinates": [-84.4013622856755, 33.7769989214924]}, "properties": {"objectid": 30, "globalid": "e6c04474-a952-4e3f-bfae-a76a64168ae3", "CreationDate": 1734553142429, "Creator": "dsimsGT", "EditDate": 1736794851081, "Editor": "dsimsGT", "location_name": null, "bench_material": "Wood", "bench_condition": "Good", "commemorative_bench": "Yes", "donor_name": "Hoppe Commemorative Bench", "donor_information": "In memory of Frederick John Hoppe, The \"First Grandfather\" of Georgia Tech Dedicated by Valerie Hoppe Peterson and G.P. \"Bud\" Peterson, October 2016Tree - Red Bud", "bench_comments": "Commemorative Benches"}}, {"type": "Feature", "id": 31, "geometry": {"type": "Point", "coordinates": [-84.4005739999999, 33.7760200000001]}, "properties": {"objectid": 31, "globalid": "4f934130-85ff-4f99-b006-45dd300e7799", "CreationDate": 1734553142755, "Creator": "dsimsGT", "EditDate": 1734553255874, "Editor": "dsimsGT", "location_name": null, "bench_material": "Wood", "bench_condition": "Good", "commemorative_bench": "Yes", "donor_name": "Knezevich Bench", "donor_information": "In Honor of V. John Knezevich, P.E. College of Engineering - IE 1961  Tree - White Oak", "bench_comments": "Commemorative Benches"}}, {"type": "Feature", "id": 32, "geometry": {"type": "Point", "coordinates": [-84.3956679999999, 33.7760240000001]}, "properties": {"objectid": 32, "globalid": "053e767d-026d-44af-8374-5f877b362847", "CreationDate": 1734553143186, "Creator": "dsimsGT", "EditDate": 1734553255874, "Editor": "dsimsGT", "location_name": null, "bench_material": "Wood", "bench_condition": "Good", "commemorative_bench": "Yes", "donor_name": "Gallaway Bench", "donor_information": "In Appreciation of Sharon Perry Galloway Friend and BenefactorCollege of Architecture", "bench_comments": "Commemorative Benches"}}, {"type": "Feature", "id": 33, "geometry": {"type": "Point", "coordinates": [-84.395699, 33.775993]}, "properties": {"objectid": 33, "globalid": "cda7acbb-920e-4731-8f7e-0d6274525a1b", "CreationDate": 1734553143404, "Creator": "dsimsGT", "EditDate": 1734553255874, "Editor": "dsimsGT", "location_name": null, "bench_material": "Wood", "bench_condition": "Good", "commemorative_bench": "Yes", "donor_name": "Gallaway Bench", "donor_information": "In Memory of Dr. Thomas D. Galloway Dean College of Architecture 1992-2007", "bench_comments": "Commemorative Benches"}}, {"type": "Feature", "id": 34, "geometry": {"type": "Point", "coordinates": [-84.397552, 33.775562]}, "properties": {"objectid": 34, "globalid": "00772401-b3a0-41b7-95c6-e3261d0e223c", "CreationDate": 1734553143687, "Creator": "dsimsGT", "EditDate": 1734553255874, "Editor": "dsimsGT", "location_name": null, "bench_material": "Wood", "bench_condition": "Good", "commemorative_bench": "Yes", "donor_name": "Scarborough Bench", "donor_information": "In memory of Jack Conly Scarborough Jr., EE 1950Navy ROTC; Phi Delta Theta Tree - Oak by IDC", "bench_comments": "Commemorative Benches"}}, {"type": "Feature", "id": 35, "geometry": {"type": "Point", "coordinates": [-84.397644, 33.7758480000001]}, "properties": {"objectid": 35, "globalid": "cea48b4c-430d-4543-a9cf-75ae44a3a0d2", "CreationDate": 1734553144009, "Creator": "dsimsGT", "EditDate": 1734553255874, "Editor": "dsimsGT", "location_name": null, "bench_material": "Wood", "bench_condition": "Good", "commemorative_bench": "Yes", "donor_name": "Peng Bench", "donor_information": "In honor of Monson H. Hayes III Professor of Electrical and Computer Engineering From Antai Peng, PhD'96, Dedicated 2018", "bench_comments": "Commemorative Benches"}}, {"type": "Feature", "id": 36, "geometry": {"type": "Point", "coordinates": [-84.396919, 33.77354]}, "properties": {"objectid": 36, "globalid": "b65a5a33-ee16-4b20-82c1-91ccd2eeab69", "CreationDate": 1734553144307, "Creator": "dsimsGT", "EditDate": 1734553255874, "Editor": "dsimsGT", "location_name": null, "bench_material": "Wood", "bench_condition": "Good", "commemorative_bench": "Yes", "donor_name": "Bruce Edwards Bench", "donor_information": "In memory of Bruce M. Edwards, IM GT 1971 1949-2009", "bench_comments": "Commemorative Benches"}}, {"type": "Feature", "id": 37, "geometry": {"type": "Point", "coordinates": [-84.394173, 33.7739750000001]}, "properties": {"objectid": 37, "globalid": "1ac15a2b-0b3c-453f-a566-78cba61a3c2c", "CreationDate": 1734553144730, "Creator": "dsimsGT", "EditDate": 1734553255874, "Editor": "dsimsGT", "location_name": null, "bench_material": "Wood", "bench_condition": "Good", "commemorative_bench": "Yes", "donor_name": "The Friendship Bench", "donor_information": "The Friendship Bench \"Sharing our love of language.\" Presented to Dr. Rebecca Burnett, 15 March 2019  By Pamela M. and Stepen C. Hall, IM 1967", "bench_comments": "Commemorative Benches"}}, {"type": "Feature", "id": 38, "geometry": {"type": "Point", "coordinates": [-84.393471, 33.7737690000001]}, "properties": {"objectid": 38, "globalid": "197497fe-c063-41f7-a365-78b6936068b9", "CreationDate": 1734553145337, "Creator": "dsimsGT", "EditDate": 1734553255874, "Editor": "dsimsGT", "location_name": null, "bench_material": "Wood", "bench_condition": "Good", "commemorative_bench": "Yes", "donor_name": "Pope Bench", "donor_information": "In Memory of William \"Bill\" Hughlan Pope, CERE 1979 Loved Father, Uncle, Brother, and Grandfather and one Helluva Engineer - 1951-2016 Tree - Ginko (east of Nano Lawn)", "bench_comments": "Commemorative Benches"}}, {"type": "Feature", "id": 39, "geometry": {"type": "Point", "coordinates": [-84.393387, 33.7739720000001]}, "properties": {"objectid": 39, "globalid": "b91bfee8-62b4-4025-9e57-e4fe22741ad7", "CreationDate": 1734553145714, "Creator": "dsimsGT", "EditDate": 1734553255874, "Editor": "dsimsGT", "location_name": null, "bench_material": "Wood", "bench_condition": "Good", "commemorative_bench": "Yes", "donor_name": "Hunt Bench", "donor_information": "In honor of Ann and Jimmy Hunt, IMGT 1979with love from their children Dedicated 2017 Tree - White Oak", "bench_comments": "Commemorative Benches"}}, {"type": "Feature", "id": 40, "geometry": {"type": "Point", "coordinates": [-84.394096, 33.7724380000001]}, "properties": {"objectid": 40, "globalid": "18a2f3ad-2e2e-4702-9eec-b57348dcd2b3", "CreationDate": 1734553146094, "Creator": "dsimsGT", "EditDate": 1734553255874, "Editor": "dsimsGT", "location_name": null, "bench_material": "Wood", "bench_condition": "Good", "commemorative_bench": "Yes", "donor_name": "Carson Family Bench", "donor_information": "In honor of Carolyn and Barrett H. Carson and their children Biz, Blake '14, and Meredith '18 Dedicated 2016", "bench_comments": "Commemorative Benches"}}, {"type": "Feature", "id": 41, "geometry": {"type": "Point", "coordinates": [-84.394089, 33.772385]}, "properties": {"objectid": 41, "globalid": "4b6b32bb-3ccc-4a9c-899c-2fd7c0b8e028", "CreationDate": 1734553146422, "Creator": "dsimsGT", "EditDate": 1734553255874, "Editor": "dsimsGT", "location_name": null, "bench_material": "Wood", "bench_condition": "Good", "commemorative_bench": "Yes", "donor_name": "Carson Family Bench", "donor_information": "In honor of Carolyn and Barrett H. Carson and their children Biz, Blake '14, and Meredith '18 Dedicated 2016", "bench_comments": "Commemorative Benches"}}, {"type": "Feature", "id": 42, "geometry": {"type": "Point", "coordinates": [-84.3951259999999, 33.772476]}, "properties": {"objectid": 42, "globalid": "083fee58-964d-42a4-8712-39ea618b5516", "CreationDate": 1734553146883, "Creator": "dsimsGT", "EditDate": 1734553255874, "Editor": "dsimsGT", "location_name": null, "bench_material": "Wood", "bench_condition": "Good", "commemorative_bench": "Yes", "donor_name": "DeAugustinis Bench", "donor_information": "In memory of Tara F. DeAugustinis (IE 1992) 1970-2017 Beloved wife, devoted mother, strong leader,  and a hell of an engineer. Tree - Butterfly Magnolia", "bench_comments": "Commemorative Benches"}}, {"type": "Feature", "id": 43, "geometry": {"type": "Point", "coordinates": [-84.3948589999999, 33.77216]}, "properties": {"objectid": 43, "globalid": "792a1731-f40c-4622-8c26-34679ce3a584", "CreationDate": 1734553147061, "Creator": "dsimsGT", "EditDate": 1734553255874, "Editor": "dsimsGT", "location_name": null, "bench_material": "Wood", "bench_condition": "Good", "commemorative_bench": "Yes", "donor_name": "Sibley Bench", "donor_information": "In loving memory of William H. Sibley, ME 1932", "bench_comments": "Commemorative Benches"}}, {"type": "Feature", "id": 44, "geometry": {"type": "Point", "coordinates": [-84.3949509999999, 33.7721790000001]}, "properties": {"objectid": 44, "globalid": "99d5c12c-8331-457a-8185-681fec806117", "CreationDate": 1734553147351, "Creator": "dsimsGT", "EditDate": 1734553255874, "Editor": "dsimsGT", "location_name": null, "bench_material": "Wood", "bench_condition": "Good", "commemorative_bench": "Yes", "donor_name": "Edward T. Rempe III Bench", "donor_information": "In loving memory of Edward T. Rempe III, EE 1959", "bench_comments": "Commemorative Benches"}}, {"type": "Feature", "id": 45, "geometry": {"type": "Point", "coordinates": [-84.394547, 33.7719230000001]}, "properties": {"objectid": 45, "globalid": "71e74d3f-8f94-46f3-baca-6990accc94c2", "CreationDate": 1734553147622, "Creator": "dsimsGT", "EditDate": 1734553255874, "Editor": "dsimsGT", "location_name": null, "bench_material": "Wood", "bench_condition": "Good", "commemorative_bench": "Yes", "donor_name": "Hall Family Bench", "donor_information": "Christine & Dewey Hall, Lt. Col. USA Presented August 15, 2015 By Pamela & Stephen Hall, IM 1967, Col. USAF", "bench_comments": "Commemorative Benches"}}, {"type": "Feature", "id": 46, "geometry": {"type": "Point", "coordinates": [-84.3942719999999, 33.7719040000001]}, "properties": {"objectid": 46, "globalid": "6cc427f7-1726-4966-84ec-85a61c5e5b06", "CreationDate": 1734553147921, "Creator": "dsimsGT", "EditDate": 1734553255874, "Editor": "dsimsGT", "location_name": null, "bench_material": "Wood", "bench_condition": "Good", "commemorative_bench": "Yes", "donor_name": "Rigby Family Bench", "donor_information": "Lillian & Leslie Presented April 3, 2015 By Pamela & Stephen Hall, IM 1967", "bench_comments": "Commemorative Benches"}}, {"type": "Feature", "id": 47, "geometry": {"type": "Point", "coordinates": [-84.39537, 33.773174]}, "properties": {"objectid": 47, "globalid": "388682a5-f626-408b-abe6-1823fccf0002", "CreationDate": 1734553148316, "Creator": "dsimsGT", "EditDate": 1734553255874, "Editor": "dsimsGT", "location_name": null, "bench_material": "Wood", "bench_condition": "Good", "commemorative_bench": "Yes", "donor_name": "Hall-McGruder Friendship Bench", "donor_information": "The Hall-McGruder Friendship Bench Pamela & Stephen Hall, IM 1967, and Henraya, Alexander, Hailey and Juan McGruder Dedicated October 24, 2015", "bench_comments": "Commemorative Benches"}}, {"type": "Feature", "id": 48, "geometry": {"type": "Point", "coordinates": [-84.395615, 33.7740020000001]}, "properties": {"objectid": 48, "globalid": "f7020239-60ae-44ff-af56-773fd96ca2ca", "CreationDate": 1734553148517, "Creator": "dsimsGT", "EditDate": 1734553255874, "Editor": "dsimsGT", "location_name": null, "bench_material": "Wood", "bench_condition": "Good", "commemorative_bench": "Yes", "donor_name": "Milburn Bench", "donor_information": "Milburn Bench It all started here. Kathey & Fred Milburn, IE 1979.  Andrew Milburn, MSE 2007", "bench_comments": "Commemorative Benches"}}, {"type": "Feature", "id": 49, "geometry": {"type": "Point", "coordinates": [-84.388, 33.776329]}, "properties": {"objectid": 49, "globalid": "574787bf-1dd5-4161-9137-2664f9884b0e", "CreationDate": 1734553148660, "Creator": "dsimsGT", "EditDate": 1734553255874, "Editor": "dsimsGT", "location_name": null, "bench_material": "Wood", "bench_condition": "Good", "commemorative_bench": "Yes", "donor_name": "Edward Rowe Bench", "donor_information": "In loving memory of Edward Henry Rowe CMPE 2003, MBA 2014 1981-2014", "bench_comments": "Commemorative Benches"}}, {"type": "Feature", "id": 50, "geometry": {"type": "Point", "coordinates": [-84.395187, 33.771511]}, "properties": {"objectid": 50, "globalid": "5f0bca81-ccce-497c-9583-40bc557a7aff", "CreationDate": 1734553148888, "Creator": "dsimsGT", "EditDate": 1734553255874, "Editor": "dsimsGT", "location_name": null, "bench_material": "Wood", "bench_condition": "Good", "commemorative_bench": "Yes", "donor_name": "McKnight Bench", "donor_information": "Dedicated to the Memory of Dr. Phil McKnight,  Chair of the School of Modern Languages 2001 - 2011", "bench_comments": "Commemorative Benches"}}, {"type": "Feature", "id": 51, "geometry": {"type": "Point", "coordinates": [-84.3975829999999, 33.7757950000001]}, "properties": {"objectid": 51, "globalid": "481990ef-3aa2-49e4-ab5b-b1edfc35c8fd", "CreationDate": 1734553149305, "Creator": "dsimsGT", "EditDate": 1734553255874, "Editor": "dsimsGT", "location_name": null, "bench_material": "Wood", "bench_condition": "Good", "commemorative_bench": "Yes", "donor_name": "Schultz Bench", "donor_information": "In Memory of Scout Schultz, CE 2018 (they/them) 1995 - 2017 Pride Alliance President, Activist, and Friend", "bench_comments": "Commemorative Benches"}}, {"type": "Feature", "id": 52, "geometry": {"type": "Point", "coordinates": [-84.398209, 33.775085]}, "properties": {"objectid": 52, "globalid": "76938f2b-73cf-4bb8-b16a-6856894f6871", "CreationDate": 1734553149633, "Creator": "dsimsGT", "EditDate": 1734553255874, "Editor": "dsimsGT", "location_name": null, "bench_material": "Wood", "bench_condition": "Good", "commemorative_bench": "Yes", "donor_name": "Kristi Anne Clough Bench", "donor_information": null, "bench_comments": "Commemorative Benches"}}, {"type": "Feature", "id": 53, "geometry": {"type": "Point", "coordinates": [-84.395615, 33.7728310000001]}, "properties": {"objectid": 53, "globalid": "2f65e63e-3bb9-45f6-a3fe-2d3be69c55ab", "CreationDate": 1734553149995, "Creator": "dsimsGT", "EditDate": 1734553255874, "Editor": "dsimsGT", "location_name": null, "bench_material": "Wood", "bench_condition": "Good", "commemorative_bench": "Yes", "donor_name": "Nash Family Bench - William Gresham Thomas", "donor_information": "Nash Family Benches William Gresham Thomas, Class of 1916", "bench_comments": "Commemorative Benches"}}, {"type": "Feature", "id": 54, "geometry": {"type": "Point", "coordinates": [-84.395615, 33.772789]}, "properties": {"objectid": 54, "globalid": "3410e6d9-4607-4cc8-bf17-a6d4d4552514", "CreationDate": 1734553150260, "Creator": "dsimsGT", "EditDate": 1734553255874, "Editor": "dsimsGT", "location_name": null, "bench_material": "Wood", "bench_condition": "Good", "commemorative_bench": "Yes", "donor_name": "Nash Family Benches - Thomas Wilson Land", "donor_information": "Nash Family Benches Thomas Wilson Land, MS IM 1976 and Randi Land", "bench_comments": "Commemorative Benches"}}, {"type": "Feature", "id": 55, "geometry": {"type": "Point", "coordinates": [-84.3953319999999, 33.773174]}, "properties": {"objectid": 55, "globalid": "b1257363-20cc-4246-89d4-bcd7a4f23286", "CreationDate": 1734553150567, "Creator": "dsimsGT", "EditDate": 1734553255874, "Editor": "dsimsGT", "location_name": null, "bench_material": "Wood", "bench_condition": "Good", "commemorative_bench": "Yes", "donor_name": "Nash Family Benches - Dennis Norman Willingham", "donor_information": "Nash Family Benches Dennis Norman Willingham, IM 1978 and Peggy M. Willingham", "bench_comments": "Commemorative Benches"}}, {"type": "Feature", "id": 56, "geometry": {"type": "Point", "coordinates": [-84.395294, 33.773174]}, "properties": {"objectid": 56, "globalid": "57e262fd-61fe-4c04-babc-7de4e26965c8", "CreationDate": 1734553150766, "Creator": "dsimsGT", "EditDate": 1734553255874, "Editor": "dsimsGT", "location_name": null, "bench_material": "Wood", "bench_condition": "Good", "commemorative_bench": "Yes", "donor_name": "Nash Family Benches - Andrew Dennis Willingham", "donor_information": "Nash Family Benches Andrew Dennis Willingham, MS MT 2010 and Colette Willingham", "bench_comments": "Commemorative Benches"}}, {"type": "Feature", "id": 57, "geometry": {"type": "Point", "coordinates": [-84.395256, 33.773174]}, "properties": {"objectid": 57, "globalid": "63301fdb-dddf-49e9-bccb-d5dd31058e59", "CreationDate": 1734553150922, "Creator": "dsimsGT", "EditDate": 1734553255874, "Editor": "dsimsGT", "location_name": null, "bench_material": "Wood", "bench_condition": "Good", "commemorative_bench": "Yes", "donor_name": "Nash Family Benches - Deborah Anne Nash", "donor_information": "Nash Family Benches Deborah Anne Nash, IE 1978", "bench_comments": "Commemorative Benches"}}, {"type": "Feature", "id": 58, "geometry": {"type": "Point", "coordinates": [-84.395226, 33.7731700000001]}, "properties": {"objectid": 58, "globalid": "426ebb77-903d-4893-ba7d-aad0cee6b895", "CreationDate": 1734553151070, "Creator": "dsimsGT", "EditDate": 1734553255874, "Editor": "dsimsGT", "location_name": null, "bench_material": "Wood", "bench_condition": "Good", "commemorative_bench": "Yes", "donor_name": "Nash Family Benches - David Ronald Nash", "donor_information": "Nash Family Benches David Ronald Nash, ME 2003, IAML 2003 and Tiffany M. Nash", "bench_comments": "Commemorative Benches"}}, {"type": "Feature", "id": 59, "geometry": {"type": "Point", "coordinates": [-84.395187, 33.7731700000001]}, "properties": {"objectid": 59, "globalid": "9489e410-0ef2-4b31-b3ea-5433d3e7bcff", "CreationDate": 1734553151289, "Creator": "dsimsGT", "EditDate": 1734553255874, "Editor": "dsimsGT", "location_name": null, "bench_material": "Wood", "bench_condition": "Good", "commemorative_bench": "Yes", "donor_name": "Nash Family Benches - H. Ronald Nash Jr.", "donor_information": "Nash Family Benches H. Ronald Nash Jr., IE 1970 and Susan C. Nash", "bench_comments": "Commemorative Benches"}}, {"type": "Feature", "id": 60, "geometry": {"type": "Point", "coordinates": [-84.395157, 33.773041]}, "properties": {"objectid": 60, "globalid": "691bb491-345a-49d1-891e-f5961f3a0de0", "CreationDate": 1734553151431, "Creator": "dsimsGT", "EditDate": 1734553255874, "Editor": "dsimsGT", "location_name": null, "bench_material": "Wood", "bench_condition": "Good", "commemorative_bench": "Yes", "donor_name": "Nash Family Benches - Harold Ronald Nash", "donor_information": "Nash Family Benches Harold Ronald Nash, EE 1952 and Mary Anne Nash", "bench_comments": "Commemorative Benches"}}, {"type": "Feature", "id": 61, "geometry": {"type": "Point", "coordinates": [-84.395157, 33.772999]}, "properties": {"objectid": 61, "globalid": "a0a4bb10-c2fe-4aa7-80ff-6c2518ccd089", "CreationDate": 1734553151610, "Creator": "dsimsGT", "EditDate": 1734553255874, "Editor": "dsimsGT", "location_name": null, "bench_material": "Wood", "bench_condition": "Good", "commemorative_bench": "Yes", "donor_name": "Nash Family Benches ", "donor_information": "Nash Family Benches Honoring all members of this supportive Georgia Tech family", "bench_comments": "Commemorative Benches"}}, {"type": "Feature", "id": 62, "geometry": {"type": "Point", "coordinates": [-84.395615, 33.7729340000001]}, "properties": {"objectid": 62, "globalid": "f40fe507-63a1-4f82-825c-d432aaf9609a", "CreationDate": 1734553152076, "Creator": "dsimsGT", "EditDate": 1734553255874, "Editor": "dsimsGT", "location_name": null, "bench_material": "Wood", "bench_condition": "Good", "commemorative_bench": "Yes", "donor_name": "Nash Family Benches - Don L. Chapman", "donor_information": "Nash Family Benches Don L. Chapman, IM 1961 and Beverly Nash Chapman", "bench_comments": "Commemorative Benches"}}, {"type": "Feature", "id": 63, "geometry": {"type": "Point", "coordinates": [-84.395393, 33.7728270000001]}, "properties": {"objectid": 63, "globalid": "7d2c536a-66b2-4718-b62f-71108819dd13", "CreationDate": 1734553152446, "Creator": "dsimsGT", "EditDate": 1734553255874, "Editor": "dsimsGT", "location_name": null, "bench_material": "Wood", "bench_condition": "Good", "commemorative_bench": "Yes", "donor_name": "Nash Family Benches - Michael Richard Nash", "donor_information": "Nash Family Benches Michael Richard Nash, IE 1974 and Annette Nash", "bench_comments": "Commemorative Benches"}}, {"type": "Feature", "id": 64, "geometry": {"type": "Point", "coordinates": [-84.395393, 33.772789]}, "properties": {"objectid": 64, "globalid": "d2ca18a5-49cd-4ac0-8a97-5469fe817020", "CreationDate": 1734553152684, "Creator": "dsimsGT", "EditDate": 1734553255874, "Editor": "dsimsGT", "location_name": null, "bench_material": "Wood", "bench_condition": "Good", "commemorative_bench": "Yes", "donor_name": "Nash Family Benches - Jennifer Nash Tench", "donor_information": "Nash Family Benches Jennifer Nash Tench, Arch 2002 and Bryant Tench", "bench_comments": "Commemorative Benches"}}, {"type": "Feature", "id": 65, "geometry": {"type": "Point", "coordinates": [-84.3954009999999, 33.77264]}, "properties": {"objectid": 65, "globalid": "8955449b-af91-4839-aabe-c1a61b055ed9", "CreationDate": 1734553152839, "Creator": "dsimsGT", "EditDate": 1734553255874, "Editor": "dsimsGT", "location_name": null, "bench_material": "Wood", "bench_condition": "Good", "commemorative_bench": "Yes", "donor_name": "Nash Family Benches - Arthur Cason Ivey", "donor_information": "Nash Family Benches Arthur Cason Ivey, CE 1981 and Mary Alice Nash Ivey", "bench_comments": "Commemorative Benches"}}, {"type": "Feature", "id": 66, "geometry": {"type": "Point", "coordinates": [-84.395393, 33.772614]}, "properties": {"objectid": 66, "globalid": "5f769215-f39f-4480-8a4e-8fd8288fc114", "CreationDate": 1734553153002, "Creator": "dsimsGT", "EditDate": 1734553255874, "Editor": "dsimsGT", "location_name": null, "bench_material": "Wood", "bench_condition": "Good", "commemorative_bench": "Yes", "donor_name": "Nash Family Benches - Benjamin Cason Ivey", "donor_information": "Nash Family Benches Benjamin Cason Ivey, ChBE 2012", "bench_comments": "Commemorative Benches"}}, {"type": "Feature", "id": 67, "geometry": {"type": "Point", "coordinates": [-84.395393, 33.7727360000001]}, "properties": {"objectid": 67, "globalid": "87139bf8-c9b8-49fc-8e68-16cfcf4f2885", "CreationDate": 1734553153280, "Creator": "dsimsGT", "EditDate": 1734553255874, "Editor": "dsimsGT", "location_name": null, "bench_material": "Wood", "bench_condition": "Good", "commemorative_bench": "Yes", "donor_name": "Nash Family Benches - Michael Richard Nash Jr.", "donor_information": "Nash Family Benches Michael Richard Nash Jr., MS IE 2005 and Julia C. Nash", "bench_comments": "Commemorative Benches"}}, {"type": "Feature", "id": 68, "geometry": {"type": "Point", "coordinates": [-84.395393, 33.7727090000001]}, "properties": {"objectid": 68, "globalid": "365b0eda-55c5-423d-88b8-a36197cffc48", "CreationDate": 1734553153440, "Creator": "dsimsGT", "EditDate": 1734553255874, "Editor": "dsimsGT", "location_name": null, "bench_material": "Wood", "bench_condition": "Good", "commemorative_bench": "Yes", "donor_name": "Nash Family Benches - Ellen D. Evatt", "donor_information": "Nash Family Benches Ellen D. Evatt, TEXT 1973", "bench_comments": "Commemorative Benches"}}, {"type": "Feature", "id": 69, "geometry": {"type": "Point", "coordinates": [-84.394333, 33.7722400000001]}, "properties": {"objectid": 69, "globalid": "e6741287-1bd6-4de4-bccb-e878e87ac377", "CreationDate": 1734553153700, "Creator": "dsimsGT", "EditDate": 1734553255874, "Editor": "dsimsGT", "location_name": null, "bench_material": "Wood", "bench_condition": "Good", "commemorative_bench": "Yes", "donor_name": "Major Jesse Flanigan Bench USAF Ret", "donor_information": "In memory of Major Jesse Flanigan IV USAF Ret Physics 1998 With love from his mother", "bench_comments": "Commemorative Benches"}}, {"type": "Feature", "id": 70, "geometry": {"type": "Point", "coordinates": [-84.388992, 33.7752300000001]}, "properties": {"objectid": 70, "globalid": "c5e9111a-4051-4aa8-813f-8cc2dadb3eb5", "CreationDate": 1734553153886, "Creator": "dsimsGT", "EditDate": 1734553255874, "Editor": "dsimsGT", "location_name": null, "bench_material": "Wood", "bench_condition": "Good", "commemorative_bench": "Yes", "donor_name": "Pamela \"Sissie\" Rary Bench", "donor_information": "In Memory of Pamela \"Sissie\" Rary Every day, in some small way, memories of you come our way.", "bench_comments": "Commemorative Benches"}}]}