{"type": "FeatureCollection", "features": [{"type": "Feature", "id": 1, "geometry": {"type": "Point", "coordinates": [-84.403015, 33.775211]}, "properties": {"Name": "Campell Commemorative Bench ", "Description": "In Memory of Elizabeth Campell 1966-2013Tree - Emerald City Tulip PoplarCommemorative Bench Program", "Keywords": "Commemorative Bench,Tree and Bench", "Categories": "Commemorative Benches", "Location": "33.775211,-84.403015", "Latitude": 33.775211, "Longitude": -84.403015, "Image": "Bench1a.JPG\nBench1b.JPG\nBench1d.JPG\nBench1e.JPG", "Visible": 1, "Private": 0, "Feed_URL": null, "Rate": 0, "Level_": 0, "Schedule": null, "Marker_Instance_IDs": 408709, "Marker_ID": 298003, "Category_IDs": 40738, "Tour_Name": null, "Tour_Id": null, "Last_Edited_By": "jason_gregory", "Created_Date": 1557924840000, "Changed_Date": 1562958360000, "ObjectId": 1, "GlobalID": "78a467ce-ef10-4b60-b81c-fc8ee30142dd"}}, {"type": "Feature", "id": 2, "geometry": {"type": "Point", "coordinates": [-84.401253, 33.776867]}, "properties": {"Name": "Hoppe Commemorative Bench", "Description": "In memory of Frederick John Hoppe, The \"First Grandfather\" of Georgia Tech Dedicated by Valerie Hoppe Peterson and G.P. \"Bud\" Peterson, October 2016Tree - Red Bud", "Keywords": null, "Categories": "Commemorative Benches", "Location": "33.776867,-84.401253", "Latitude": 33.776867, "Longitude": -84.401253, "Image": "Bench2b.JPG\nBench2c.JPG\nBench2e.JPG", "Visible": 1, "Private": 0, "Feed_URL": null, "Rate": 0, "Level_": 0, "Schedule": null, "Marker_Instance_IDs": 408710, "Marker_ID": 298004, "Category_IDs": 40738, "Tour_Name": null, "Tour_Id": null, "Last_Edited_By": "jason_gregory", "Created_Date": 1557927300000, "Changed_Date": 1562958360000, "ObjectId": 2, "GlobalID": "f8301071-3133-483c-9d54-e285729c5913"}}, {"type": "Feature", "id": 3, "geometry": {"type": "Point", "coordinates": [-84.400574, 33.77602]}, "properties": {"Name": "Knezevich Bench", "Description": "In Honor of V. John Knezevich, P.E. College of Engineering - IE 1961  Tree - White Oak", "Keywords": null, "Categories": "Commemorative Benches", "Location": "33.776020,-84.400574", "Latitude": 33.77602, "Longitude": -84.400574, "Image": "Bench3a.JPG\nBench3b.JPG\nBench3c.JPG\nBench3d.JPG", "Visible": 1, "Private": 0, "Feed_URL": null, "Rate": 0, "Level_": 0, "Schedule": null, "Marker_Instance_IDs": 419523, "Marker_ID": 305804, "Category_IDs": 40738, "Tour_Name": null, "Tour_Id": null, "Last_Edited_By": "jason_gregory", "Created_Date": 1562958360000, "Changed_Date": 1562958360000, "ObjectId": 3, "GlobalID": "e5ea76c0-e50b-4532-8d1d-c637120c51e1"}}, {"type": "Feature", "id": 4, "geometry": {"type": "Point", "coordinates": [-84.395668, 33.776024]}, "properties": {"Name": "Gallaway Bench", "Description": "In Appreciation of Sharon Perry Galloway Friend and BenefactorCollege of Architecture", "Keywords": null, "Categories": "Commemorative Benches", "Location": "33.776024,-84.395668", "Latitude": 33.776024, "Longitude": -84.395668, "Image": "Bench4b.JPG\nBench4e.JPG\nBench4f.JPG\nBench4h.jpg", "Visible": 1, "Private": 0, "Feed_URL": null, "Rate": 0, "Level_": 0, "Schedule": null, "Marker_Instance_IDs": 419530, "Marker_ID": 305809, "Category_IDs": 40738, "Tour_Name": null, "Tour_Id": null, "Last_Edited_By": "jason_gregory", "Created_Date": 1562959620000, "Changed_Date": 1562959620000, "ObjectId": 4, "GlobalID": "d59e090f-eff6-4dae-a754-702ad9632279"}}, {"type": "Feature", "id": 5, "geometry": {"type": "Point", "coordinates": [-84.395699, 33.775993]}, "properties": {"Name": "Gallaway Bench", "Description": "In Memory of Dr. Thomas D. Galloway Dean College of Architecture 1992-2007", "Keywords": null, "Categories": "Commemorative Benches", "Location": "33.775993,-84.395699", "Latitude": 33.775993, "Longitude": -84.395699, "Image": "Bench5b.JPG\nBench5g.JPG\nBench5f.JPG", "Visible": 1, "Private": 0, "Feed_URL": null, "Rate": 0, "Level_": 0, "Schedule": null, "Marker_Instance_IDs": 419531, "Marker_ID": 305810, "Category_IDs": 40738, "Tour_Name": null, "Tour_Id": null, "Last_Edited_By": "jason_gregory", "Created_Date": 1562959620000, "Changed_Date": 1562959620000, "ObjectId": 5, "GlobalID": "dbc875a8-38be-43c6-903f-0e19929a74c7"}}, {"type": "Feature", "id": 6, "geometry": {"type": "Point", "coordinates": [-84.397552, 33.775562]}, "properties": {"Name": "Scarborough Bench", "Description": "In memory of Jack Conly Scarborough Jr., EE 1950Navy ROTC; Phi Delta Theta Tree - Oak by IDC", "Keywords": null, "Categories": "Commemorative Benches", "Location": "33.775562,-84.397552", "Latitude": 33.775562, "Longitude": -84.397552, "Image": "Bench6b.JPG\nBench6d.JPG\nBench6e.JPG\nBench6f.JPG", "Visible": 1, "Private": 0, "Feed_URL": null, "Rate": 0, "Level_": 0, "Schedule": null, "Marker_Instance_IDs": 419532, "Marker_ID": 305811, "Category_IDs": 40738, "Tour_Name": null, "Tour_Id": null, "Last_Edited_By": "jason_gregory", "Created_Date": 1562959620000, "Changed_Date": 1562964960000, "ObjectId": 6, "GlobalID": "23363244-fc69-46cd-bb2b-e686d5393500"}}, {"type": "Feature", "id": 7, "geometry": {"type": "Point", "coordinates": [-84.397644, 33.775848]}, "properties": {"Name": "Peng Bench", "Description": "In honor of Monson H. Hayes III Professor of Electrical and Computer Engineering From Antai Peng, PhD'96, Dedicated 2018", "Keywords": null, "Categories": "Commemorative Benches", "Location": "33.775848,-84.397644", "Latitude": 33.775848, "Longitude": -84.397644, "Image": "Bench7a.JPG\nBench7c.JPG\nBench7d.JPG\nBench7e.JPG", "Visible": 1, "Private": 0, "Feed_URL": null, "Rate": 0, "Level_": 0, "Schedule": null, "Marker_Instance_IDs": 419533, "Marker_ID": 305812, "Category_IDs": 40738, "Tour_Name": null, "Tour_Id": null, "Last_Edited_By": "jason_gregory", "Created_Date": 1562960940000, "Changed_Date": 1562960940000, "ObjectId": 7, "GlobalID": "e2cfcfe1-145a-4fa3-b48f-68f503e0247c"}}, {"type": "Feature", "id": 8, "geometry": {"type": "Point", "coordinates": [-84.396919, 33.77354]}, "properties": {"Name": "Bruce Edwards Bench", "Description": "In memory of Bruce M. Edwards, IM GT 1971 1949-2009", "Keywords": null, "Categories": "Commemorative Benches", "Location": "33.773540,-84.396919", "Latitude": 33.77354, "Longitude": -84.396919, "Image": "Edwards_bench_close_up_1.jpg\nEdwards_bench_1.jpg", "Visible": 1, "Private": 0, "Feed_URL": null, "Rate": 0, "Level_": 0, "Schedule": null, "Marker_Instance_IDs": 419538, "Marker_ID": 305816, "Category_IDs": 40738, "Tour_Name": null, "Tour_Id": null, "Last_Edited_By": "jason_gregory", "Created_Date": 1562964360000, "Changed_Date": 1562964360000, "ObjectId": 8, "GlobalID": "aa3ba70c-8508-4a6f-b0a6-cb8e1fe69daf"}}, {"type": "Feature", "id": 9, "geometry": {"type": "Point", "coordinates": [-84.394173, 33.773975]}, "properties": {"Name": "The Friendship Bench", "Description": "The Friendship Bench \"Sharing our love of language.\" Presented to Dr. Rebecca Burnett, 15 March 2019  By Pamela M. and Stepen C. Hall, IM 1967", "Keywords": null, "Categories": "Commemorative Benches", "Location": "33.773975,-84.394173", "Latitude": 33.773975, "Longitude": -84.394173, "Image": "Bench9b.JPG\nBench9c.JPG\nBench9h.JPG", "Visible": 1, "Private": 0, "Feed_URL": null, "Rate": 0, "Level_": 0, "Schedule": null, "Marker_Instance_IDs": 419539, "Marker_ID": 305817, "Category_IDs": 40738, "Tour_Name": null, "Tour_Id": null, "Last_Edited_By": "jason_gregory", "Created_Date": 1562964960000, "Changed_Date": 1562965320000, "ObjectId": 9, "GlobalID": "a9b63960-93ec-45dd-8ac2-95a1794d0e28"}}, {"type": "Feature", "id": 10, "geometry": {"type": "Point", "coordinates": [-84.393471, 33.773769]}, "properties": {"Name": "Pope Bench", "Description": "In Memory of William \"Bill\" Hughlan Pope, CERE 1979 Loved Father, Uncle, Brother, and Grandfather and one Helluva Engineer - 1951-2016 Tree - Ginko (east of Nano Lawn)", "Keywords": null, "Categories": "Commemorative Benches", "Location": "33.773769,-84.393471", "Latitude": 33.773769, "Longitude": -84.393471, "Image": "Bench10a.JPG\nBench10c.JPG\nBench10i.jpg", "Visible": 1, "Private": 0, "Feed_URL": null, "Rate": 0, "Level_": 0, "Schedule": null, "Marker_Instance_IDs": 419540, "Marker_ID": 305818, "Category_IDs": 40738, "Tour_Name": null, "Tour_Id": null, "Last_Edited_By": "jason_gregory", "Created_Date": 1562965320000, "Changed_Date": 1562965320000, "ObjectId": 10, "GlobalID": "e9306cb3-3a88-46a4-89f7-0c8b8707ff4b"}}, {"type": "Feature", "id": 11, "geometry": {"type": "Point", "coordinates": [-84.393387, 33.773972]}, "properties": {"Name": "Hunt Bench", "Description": "In honor of Ann and Jimmy Hunt, IMGT 1979with love from their children Dedicated 2017 Tree - White Oak", "Keywords": null, "Categories": "Commemorative Benches", "Location": "33.773972,-84.393387", "Latitude": 33.773972, "Longitude": -84.393387, "Image": "Bench11a.JPG\nBench11b.JPG\nBench11d.JPG\nBench11g.JPG", "Visible": 1, "Private": 0, "Feed_URL": null, "Rate": 0, "Level_": 0, "Schedule": null, "Marker_Instance_IDs": 419541, "Marker_ID": 305819, "Category_IDs": 40738, "Tour_Name": null, "Tour_Id": null, "Last_Edited_By": "jason_gregory", "Created_Date": 1562965500000, "Changed_Date": 1562965740000, "ObjectId": 11, "GlobalID": "50b38584-d8ee-4246-81d6-83a258ff195a"}}, {"type": "Feature", "id": 12, "geometry": {"type": "Point", "coordinates": [-84.394096, 33.772438]}, "properties": {"Name": "Carson Family Bench", "Description": "In honor of Carolyn and Barrett H. Carson and their children Biz, Blake '14, and Meredith '18 Dedicated 2016", "Keywords": null, "Categories": "Commemorative Benches", "Location": "33.772438,-84.394096", "Latitude": 33.772438, "Longitude": -84.394096, "Image": "Carson_bench_1.jpg\nCarson_bench_1_close_up.jpg", "Visible": 1, "Private": 0, "Feed_URL": null, "Rate": 0, "Level_": 0, "Schedule": null, "Marker_Instance_IDs": 419656, "Marker_ID": 305934, "Category_IDs": 40738, "Tour_Name": null, "Tour_Id": null, "Last_Edited_By": "jason_gregory", "Created_Date": 1563195840000, "Changed_Date": 1580498040000, "ObjectId": 12, "GlobalID": "7e1533d2-4f75-4e6c-9ff1-7beaf053abac"}}, {"type": "Feature", "id": 13, "geometry": {"type": "Point", "coordinates": [-84.394089, 33.772385]}, "properties": {"Name": "Carson Family Bench", "Description": "In honor of Carolyn and Barrett H. Carson and their children Biz, Blake '14, and Meredith '18 Dedicated 2016", "Keywords": null, "Categories": "Commemorative Benches", "Location": "33.772385,-84.394089", "Latitude": 33.772385, "Longitude": -84.394089, "Image": "Carson_bench_2.jpg\nCarson_bench_2_close_up.jpg", "Visible": 1, "Private": 0, "Feed_URL": null, "Rate": 0, "Level_": 0, "Schedule": null, "Marker_Instance_IDs": 419657, "Marker_ID": 305935, "Category_IDs": 40738, "Tour_Name": null, "Tour_Id": null, "Last_Edited_By": "jason_gregory", "Created_Date": 1563195840000, "Changed_Date": 1563195840000, "ObjectId": 13, "GlobalID": "850a6c37-0f63-4f4c-9524-5c7cd2ed55af"}}, {"type": "Feature", "id": 14, "geometry": {"type": "Point", "coordinates": [-84.395126, 33.772476]}, "properties": {"Name": "DeAugustinis Bench", "Description": "In memory of Tara F. DeAugustinis (IE 1992) 1970-2017 Beloved wife, devoted mother, strong leader,  and a hell of an engineer. Tree - Butterfly Magnolia", "Keywords": null, "Categories": "Commemorative Benches", "Location": "33.772476,-84.395126", "Latitude": 33.772476, "Longitude": -84.395126, "Image": "Bench14a.JPG\nBench14b.JPG\nDeAugustinis_bench_close_up.jpg", "Visible": 1, "Private": 0, "Feed_URL": null, "Rate": 0, "Level_": 0, "Schedule": null, "Marker_Instance_IDs": 419658, "Marker_ID": 305936, "Category_IDs": 40738, "Tour_Name": null, "Tour_Id": null, "Last_Edited_By": "jason_gregory", "Created_Date": 1563195840000, "Changed_Date": 1563196020000, "ObjectId": 14, "GlobalID": "8ba75f5f-80a7-4ff9-a888-1ee944f864d4"}}, {"type": "Feature", "id": 15, "geometry": {"type": "Point", "coordinates": [-84.394859, 33.77216]}, "properties": {"Name": "Sibley Bench", "Description": "In loving memory of William H. Sibley, ME 1932", "Keywords": null, "Categories": "Commemorative Benches", "Location": "33.772160,-84.394859", "Latitude": 33.77216, "Longitude": -84.394859, "Image": "Bench15a.JPG\nBench15b.JPG\nBench15c.JPG", "Visible": 1, "Private": 0, "Feed_URL": null, "Rate": 0, "Level_": 0, "Schedule": null, "Marker_Instance_IDs": 419660, "Marker_ID": 305938, "Category_IDs": 40738, "Tour_Name": null, "Tour_Id": null, "Last_Edited_By": "jason_gregory", "Created_Date": 1563197280000, "Changed_Date": 1563199740000, "ObjectId": 15, "GlobalID": "ae02374e-045c-42ca-bae5-5a9a509e3b57"}}, {"type": "Feature", "id": 16, "geometry": {"type": "Point", "coordinates": [-84.394951, 33.772179]}, "properties": {"Name": "Edward T. Rempe III Bench", "Description": "In loving memory of Edward T. Rempe III, EE 1959", "Keywords": null, "Categories": "Commemorative Benches", "Location": "33.772179,-84.394951", "Latitude": 33.772179, "Longitude": -84.394951, "Image": "Bench16a.JPG\nBench16c.JPG\nBench16b.JPG", "Visible": 1, "Private": 0, "Feed_URL": null, "Rate": 0, "Level_": 0, "Schedule": null, "Marker_Instance_IDs": 419661, "Marker_ID": 305939, "Category_IDs": 40738, "Tour_Name": null, "Tour_Id": null, "Last_Edited_By": "jason_gregory", "Created_Date": 1563197280000, "Changed_Date": 1563199740000, "ObjectId": 16, "GlobalID": "a56a85c9-4339-4b9c-a302-93a0af539776"}}, {"type": "Feature", "id": 17, "geometry": {"type": "Point", "coordinates": [-84.394547, 33.771923]}, "properties": {"Name": "Hall Family Bench", "Description": "Christine & Dewey Hall, Lt. Col. USA Presented August 15, 2015 By Pamela & Stephen Hall, IM 1967, Col. USAF", "Keywords": null, "Categories": "Commemorative Benches", "Location": "33.771923,-84.394547", "Latitude": 33.771923, "Longitude": -84.394547, "Image": "Bench17a.JPG\nBench17b.JPG\nBench17c.JPG", "Visible": 1, "Private": 0, "Feed_URL": null, "Rate": 0, "Level_": 0, "Schedule": null, "Marker_Instance_IDs": 419662, "Marker_ID": 305940, "Category_IDs": 40738, "Tour_Name": null, "Tour_Id": null, "Last_Edited_By": "jason_gregory", "Created_Date": 1563197280000, "Changed_Date": 1563197280000, "ObjectId": 17, "GlobalID": "f7b0edd6-9f5a-4cbe-877d-ed02031ac4f8"}}, {"type": "Feature", "id": 18, "geometry": {"type": "Point", "coordinates": [-84.394272, 33.771904]}, "properties": {"Name": "Rigby Family Bench", "Description": "Lillian & Leslie Presented April 3, 2015 By Pamela & Stephen Hall, IM 1967", "Keywords": null, "Categories": "Commemorative Benches", "Location": "33.771904,-84.394272", "Latitude": 33.771904, "Longitude": -84.394272, "Image": "Bench18a.JPG\nBench18b.JPG\nBench18c.JPG", "Visible": 1, "Private": 0, "Feed_URL": null, "Rate": 0, "Level_": 0, "Schedule": null, "Marker_Instance_IDs": 419663, "Marker_ID": 305941, "Category_IDs": 40738, "Tour_Name": null, "Tour_Id": null, "Last_Edited_By": "jason_gregory", "Created_Date": 1563197280000, "Changed_Date": 1563197280000, "ObjectId": 18, "GlobalID": "ec0433b8-dad8-41ed-9c38-3ac8e8c64e56"}}, {"type": "Feature", "id": 19, "geometry": {"type": "Point", "coordinates": [-84.39537, 33.773174]}, "properties": {"Name": "Hall-McGruder Friendship Bench", "Description": "The Hall-McGruder Friendship Bench Pamela & Stephen Hall, IM 1967, and Henraya, Alexander, Hailey and Juan McGruder Dedicated October 24, 2015", "Keywords": null, "Categories": "Commemorative Benches", "Location": "33.773174,-84.395370", "Latitude": 33.773174, "Longitude": -84.39537, "Image": "Bench19a.JPG\nBench19b.JPG\nBench19d.JPG", "Visible": 1, "Private": 0, "Feed_URL": null, "Rate": 0, "Level_": 0, "Schedule": null, "Marker_Instance_IDs": 419665, "Marker_ID": 305943, "Category_IDs": 40738, "Tour_Name": null, "Tour_Id": null, "Last_Edited_By": "jason_gregory", "Created_Date": 1563198000000, "Changed_Date": 1585256040000, "ObjectId": 19, "GlobalID": "3a748c73-f9e8-49c7-8cd1-e37048847470"}}, {"type": "Feature", "id": 20, "geometry": {"type": "Point", "coordinates": [-84.395615, 33.774002]}, "properties": {"Name": "Milburn Bench", "Description": "Milburn Bench It all started here. Kathey & Fred Milburn, IE 1979.  Andrew Milburn, MSE 2007", "Keywords": null, "Categories": "Commemorative Benches", "Location": "33.774002,-84.395615", "Latitude": 33.774002, "Longitude": -84.395615, "Image": "Dess_Bench.JPG", "Visible": 1, "Private": 1, "Feed_URL": null, "Rate": 0, "Level_": 0, "Schedule": null, "Marker_Instance_IDs": 419666, "Marker_ID": 305944, "Category_IDs": 40738, "Tour_Name": null, "Tour_Id": null, "Last_Edited_By": "jason_gregory", "Created_Date": 1563198000000, "Changed_Date": 1563198000000, "ObjectId": 20, "GlobalID": "8d89ece8-2950-4188-b4e8-1a409907ccaf"}}, {"type": "Feature", "id": 21, "geometry": {"type": "Point", "coordinates": [-84.388, 33.776329]}, "properties": {"Name": "Edward Rowe Bench", "Description": "In loving memory of Edward Henry Rowe CMPE 2003, MBA 2014 1981-2014", "Keywords": null, "Categories": "Commemorative Benches", "Location": "33.776329,-84.388000", "Latitude": 33.776329, "Longitude": -84.388, "Image": "Rowe_bench_close_up.JPG\nRowe_bench.JPG", "Visible": 1, "Private": 0, "Feed_URL": null, "Rate": 0, "Level_": 0, "Schedule": null, "Marker_Instance_IDs": 419675, "Marker_ID": 305953, "Category_IDs": 40738, "Tour_Name": null, "Tour_Id": null, "Last_Edited_By": "jason_gregory", "Created_Date": 1563199140000, "Changed_Date": 1563199140000, "ObjectId": 21, "GlobalID": "b37f5c45-210f-41f4-a8ae-7a6a1642a851"}}, {"type": "Feature", "id": 22, "geometry": {"type": "Point", "coordinates": [-84.395187, 33.771511]}, "properties": {"Name": "McKnight Bench", "Description": "Dedicated to the Memory of Dr. Phil McKnight,  Chair of the School of Modern Languages 2001 - 2011", "Keywords": null, "Categories": "Commemorative Benches", "Location": "33.771511,-84.395187", "Latitude": 33.771511, "Longitude": -84.395187, "Image": "Bench40a.JPG\nBench40b.JPG\nBench40f.JPG", "Visible": 1, "Private": 0, "Feed_URL": null, "Rate": 0, "Level_": 0, "Schedule": null, "Marker_Instance_IDs": 419676, "Marker_ID": 305954, "Category_IDs": 40738, "Tour_Name": null, "Tour_Id": null, "Last_Edited_By": "jason_gregory", "Created_Date": 1563199140000, "Changed_Date": 1563199140000, "ObjectId": 22, "GlobalID": "a85e186e-7258-468e-9eb4-1055af21c7fa"}}, {"type": "Feature", "id": 23, "geometry": {"type": "Point", "coordinates": [-84.397583, 33.775795]}, "properties": {"Name": "Schultz Bench", "Description": "In Memory of Scout Schultz, CE 2018 (they/them) 1995 - 2017 Pride Alliance President, Activist, and Friend", "Keywords": null, "Categories": "Commemorative Benches", "Location": "33.775795,-84.397583", "Latitude": 33.775795, "Longitude": -84.397583, "Image": null, "Visible": 1, "Private": 0, "Feed_URL": null, "Rate": 0, "Level_": 0, "Schedule": null, "Marker_Instance_IDs": 441919, "Marker_ID": 321266, "Category_IDs": 40738, "Tour_Name": null, "Tour_Id": null, "Last_Edited_By": "jason_gregory", "Created_Date": 1570043100000, "Changed_Date": 1570043100000, "ObjectId": 23, "GlobalID": "135611a0-8cac-4303-9b18-e49b0e3d0bc1"}}, {"type": "Feature", "id": 24, "geometry": {"type": "Point", "coordinates": [-84.398209, 33.775085]}, "properties": {"Name": "Kristi Anne Clough Bench", "Description": null, "Keywords": null, "Categories": "Commemorative Benches", "Location": "33.775085,-84.398209", "Latitude": 33.775085, "Longitude": -84.398209, "Image": "20C10400-P27-001.jpg\n20C10400-P27-002.jpg\n20C10400-P27-003.jpg", "Visible": 1, "Private": 0, "Feed_URL": null, "Rate": 0, "Level_": 0, "Schedule": null, "Marker_Instance_IDs": 463475, "Marker_ID": 337817, "Category_IDs": 40738, "Tour_Name": null, "Tour_Id": null, "Last_Edited_By": "jason_gregory", "Created_Date": 1580830620000, "Changed_Date": 1580830620000, "ObjectId": 24, "GlobalID": "d6d5268c-5426-43de-9db4-cc2e6d52c1d6"}}, {"type": "Feature", "id": 25, "geometry": {"type": "Point", "coordinates": [-84.395615, 33.772831]}, "properties": {"Name": "Nash Family Bench - William Gresham Thomas", "Description": "Nash Family Benches William Gresham Thomas, Class of 1916", "Keywords": null, "Categories": "Commemorative Benches", "Location": "33.772831,-84.395615", "Latitude": 33.772831, "Longitude": -84.395615, "Image": "20C10400-P19-010.jpg\n20C10400-P19-012.jpg", "Visible": 1, "Private": 0, "Feed_URL": null, "Rate": 0, "Level_": 0, "Schedule": null, "Marker_Instance_IDs": 482303, "Marker_ID": 354675, "Category_IDs": 40738, "Tour_Name": null, "Tour_Id": null, "Last_Edited_By": "jason_gregory", "Created_Date": 1585256040000, "Changed_Date": 1585256040000, "ObjectId": 25, "GlobalID": "44df9ef1-ad15-4294-9abc-8cc93d159a08"}}, {"type": "Feature", "id": 26, "geometry": {"type": "Point", "coordinates": [-84.395615, 33.772789]}, "properties": {"Name": "Nash Family Benches - Thomas Wilson Land", "Description": "Nash Family Benches Thomas Wilson Land, MS IM 1976 and Randi Land", "Keywords": null, "Categories": "Commemorative Benches", "Location": "33.772789,-84.395615", "Latitude": 33.772789, "Longitude": -84.395615, "Image": "20C10400-P19-011.jpg\n20C10400-P19-013.jpg", "Visible": 1, "Private": 0, "Feed_URL": null, "Rate": 0, "Level_": 0, "Schedule": null, "Marker_Instance_IDs": 482304, "Marker_ID": 354676, "Category_IDs": 40738, "Tour_Name": null, "Tour_Id": null, "Last_Edited_By": "jason_gregory", "Created_Date": 1585256040000, "Changed_Date": 1585256040000, "ObjectId": 26, "GlobalID": "9b012788-8a2e-47c4-bcf7-b6a246a457ed"}}, {"type": "Feature", "id": 27, "geometry": {"type": "Point", "coordinates": [-84.395332, 33.773174]}, "properties": {"Name": "Nash Family Benches - Dennis Norman Willingham", "Description": "Nash Family Benches Dennis Norman Willingham, IM 1978 and Peggy M. Willingham", "Keywords": null, "Categories": "Commemorative Benches", "Location": "33.773174,-84.395332", "Latitude": 33.773174, "Longitude": -84.395332, "Image": "20C10400-P19-016.jpg\n20C10400-P19-017.jpg", "Visible": 1, "Private": 0, "Feed_URL": null, "Rate": 0, "Level_": 0, "Schedule": null, "Marker_Instance_IDs": 482305, "Marker_ID": 354677, "Category_IDs": 40738, "Tour_Name": null, "Tour_Id": null, "Last_Edited_By": "jason_gregory", "Created_Date": 1585256040000, "Changed_Date": 1585256040000, "ObjectId": 27, "GlobalID": "7f671abe-ace1-4a6d-9bdd-e632577dbbae"}}, {"type": "Feature", "id": 28, "geometry": {"type": "Point", "coordinates": [-84.395294, 33.773174]}, "properties": {"Name": "Nash Family Benches - Andrew Dennis Willingham", "Description": "Nash Family Benches Andrew Dennis Willingham, MS MT 2010 and Colette Willingham", "Keywords": null, "Categories": "Commemorative Benches", "Location": "33.773174,-84.395294", "Latitude": 33.773174, "Longitude": -84.395294, "Image": "20C10400-P19-016_1.jpg\n20C10400-P19-018.jpg", "Visible": 1, "Private": 0, "Feed_URL": null, "Rate": 0, "Level_": 0, "Schedule": null, "Marker_Instance_IDs": 482306, "Marker_ID": 354678, "Category_IDs": 40738, "Tour_Name": null, "Tour_Id": null, "Last_Edited_By": "jason_gregory", "Created_Date": 1585256040000, "Changed_Date": 1585256040000, "ObjectId": 28, "GlobalID": "4620b484-cc3a-4549-98f2-cc756ccecc1d"}}, {"type": "Feature", "id": 29, "geometry": {"type": "Point", "coordinates": [-84.395256, 33.773174]}, "properties": {"Name": "Nash Family Benches - Deborah Anne Nash", "Description": "Nash Family Benches Deborah Anne Nash, IE 1978", "Keywords": null, "Categories": "Commemorative Benches", "Location": "33.773174,-84.395256", "Latitude": 33.773174, "Longitude": -84.395256, "Image": "20C10400-P19-019.jpg\n20C10400-P19-022.jpg", "Visible": 1, "Private": 0, "Feed_URL": null, "Rate": 0, "Level_": 0, "Schedule": null, "Marker_Instance_IDs": 482307, "Marker_ID": 354679, "Category_IDs": 40738, "Tour_Name": null, "Tour_Id": null, "Last_Edited_By": "jason_gregory", "Created_Date": 1585256040000, "Changed_Date": 1585256040000, "ObjectId": 29, "GlobalID": "a1ab80a5-2565-43b2-85e5-55a3fe115e17"}}, {"type": "Feature", "id": 30, "geometry": {"type": "Point", "coordinates": [-84.395226, 33.77317]}, "properties": {"Name": "Nash Family Benches - David Ronald Nash", "Description": "Nash Family Benches David Ronald Nash, ME 2003, IAML 2003 and Tiffany M. Nash", "Keywords": null, "Categories": "Commemorative Benches", "Location": "33.773170,-84.395226", "Latitude": 33.77317, "Longitude": -84.395226, "Image": "20C10400-P19-020.jpg\n20C10400-P19-022_1.jpg", "Visible": 1, "Private": 0, "Feed_URL": null, "Rate": 0, "Level_": 0, "Schedule": null, "Marker_Instance_IDs": 482308, "Marker_ID": 354680, "Category_IDs": 40738, "Tour_Name": null, "Tour_Id": null, "Last_Edited_By": "jason_gregory", "Created_Date": 1585256040000, "Changed_Date": 1585256040000, "ObjectId": 30, "GlobalID": "12589417-36ca-410d-9ffd-a2b89e5bafb3"}}, {"type": "Feature", "id": 31, "geometry": {"type": "Point", "coordinates": [-84.395187, 33.77317]}, "properties": {"Name": "Nash Family Benches - H. Ronald Nash Jr.", "Description": "Nash Family Benches H. Ronald Nash Jr., IE 1970 and Susan C. Nash", "Keywords": null, "Categories": "Commemorative Benches", "Location": "33.773170,-84.395187", "Latitude": 33.77317, "Longitude": -84.395187, "Image": "20C10400-P19-021.jpg\n20C10400-P19-022_2.jpg", "Visible": 1, "Private": 0, "Feed_URL": null, "Rate": 0, "Level_": 0, "Schedule": null, "Marker_Instance_IDs": 482309, "Marker_ID": 354681, "Category_IDs": 40738, "Tour_Name": null, "Tour_Id": null, "Last_Edited_By": "jason_gregory", "Created_Date": 1585256040000, "Changed_Date": 1585256040000, "ObjectId": 31, "GlobalID": "f709ee26-ba04-4d35-aa10-b81daa358d7a"}}, {"type": "Feature", "id": 32, "geometry": {"type": "Point", "coordinates": [-84.395157, 33.773041]}, "properties": {"Name": "Nash Family Benches - Harold Ronald Nash", "Description": "Nash Family Benches Harold Ronald Nash, EE 1952 and Mary Anne Nash", "Keywords": null, "Categories": "Commemorative Benches", "Location": "33.773041,-84.395157", "Latitude": 33.773041, "Longitude": -84.395157, "Image": "20C10400-P19-023.jpg\n20C10400-P19-024.jpg", "Visible": 1, "Private": 0, "Feed_URL": null, "Rate": 0, "Level_": 0, "Schedule": null, "Marker_Instance_IDs": 482310, "Marker_ID": 354682, "Category_IDs": 40738, "Tour_Name": null, "Tour_Id": null, "Last_Edited_By": "jason_gregory", "Created_Date": 1585256040000, "Changed_Date": 1585256040000, "ObjectId": 32, "GlobalID": "4ec39a78-95e5-4bf1-bf87-7ed4935574a3"}}, {"type": "Feature", "id": 33, "geometry": {"type": "Point", "coordinates": [-84.395157, 33.772999]}, "properties": {"Name": "Nash Family Benches ", "Description": "Nash Family Benches Honoring all members of this supportive Georgia Tech family", "Keywords": null, "Categories": "Commemorative Benches", "Location": "33.772999,-84.395157", "Latitude": 33.772999, "Longitude": -84.395157, "Image": "20C10400-P19-025.jpg\n20C10400-P19-026.jpg", "Visible": 1, "Private": 0, "Feed_URL": null, "Rate": 0, "Level_": 0, "Schedule": null, "Marker_Instance_IDs": 482311, "Marker_ID": 354683, "Category_IDs": 40738, "Tour_Name": null, "Tour_Id": null, "Last_Edited_By": "jason_gregory", "Created_Date": 1585256040000, "Changed_Date": 1585256040000, "ObjectId": 33, "GlobalID": "894ccbb7-e214-46ad-9f77-631b1492edc2"}}, {"type": "Feature", "id": 34, "geometry": {"type": "Point", "coordinates": [-84.395615, 33.772934]}, "properties": {"Name": "Nash Family Benches - Don L. Chapman", "Description": "Nash Family Benches Don L. Chapman, IM 1961 and Beverly Nash Chapman", "Keywords": null, "Categories": "Commemorative Benches", "Location": "33.772934,-84.395615", "Latitude": 33.772934, "Longitude": -84.395615, "Image": "20C10400-P19-014.jpg\n20C10400-P19-015_1.jpg", "Visible": 1, "Private": 0, "Feed_URL": null, "Rate": 0, "Level_": 0, "Schedule": null, "Marker_Instance_IDs": 482312, "Marker_ID": 354684, "Category_IDs": 40738, "Tour_Name": null, "Tour_Id": null, "Last_Edited_By": "jason_gregory", "Created_Date": 1585256040000, "Changed_Date": 1585256040000, "ObjectId": 34, "GlobalID": "223bd544-5aec-4814-9c5b-185d6590bcc2"}}, {"type": "Feature", "id": 35, "geometry": {"type": "Point", "coordinates": [-84.395393, 33.772827]}, "properties": {"Name": "Nash Family Benches - Michael Richard Nash", "Description": "Nash Family Benches Michael Richard Nash, IE 1974 and Annette Nash", "Keywords": null, "Categories": "Commemorative Benches", "Location": "33.772827,-84.395393", "Latitude": 33.772827, "Longitude": -84.395393, "Image": "20C10400-P19-007.jpg\n20C10400-P19-008.jpg", "Visible": 1, "Private": 0, "Feed_URL": null, "Rate": 0, "Level_": 0, "Schedule": null, "Marker_Instance_IDs": 482313, "Marker_ID": 354685, "Category_IDs": 40738, "Tour_Name": null, "Tour_Id": null, "Last_Edited_By": "jason_gregory", "Created_Date": 1585256040000, "Changed_Date": 1585256040000, "ObjectId": 35, "GlobalID": "8434cb54-9853-48b7-84e5-fc41210619e9"}}, {"type": "Feature", "id": 36, "geometry": {"type": "Point", "coordinates": [-84.395393, 33.772789]}, "properties": {"Name": "Nash Family Benches - Jennifer Nash Tench", "Description": "Nash Family Benches Jennifer Nash Tench, Arch 2002 and Bryant Tench", "Keywords": null, "Categories": "Commemorative Benches", "Location": "33.772789,-84.395393", "Latitude": 33.772789, "Longitude": -84.395393, "Image": "20C10400-P19-007_1.jpg\n20C10400-P19-009.jpg", "Visible": 1, "Private": 0, "Feed_URL": null, "Rate": 0, "Level_": 0, "Schedule": null, "Marker_Instance_IDs": 482314, "Marker_ID": 354686, "Category_IDs": 40738, "Tour_Name": null, "Tour_Id": null, "Last_Edited_By": "jason_gregory", "Created_Date": 1585256040000, "Changed_Date": 1585256040000, "ObjectId": 36, "GlobalID": "10050793-057f-464d-be59-268fdd09f123"}}, {"type": "Feature", "id": 37, "geometry": {"type": "Point", "coordinates": [-84.395401, 33.77264]}, "properties": {"Name": "Nash Family Benches - Arthur Cason Ivey", "Description": "Nash Family Benches Arthur Cason Ivey, CE 1981 and Mary Alice Nash Ivey", "Keywords": null, "Categories": "Commemorative Benches", "Location": "33.772640,-84.395401", "Latitude": 33.77264, "Longitude": -84.395401, "Image": "20C10400-P19-001.jpg\n20C10400-P19-003.jpg", "Visible": 1, "Private": 0, "Feed_URL": null, "Rate": 0, "Level_": 0, "Schedule": null, "Marker_Instance_IDs": 482315, "Marker_ID": 354687, "Category_IDs": 40738, "Tour_Name": null, "Tour_Id": null, "Last_Edited_By": "jason_gregory", "Created_Date": 1585256040000, "Changed_Date": 1585256040000, "ObjectId": 37, "GlobalID": "d20fb6e5-52ed-4910-a3b5-45253f21658d"}}, {"type": "Feature", "id": 38, "geometry": {"type": "Point", "coordinates": [-84.395393, 33.772614]}, "properties": {"Name": "Nash Family Benches - Benjamin Cason Ivey", "Description": "Nash Family Benches Benjamin Cason Ivey, ChBE 2012", "Keywords": null, "Categories": "Commemorative Benches", "Location": "33.772614,-84.395393", "Latitude": 33.772614, "Longitude": -84.395393, "Image": "20C10400-P19-001_1.jpg\n20C10400-P19-002.jpg", "Visible": 1, "Private": 0, "Feed_URL": null, "Rate": 0, "Level_": 0, "Schedule": null, "Marker_Instance_IDs": 482316, "Marker_ID": 354688, "Category_IDs": 40738, "Tour_Name": null, "Tour_Id": null, "Last_Edited_By": "jason_gregory", "Created_Date": 1585256040000, "Changed_Date": 1585256040000, "ObjectId": 38, "GlobalID": "f3939722-1dec-4d88-aad4-4d145d3740ac"}}, {"type": "Feature", "id": 39, "geometry": {"type": "Point", "coordinates": [-84.395393, 33.772736]}, "properties": {"Name": "Nash Family Benches - Michael Richard Nash Jr.", "Description": "Nash Family Benches Michael Richard Nash Jr., MS IE 2005 and Julia C. Nash", "Keywords": null, "Categories": "Commemorative Benches", "Location": "33.772736,-84.395393", "Latitude": 33.772736, "Longitude": -84.395393, "Image": "20C10400-P19-004.jpg\n20C10400-P19-006.jpg", "Visible": 1, "Private": 0, "Feed_URL": null, "Rate": 0, "Level_": 0, "Schedule": null, "Marker_Instance_IDs": 482317, "Marker_ID": 354689, "Category_IDs": 40738, "Tour_Name": null, "Tour_Id": null, "Last_Edited_By": "jason_gregory", "Created_Date": 1585256040000, "Changed_Date": 1585256040000, "ObjectId": 39, "GlobalID": "d62ff944-2631-4016-a02d-bf6376886cf5"}}, {"type": "Feature", "id": 40, "geometry": {"type": "Point", "coordinates": [-84.395393, 33.772709]}, "properties": {"Name": "Nash Family Benches - Ellen D. Evatt", "Description": "Nash Family Benches Ellen D. Evatt, TEXT 1973", "Keywords": null, "Categories": "Commemorative Benches", "Location": "33.772709,-84.395393", "Latitude": 33.772709, "Longitude": -84.395393, "Image": "20C10400-P19-004_1.jpg\n20C10400-P19-005.jpg", "Visible": 1, "Private": 0, "Feed_URL": null, "Rate": 0, "Level_": 0, "Schedule": null, "Marker_Instance_IDs": 482318, "Marker_ID": 354690, "Category_IDs": 40738, "Tour_Name": null, "Tour_Id": null, "Last_Edited_By": "jason_gregory", "Created_Date": 1585256040000, "Changed_Date": 1585256040000, "ObjectId": 40, "GlobalID": "cfd9b742-87d9-4289-88f1-d03c438d6783"}}, {"type": "Feature", "id": 41, "geometry": {"type": "Point", "coordinates": [-84.394333, 33.77224]}, "properties": {"Name": "Major Jesse Flanigan Bench USAF Ret", "Description": "In memory of Major Jesse Flanigan IV USAF Ret Physics 1998 With love from his mother", "Keywords": null, "Categories": "Commemorative Benches", "Location": "33.772240,-84.394333", "Latitude": 33.77224, "Longitude": -84.394333, "Image": "DJI_0684.JPG\nDJI_0685.JPG", "Visible": 1, "Private": 0, "Feed_URL": null, "Rate": 0, "Level_": 0, "Schedule": null, "Marker_Instance_IDs": 590002, "Marker_ID": 432355, "Category_IDs": 40738, "Tour_Name": null, "Tour_Id": null, "Last_Edited_By": "jason_gregory", "Created_Date": 1640030580000, "Changed_Date": 1640030580000, "ObjectId": 41, "GlobalID": "f2c76dd7-ee5f-46f1-af0a-2fc523c1364b"}}, {"type": "Feature", "id": 42, "geometry": {"type": "Point", "coordinates": [-84.388992, 33.77523]}, "properties": {"Name": "Pamela \"Sissie\" Rary Bench", "Description": "In Memory of Pamela \"Sissie\" Rary Every day, in some small way, memories of you come our way.", "Keywords": null, "Categories": "Commemorative Benches", "Location": "33.775230,-84.388992", "Latitude": 33.77523, "Longitude": -84.388992, "Image": "SissieBench-1.jpg\nSissieBench-3.jpg", "Visible": 1, "Private": 0, "Feed_URL": null, "Rate": 0, "Level_": 0, "Schedule": null, "Marker_Instance_IDs": 612796, "Marker_ID": 448143, "Category_IDs": 40738, "Tour_Name": null, "Tour_Id": null, "Last_Edited_By": "jason_gregory", "Created_Date": 1652107860000, "Changed_Date": 1652108340000, "ObjectId": 42, "GlobalID": "7329d205-6920-47cb-91ea-7dd517a82afd"}}]}