{"type": "FeatureCollection", "features": [{"type": "Feature", "id": 1, "geometry": {"type": "Point", "coordinates": [-84.3921017659385, 33.7782410425625]}, "properties": {"objectid": 1, "globalid": "1bd9b0a4-6a80-4395-87cc-67add7973835", "CreationDate": 1736446593126, "Creator": "dsimsGT", "EditDate": 1736446593126, "Editor": "dsimsGT", "bollard_name": "O'Keefe front sidewalk", "bollard_type": "Fixed", "retraction_style": null, "keys_needed": null, "bollard_condition": "Operational", "bollard_status": "In place", "comments": "Large 12\" fixed bollards protecting the front pedestrian area at O'Keefe. "}}, {"type": "Feature", "id": 2, "geometry": {"type": "Point", "coordinates": [-84.3938133341347, 33.7801618308836]}, "properties": {"objectid": 2, "globalid": "cd74344f-6d80-4153-8074-25416788d214", "CreationDate": 1736448439419, "Creator": "dsimsGT", "EditDate": 1736448439419, "Editor": "dsimsGT", "bollard_name": "Tennis and Track fixed bollards", "bollard_type": "Fixed", "retraction_style": null, "keys_needed": null, "bollard_condition": "Operational", "bollard_status": "In place", "comments": null}}, {"type": "Feature", "id": 3, "geometry": {"type": "Point", "coordinates": [-84.3977716752234, 33.7814332756862]}, "properties": {"objectid": 3, "globalid": "041d2fcd-b723-4301-87fa-eae98ea6f9fc", "CreationDate": 1736449470183, "Creator": "", "EditDate": 1736449470183, "Editor": "", "bollard_name": "Tenth Street @ Atlantic Drive", "bollard_type": "Removable", "retraction_style": "Manual (no-key)", "keys_needed": null, "bollard_condition": "Operational", "bollard_status": "In place", "comments": null}}, {"type": "Feature", "id": 4, "geometry": {"type": "Point", "coordinates": [-84.39780840431, 33.7733019314388]}, "properties": {"objectid": 4, "globalid": "88210b53-c8f8-4c94-a557-cd223ee80ff3", "CreationDate": 1736792769167, "Creator": "dsimsGT", "EditDate": 1736792769167, "Editor": "dsimsGT", "bollard_name": "Reck garage ", "bollard_type": "Retractable", "retraction_style": "Manual (keyed)", "keys_needed": null, "bollard_condition": "Operational", "bollard_status": "In place", "comments": null}}, {"type": "Feature", "id": 5, "geometry": {"type": "Point", "coordinates": [-84.3962818042517, 33.7722756423216]}, "properties": {"objectid": 5, "globalid": "601d97cc-ae32-4bd9-bcf0-7ea3ff270a4b", "CreationDate": 1736792781775, "Creator": "dsimsGT", "EditDate": 1736792781775, "Editor": "dsimsGT", "bollard_name": "Knight motorcycle parking ", "bollard_type": "Fixed", "retraction_style": null, "keys_needed": null, "bollard_condition": "Operational", "bollard_status": "In place", "comments": null}}, {"type": "Feature", "id": 6, "geometry": {"type": "Point", "coordinates": [-84.3954199103344, 33.7722873791888]}, "properties": {"objectid": 6, "globalid": "45383be8-78bb-4713-b321-8e1fe2e7f32a", "CreationDate": 1736792813586, "Creator": "dsimsGT", "EditDate": 1736792813586, "Editor": "dsimsGT", "bollard_name": "Savant sidewalk ", "bollard_type": "Fixed", "retraction_style": null, "keys_needed": null, "bollard_condition": "Operational", "bollard_status": "In place", "comments": "First 3 bollards are fixed. "}}, {"type": "Feature", "id": 7, "geometry": {"type": "Point", "coordinates": [-84.3954437722985, 33.7723740256826]}, "properties": {"objectid": 7, "globalid": "01bfd4d0-ef9c-4b68-8821-75a048294ca5", "CreationDate": 1736792825896, "Creator": "dsimsGT", "EditDate": 1736792825896, "Editor": "dsimsGT", "bollard_name": "Uncle Heinie drive", "bollard_type": "Retractable", "retraction_style": "Automated", "keys_needed": null, "bollard_condition": "Operational", "bollard_status": "In place", "comments": "2 bollards are retractable. 2 fixed bollards north. "}}, {"type": "Feature", "id": 8, "geometry": {"type": "Point", "coordinates": [-84.3955013304459, 33.7724274298792]}, "properties": {"objectid": 8, "globalid": "4a84d5ad-0a8d-4af1-8977-69d4a5ad7e86", "CreationDate": 1736792833276, "Creator": "dsimsGT", "EditDate": 1736792833276, "Editor": "dsimsGT", "bollard_name": "Cherry street at JS Coon", "bollard_type": "Retractable", "retraction_style": "Automated", "keys_needed": null, "bollard_condition": "Operational-unlocked", "bollard_status": "In place", "comments": "3 retractable bollards in roadway. 3 fixed bollards on each side at sidewalks. "}}, {"type": "Feature", "id": 9, "geometry": {"type": "Point", "coordinates": [-84.3941009341699, 33.7722324973534]}, "properties": {"objectid": 9, "globalid": "cd20a179-c9ca-4276-b72e-e5f439e4364c", "CreationDate": 1736793173094, "Creator": "dsimsGT", "EditDate": 1736793173094, "Editor": "dsimsGT", "bollard_name": "Student success center", "bollard_type": "Removable", "retraction_style": "Manual (keyed)", "keys_needed": null, "bollard_condition": "Operational-unlocked", "bollard_status": "Open", "comments": null}}, {"type": "Feature", "id": 10, "geometry": {"type": "Point", "coordinates": [-84.3948571543055, 33.7720006125596]}, "properties": {"objectid": 10, "globalid": "9141843d-61eb-4d1f-8cfc-9b23c32cd62a", "CreationDate": 1736793180407, "Creator": "dsimsGT", "EditDate": 1736793180407, "Editor": "dsimsGT", "bollard_name": "Presidents lot", "bollard_type": "Removable", "retraction_style": "Manual (keyed)", "keys_needed": "Padlock hasps ", "bollard_condition": "Operational-unlocked", "bollard_status": "In place", "comments": null}}, {"type": "Feature", "id": 11, "geometry": {"type": "Point", "coordinates": [-84.4023277476667, 33.7772757973333]}, "properties": {"objectid": 11, "globalid": "faf8ab83-0cca-4e23-9891-b828b22a5dbb", "CreationDate": 1736794467983, "Creator": "dsimsGT", "EditDate": 1744918721731, "Editor": "dsimsGT", "bollard_name": "MARC drive at Ferst", "bollard_type": "Removable", "retraction_style": "Manual (no-key)", "keys_needed": null, "bollard_condition": "Broken", "bollard_status": "Open", "comments": null}}, {"type": "Feature", "id": 12, "geometry": {"type": "Point", "coordinates": [-84.3993604108333, 33.777256872]}, "properties": {"objectid": 12, "globalid": "78ccfe7c-7008-48bd-af34-b50a122b3772", "CreationDate": 1736795484674, "Creator": "dsimsGT", "EditDate": 1736795484674, "Editor": "dsimsGT", "bollard_name": "Howey sidewalk", "bollard_type": "Retractable", "retraction_style": "Manual (keyed)", "keys_needed": null, "bollard_condition": "Operational-unlocked", "bollard_status": "Open", "comments": null}}, {"type": "Feature", "id": 13, "geometry": {"type": "Point", "coordinates": [-84.4022519158333, 33.7795160985]}, "properties": {"objectid": 13, "globalid": "276aeafe-3893-4ea3-812e-a4a1800b7123", "CreationDate": 1736795506959, "Creator": "dsimsGT", "EditDate": 1736795506959, "Editor": "dsimsGT", "bollard_name": "EcoCommons at Hemphill ave", "bollard_type": "Retractable", "retraction_style": "Manual (keyed)", "keys_needed": null, "bollard_condition": "Operational", "bollard_status": "In place", "comments": "1 bollard is open at north end. "}}, {"type": "Feature", "id": 14, "geometry": {"type": "Point", "coordinates": [-84.399262836, 33.7794935376667]}, "properties": {"objectid": 14, "globalid": "05542887-5fba-49be-8228-1185bb7b9d86", "CreationDate": 1736797124994, "Creator": "dsimsGT", "EditDate": 1736797124994, "Editor": "dsimsGT", "bollard_name": "EcoCommons at State st", "bollard_type": "Retractable", "retraction_style": "Manual (keyed)", "keys_needed": null, "bollard_condition": "Operational", "bollard_status": "In place", "comments": "Center bollard is retracted. "}}, {"type": "Feature", "id": 15, "geometry": {"type": "Point", "coordinates": [-84.398999334, 33.7795267375]}, "properties": {"objectid": 15, "globalid": "f228fe06-66af-4857-a424-9777ef0050a6", "CreationDate": 1736797130344, "Creator": "dsimsGT", "EditDate": 1736797130344, "Editor": "dsimsGT", "bollard_name": "Nanotechnology at state st", "bollard_type": "Retractable", "retraction_style": "Manual (keyed)", "keys_needed": null, "bollard_condition": "Operational", "bollard_status": "In place", "comments": "Only 2 northernmost bollards are retractable. "}}, {"type": "Feature", "id": 16, "geometry": {"type": "Point", "coordinates": [-84.4010561998333, 33.7799411835]}, "properties": {"objectid": 16, "globalid": "fd447af0-df41-458b-9421-b4e03f366361", "CreationDate": 1736797156605, "Creator": "dsimsGT", "EditDate": 1736797156605, "Editor": "dsimsGT", "bollard_name": "Dalney deck at EcoCommons", "bollard_type": "Removable", "retraction_style": "Manual (keyed)", "keys_needed": null, "bollard_condition": "Operational-unlocked", "bollard_status": "Open", "comments": null}}, {"type": "Feature", "id": 17, "geometry": {"type": "Point", "coordinates": [-84.3977904388333, 33.7785039818333]}, "properties": {"objectid": 17, "globalid": "ca32319a-0dac-4359-bc08-fb45cd2e2166", "CreationDate": 1736797393339, "Creator": "dsimsGT", "EditDate": 1736797393339, "Editor": "dsimsGT", "bollard_name": "Nanotechnology porch", "bollard_type": "Removable", "retraction_style": "Manual (no-key)", "keys_needed": null, "bollard_condition": "Operational", "bollard_status": "In place", "comments": "Two center are removable. Two outside are fixed. "}}, {"type": "Feature", "id": 18, "geometry": {"type": "Point", "coordinates": [-84.3973993846667, 33.7784829128333]}, "properties": {"objectid": 18, "globalid": "6b02214b-aec3-4e7a-92e9-592169aa3fac", "CreationDate": 1736799917944, "Creator": "dsimsGT", "EditDate": 1736799917944, "Editor": "dsimsGT", "bollard_name": "IBB sidewalk", "bollard_type": "Removable", "retraction_style": "Manual (keyed)", "keys_needed": null, "bollard_condition": "Operational", "bollard_status": "In place", "comments": null}}, {"type": "Feature", "id": 19, "geometry": {"type": "Point", "coordinates": [-84.396385576, 33.778332227]}, "properties": {"objectid": 19, "globalid": "be529e0d-579a-43d0-9e39-ceb3357d2405", "CreationDate": 1736799925326, "Creator": "dsimsGT", "EditDate": 1736799925326, "Editor": "dsimsGT", "bollard_name": "MSE sidewalk", "bollard_type": "Removable", "retraction_style": "Manual (keyed)", "keys_needed": null, "bollard_condition": "Operational-unlocked", "bollard_status": "Open", "comments": "Removed. "}}, {"type": "Feature", "id": 20, "geometry": {"type": "Point", "coordinates": [-84.3959238583333, 33.7800116803333]}, "properties": {"objectid": 20, "globalid": "5ef18be3-4b56-4784-85d1-d1bef80a2310", "CreationDate": 1736799928171, "Creator": "dsimsGT", "EditDate": 1736799928171, "Editor": "dsimsGT", "bollard_name": "MSE rear sidewalk", "bollard_type": "Fixed", "retraction_style": null, "keys_needed": null, "bollard_condition": "Operational", "bollard_status": "In place", "comments": null}}, {"type": "Feature", "id": 21, "geometry": {"type": "Point", "coordinates": [-84.3968101842993, 33.7800670390135]}, "properties": {"objectid": 21, "globalid": "df5e6a40-4a6e-4e6b-91b3-f6d592ea30f2", "CreationDate": 1736799934030, "Creator": "dsimsGT", "EditDate": 1736799934030, "Editor": "dsimsGT", "bollard_name": "MSE north at Atlantic ", "bollard_type": "Fixed", "retraction_style": null, "keys_needed": null, "bollard_condition": "Operational", "bollard_status": "In place", "comments": null}}, {"type": "Feature", "id": 22, "geometry": {"type": "Point", "coordinates": [-84.39489652, 33.781375677]}, "properties": {"objectid": 22, "globalid": "7f9bbe28-ecdc-4e25-bc71-a2bc61633514", "CreationDate": 1736799941485, "Creator": "dsimsGT", "EditDate": 1736799941485, "Editor": "dsimsGT", "bollard_name": "Tennis at Tenth st", "bollard_type": "Removable", "retraction_style": "Manual (keyed)", "keys_needed": null, "bollard_condition": "Operational-unlocked", "bollard_status": "Open", "comments": null}}, {"type": "Feature", "id": 23, "geometry": {"type": "Point", "coordinates": [-84.394267106, 33.7801779753333]}, "properties": {"objectid": 23, "globalid": "610e7b6d-d782-49ec-89ff-f1ac38392f71", "CreationDate": 1736799943218, "Creator": "dsimsGT", "EditDate": 1736799943218, "Editor": "dsimsGT", "bollard_name": "Track sidewalk ", "bollard_type": "Fixed", "retraction_style": null, "keys_needed": null, "bollard_condition": "Operational", "bollard_status": "In place", "comments": null}}, {"type": "Feature", "id": 24, "geometry": {"type": "Point", "coordinates": [-84.3937863205, 33.7801726733333]}, "properties": {"objectid": 24, "globalid": "f9688f53-552d-4bf6-b527-5a7b0c6e3a3a", "CreationDate": 1736799947401, "Creator": "dsimsGT", "EditDate": 1736799947401, "Editor": "dsimsGT", "bollard_name": "Tennis and track sidewalk ", "bollard_type": "Fixed", "retraction_style": null, "keys_needed": null, "bollard_condition": "Operational", "bollard_status": "In place", "comments": null}}, {"type": "Feature", "id": 25, "geometry": {"type": "Point", "coordinates": [-84.3977808403665, 33.7781458019223]}, "properties": {"objectid": 25, "globalid": "fc9217bf-7d0c-4c41-84f1-ebaa2a33be07", "CreationDate": 1737480594818, "Creator": "", "EditDate": 1744910151911, "Editor": "dsimsGT", "bollard_name": "Ferst Drive @ Atlantic Drive", "bollard_type": "Retractable", "retraction_style": "Manual (keyed)", "keys_needed": "Yes", "bollard_condition": "Broken", "bollard_status": "In place", "comments": null}}, {"type": "Feature", "id": 26, "geometry": {"type": "Point", "coordinates": [-84.3937314253523, 33.771435731655]}, "properties": {"objectid": 26, "globalid": "80dc8f07-4596-455b-83cd-a18d671cd842", "CreationDate": 1737480715166, "Creator": "", "EditDate": 1737480715166, "Editor": "", "bollard_name": "Bobby Dodd Stadium Gate 1", "bollard_type": "Retractable", "retraction_style": "Manual (no-key)", "keys_needed": null, "bollard_condition": "Operational-unlocked", "bollard_status": "In place", "comments": "This bollard is let up and down with a power drill."}}, {"type": "Feature", "id": 27, "geometry": {"type": "Point", "coordinates": [-84.4042359319895, 33.7792622443723]}, "properties": {"objectid": 27, "globalid": "0e99eb85-4967-4812-976a-96694fb12dfc", "CreationDate": 1739902906761, "Creator": "dsimsGT", "EditDate": 1739902906761, "Editor": "dsimsGT", "bollard_name": "West village sidewalk", "bollard_type": "Removable", "retraction_style": "Manual (keyed)", "keys_needed": null, "bollard_condition": "Operational", "bollard_status": "In place", "comments": null}}, {"type": "Feature", "id": 28, "geometry": {"type": "Point", "coordinates": [-84.4011997002071, 33.7741728386986]}, "properties": {"objectid": 28, "globalid": "d158b524-8f14-446f-8e60-c4035783e9eb", "CreationDate": 1741027552609, "Creator": "dsimsGT", "EditDate": 1741027552609, "Editor": "dsimsGT", "bollard_name": "Exhibition hall sidewalk ", "bollard_type": "Retractable", "retraction_style": "Manual (keyed)", "keys_needed": null, "bollard_condition": "Operational-unlocked", "bollard_status": "Open", "comments": null}}, {"type": "Feature", "id": 29, "geometry": {"type": "Point", "coordinates": [-84.4024706813637, 33.775428615669]}, "properties": {"objectid": 29, "globalid": "a6ce0924-6e11-4275-88e7-088434789df7", "CreationDate": 1743525537735, "Creator": "dsimsGT", "EditDate": 1743525537735, "Editor": "dsimsGT", "bollard_name": "CRC crosswalk east", "bollard_type": "Fixed", "retraction_style": null, "keys_needed": null, "bollard_condition": "Operational", "bollard_status": "In place", "comments": "3 fixed bollards at wide intervals. "}}, {"type": "Feature", "id": 30, "geometry": {"type": "Point", "coordinates": [-84.4020857542268, 33.7750034100017]}, "properties": {"objectid": 30, "globalid": "5d4cc21b-a3ef-4ee6-a797-4105859c7c45", "CreationDate": 1743525544829, "Creator": "dsimsGT", "EditDate": 1743525544829, "Editor": "dsimsGT", "bollard_name": "Exhibition hall sidewalk ", "bollard_type": "Removable", "retraction_style": "Manual (keyed)", "keys_needed": null, "bollard_condition": "Under Construction", "bollard_status": "In place", "comments": "3 center bollards are removable. "}}, {"type": "Feature", "id": 31, "geometry": {"type": "Point", "coordinates": [-84.3982961962242, 33.773351383942]}, "properties": {"objectid": 31, "globalid": "575adfde-7c27-435d-91fa-0c51a16eadb5", "CreationDate": 1743525604046, "Creator": "dsimsGT", "EditDate": 1743525604046, "Editor": "dsimsGT", "bollard_name": "Reck garage exit", "bollard_type": "Removable", "retraction_style": "Manual (keyed)", "keys_needed": null, "bollard_condition": "Operational", "bollard_status": "In place", "comments": null}}, {"type": "Feature", "id": 32, "geometry": {"type": "Point", "coordinates": [-84.3969680925667, 33.7732764956476]}, "properties": {"objectid": 32, "globalid": "1b8572da-9957-421b-957c-d700874bec46", "CreationDate": 1743527428892, "Creator": "dsimsGT", "EditDate": 1743527428892, "Editor": "dsimsGT", "bollard_name": "Bus turnaround ", "bollard_type": "Fixed", "retraction_style": null, "keys_needed": null, "bollard_condition": "Broken", "bollard_status": "In place", "comments": "12 total bollards. 1 broken at end. 2 dislodged near the beginning. "}}, {"type": "Feature", "id": 33, "geometry": {"type": "Point", "coordinates": [-84.3969508370739, 33.7731237573399]}, "properties": {"objectid": 33, "globalid": "7de84a72-719a-4210-b4e4-0143df98774f", "CreationDate": 1743527532194, "Creator": "dsimsGT", "EditDate": 1743527532194, "Editor": "dsimsGT", "bollard_name": "Bus turnaround 2", "bollard_type": "Fixed", "retraction_style": null, "keys_needed": null, "bollard_condition": "Operational", "bollard_status": "In place", "comments": "6 more in a line at the beginning of the bus turnaround. "}}, {"type": "Feature", "id": 34, "geometry": {"type": "Point", "coordinates": [-84.3961714735482, 33.7752048889584]}, "properties": {"objectid": 34, "globalid": "2964bda4-0f22-44bf-b366-77c04b265c29", "CreationDate": 1743527810564, "Creator": "dsimsGT", "EditDate": 1743527810564, "Editor": "dsimsGT", "bollard_name": "CULC turnaround ", "bollard_type": "Retractable", "retraction_style": "Manual (keyed)", "keys_needed": null, "bollard_condition": "Operational-unlocked", "bollard_status": "In place", "comments": "2 center are retractable. Outside are fixed. "}}, {"type": "Feature", "id": 35, "geometry": {"type": "Point", "coordinates": [-84.397776173594, 33.7783151689183]}, "properties": {"objectid": 35, "globalid": "650d33f8-00c6-4366-aa22-ffee664284ca", "CreationDate": 1744831870824, "Creator": "dsimsGT", "EditDate": 1744831870824, "Editor": "dsimsGT", "bollard_name": "Ferst and Atlantic Nirth", "bollard_type": "Fixed", "retraction_style": null, "keys_needed": null, "bollard_condition": "Operational", "bollard_status": "In place", "comments": "Temporary yellow bolt down bollards in place. "}}, {"type": "Feature", "id": 36, "geometry": {"type": "Point", "coordinates": [-84.3980474258151, 33.7770505956815]}, "properties": {"objectid": 36, "globalid": "da3fab17-c95a-43b0-8d8f-3905484daa1f", "CreationDate": 1744918175256, "Creator": "dsimsGT", "EditDate": 1744918175256, "Editor": "dsimsGT", "bollard_name": "Seven bridges sidewalk", "bollard_type": "Fixed", "retraction_style": null, "keys_needed": null, "bollard_condition": "Operational", "bollard_status": "In place", "comments": null}}, {"type": "Feature", "id": 37, "geometry": {"type": "Point", "coordinates": [-84.4020352789321, 33.778057662614]}, "properties": {"objectid": 37, "globalid": "b169ff61-8815-4f82-93a9-514c02e3e06a", "CreationDate": 1744918571138, "Creator": "dsimsGT", "EditDate": 1744918571138, "Editor": "dsimsGT", "bollard_name": "Challenge course", "bollard_type": "Removable", "retraction_style": "Manual (keyed)", "keys_needed": null, "bollard_condition": "Broken", "bollard_status": "Open", "comments": "All mounts are full of debris. Bollards do not appear to be on site. "}}, {"type": "Feature", "id": 38, "geometry": {"type": "Point", "coordinates": [-84.4042364149172, 33.77926441047]}, "properties": {"objectid": 38, "globalid": "d35dbbe2-2eef-4fe3-a43a-dbf7e1c51344", "CreationDate": 1744918996712, "Creator": "dsimsGT", "EditDate": 1744918996712, "Editor": "dsimsGT", "bollard_name": "West village sidewalk ", "bollard_type": "Removable", "retraction_style": "Manual (keyed)", "keys_needed": null, "bollard_condition": "Operational", "bollard_status": "In place", "comments": null}}, {"type": "Feature", "id": 39, "geometry": {"type": "Point", "coordinates": [-84.4050933790634, 33.7804605525604]}, "properties": {"objectid": 39, "globalid": "c9d2b4a0-b573-4985-a6b5-aa71e32ec6fb", "CreationDate": 1744919091661, "Creator": "dsimsGT", "EditDate": 1744919091661, "Editor": "dsimsGT", "bollard_name": "Eighth street apartments dumpsters ", "bollard_type": "Fixed", "retraction_style": null, "keys_needed": null, "bollard_condition": "Operational", "bollard_status": "In place", "comments": null}}, {"type": "Feature", "id": 40, "geometry": {"type": "Point", "coordinates": [-84.4055371986315, 33.7790723963136]}, "properties": {"objectid": 40, "globalid": "0d9808cc-13db-4876-8f0d-11bb456290c2", "CreationDate": 1744919910786, "Creator": "dsimsGT", "EditDate": 1744919910786, "Editor": "dsimsGT", "bollard_name": "Curran deck roof 1", "bollard_type": "Fixed", "retraction_style": null, "keys_needed": null, "bollard_condition": "Operational", "bollard_status": "In place", "comments": null}}, {"type": "Feature", "id": 41, "geometry": {"type": "Point", "coordinates": [-84.4055673106645, 33.7791521614065]}, "properties": {"objectid": 41, "globalid": "4b68cfee-c57b-437f-83cd-63389b10f0f1", "CreationDate": 1744919916758, "Creator": "dsimsGT", "EditDate": 1744919916758, "Editor": "dsimsGT", "bollard_name": "Curran deck roof 2", "bollard_type": "Fixed", "retraction_style": null, "keys_needed": null, "bollard_condition": "Operational", "bollard_status": "In place", "comments": "5 bollards are broken in this area.  "}}, {"type": "Feature", "id": 42, "geometry": {"type": "Point", "coordinates": [-84.4053202962208, 33.7794401645168]}, "properties": {"objectid": 42, "globalid": "6d56d375-00fa-4616-bf54-c4aa0e0c4a0e", "CreationDate": 1744919922194, "Creator": "dsimsGT", "EditDate": 1744919922194, "Editor": "dsimsGT", "bollard_name": "Curran deck seating", "bollard_type": "Fixed", "retraction_style": null, "keys_needed": null, "bollard_condition": "Operational", "bollard_status": "In place", "comments": null}}, {"type": "Feature", "id": 43, "geometry": {"type": "Point", "coordinates": [-84.4055762556815, 33.7785884703753]}, "properties": {"objectid": 43, "globalid": "4ed089ec-bdbd-40a8-bc2f-524c91d1dc2f", "CreationDate": 1744919928977, "Creator": "dsimsGT", "EditDate": 1744919928977, "Editor": "dsimsGT", "bollard_name": "Shell residence hall", "bollard_type": "Retractable", "retraction_style": "Manual (keyed)", "keys_needed": null, "bollard_condition": "Operational", "bollard_status": "Open", "comments": "3 of 4 bollards are in place. "}}, {"type": "Feature", "id": 44, "geometry": {"type": "Point", "coordinates": [-84.4062062774121, 33.778576097901]}, "properties": {"objectid": 44, "globalid": "7734950a-423c-451e-97e4-e76864393574", "CreationDate": 1744920732525, "Creator": "dsimsGT", "EditDate": 1744920732525, "Editor": "dsimsGT", "bollard_name": "Woodruff south sidewalk ", "bollard_type": "Fixed", "retraction_style": null, "keys_needed": null, "bollard_condition": "Operational", "bollard_status": "In place", "comments": "Single fixed bollard, but open gate blocks most of this sidewalk. "}}, {"type": "Feature", "id": 45, "geometry": {"type": "Point", "coordinates": [-84.4057633622404, 33.7776344518938]}, "properties": {"objectid": 45, "globalid": "f94c239c-2f49-4125-8fd8-46bf0db3c41d", "CreationDate": 1744920742173, "Creator": "dsimsGT", "EditDate": 1744920742173, "Editor": "dsimsGT", "bollard_name": "Housing maintenance lot", "bollard_type": "Fixed", "retraction_style": null, "keys_needed": null, "bollard_condition": "Operational", "bollard_status": "Open", "comments": "Curb stops block sidewalk access. "}}, {"type": "Feature", "id": 46, "geometry": {"type": "Point", "coordinates": [-84.4053091372677, 33.7771239559007]}, "properties": {"objectid": 46, "globalid": "fdb87c2d-400a-4db4-9d10-235c3f5da23b", "CreationDate": 1744920745296, "Creator": "dsimsGT", "EditDate": 1744920745296, "Editor": "dsimsGT", "bollard_name": "Maulding sidewalk 1", "bollard_type": "Retractable", "retraction_style": "Manual (keyed)", "keys_needed": null, "bollard_condition": "Operational", "bollard_status": "In place", "comments": null}}, {"type": "Feature", "id": 47, "geometry": {"type": "Point", "coordinates": [-84.4053095549574, 33.7768495133945]}, "properties": {"objectid": 47, "globalid": "dae426fa-7b5e-4501-862d-7b54f7b2ac48", "CreationDate": 1744920753212, "Creator": "dsimsGT", "EditDate": 1744920753212, "Editor": "dsimsGT", "bollard_name": "Maulding sidewalk 2", "bollard_type": "Retractable", "retraction_style": "Manual (keyed)", "keys_needed": null, "bollard_condition": "Operational", "bollard_status": "In place", "comments": null}}, {"type": "Feature", "id": 48, "geometry": {"type": "Point", "coordinates": [-84.404684939415, 33.7773115553301]}, "properties": {"objectid": 48, "globalid": "592f3093-0479-4ffd-ac00-99b6abd8f8db", "CreationDate": 1744920761571, "Creator": "dsimsGT", "EditDate": 1744920761571, "Editor": "dsimsGT", "bollard_name": "Zbar sidewalk 1", "bollard_type": "Retractable", "retraction_style": "Manual (keyed)", "keys_needed": null, "bollard_condition": "Operational", "bollard_status": "In place", "comments": null}}, {"type": "Feature", "id": 49, "geometry": {"type": "Point", "coordinates": [-84.4049207949453, 33.7772968038945]}, "properties": {"objectid": 49, "globalid": "6fcd6c78-2313-4a8b-8b3f-d8d02a4ece48", "CreationDate": 1744920770669, "Creator": "dsimsGT", "EditDate": 1744920770669, "Editor": "dsimsGT", "bollard_name": "Zbar sidewalk 2", "bollard_type": "Retractable", "retraction_style": "Manual (keyed)", "keys_needed": null, "bollard_condition": "Operational", "bollard_status": "In place", "comments": null}}, {"type": "Feature", "id": 50, "geometry": {"type": "Point", "coordinates": [-84.4048183137505, 33.7763698146927]}, "properties": {"objectid": 50, "globalid": "1022661f-f017-4f62-bd31-c871a47f900a", "CreationDate": 1744920778339, "Creator": "dsimsGT", "EditDate": 1744920778339, "Editor": "dsimsGT", "bollard_name": "CRC field rear entrance ", "bollard_type": "Fixed", "retraction_style": null, "keys_needed": null, "bollard_condition": "Operational", "bollard_status": "In place", "comments": "Center bollard may be removable by unbolting it. "}}, {"type": "Feature", "id": 51, "geometry": {"type": "Point", "coordinates": [-84.4053235169912, 33.7754931812602]}, "properties": {"objectid": 51, "globalid": "f0e067d7-d680-483f-963a-a6d3be17d0ae", "CreationDate": 1744920926890, "Creator": "dsimsGT", "EditDate": 1744920926890, "Editor": "dsimsGT", "bollard_name": "Tech parkway Mclendon sidewalk", "bollard_type": "Fixed", "retraction_style": null, "keys_needed": null, "bollard_condition": "Operational", "bollard_status": "In place", "comments": null}}]}