{"type": "FeatureCollection", "features": [{"type": "Feature", "id": 1, "geometry": {"type": "Polygon", "coordinates": [[[-84.3944847628541, 33.7760058652665], [-84.3945233504014, 33.7759935604098], [-84.3945534988947, 33.775984096001], [-84.3945660932161, 33.776011638958], [-84.3946268338598, 33.7759922647783], [-84.3946638021551, 33.7760844237881], [-84.3946147796845, 33.7760981401141], [-84.3946518240391, 33.7761904675943], [-84.3945291322771, 33.7762247973821], [-84.3944933009768, 33.7761354845542], [-84.3944437562586, 33.776149347844], [-84.3944029950251, 33.7760477572726], [-84.394453575449, 33.7760336053619], [-84.3944465327781, 33.7760182073208], [-84.3944847628541, 33.7760058652665]]]}, "properties": {"OBJECTID_1": 1, "OBJECTID": 1, "BLDG_NUM": "323", "BLDG_CODE": "323", "BLDG_TYPE": "Greek Housing", "BLDG_NAME": "Sigma Alpha Epsilon", "SHAPE_Leng": 302.446120867, "ShowFeatur": "Yes", "CreationDate": 1628109909991, "Creator": "wsims6_GTFacilities", "EditDate": 1628109909991, "Editor": "wsims6_GTFacilities", "Shape__Area": 575.98046875, "Shape__Length": 111.07320204544172, "GlobalID": "b6ab7274-1c89-420c-8ff8-25f5d90eb8a7"}}, {"type": "Feature", "id": 2, "geometry": {"type": "Polygon", "coordinates": [[[-84.3917513105472, 33.7760477657733], [-84.3917936474225, 33.7760483188043], [-84.3917937256855, 33.7760547104746], [-84.391794405097, 33.7761043460957], [-84.3917946574839, 33.7761228186874], [-84.3918094866159, 33.7761229647522], [-84.3918414386162, 33.7761234213002], [-84.3918409948572, 33.776154785183], [-84.3917906919681, 33.7761542890778], [-84.3917905234, 33.7761777657057], [-84.391790348446, 33.7761901330876], [-84.3917896596332, 33.7762268856908], [-84.3916159240446, 33.7762251674642], [-84.3916170132613, 33.7761482527358], [-84.3915627639284, 33.7761477168452], [-84.3915631796216, 33.7761183826336], [-84.3916161451305, 33.7761189073394], [-84.3916167441229, 33.776076678264], [-84.3915747433856, 33.7760762634142], [-84.3915751700329, 33.7760461645812], [-84.3917513105472, 33.7760477657733]]]}, "properties": {"OBJECTID_1": 2, "OBJECTID": 2, "BLDG_NUM": "316", "BLDG_CODE": "316", "BLDG_TYPE": "Greek Housing", "BLDG_NAME": "Phi Kappa Sigma", "SHAPE_Leng": 323.959655656, "ShowFeatur": "Yes", "CreationDate": 1628109909991, "Creator": "wsims6_GTFacilities", "EditDate": 1628109909991, "Editor": "wsims6_GTFacilities", "Shape__Area": 533.2578125, "Shape__Length": 118.90330837814255, "GlobalID": "7e46bb16-008a-490a-b88a-a6fe13cdc213"}}, {"type": "Feature", "id": 3, "geometry": {"type": "Polygon", "coordinates": [[[-84.3930385326808, 33.7762150418862], [-84.3928733250416, 33.7761600654178], [-84.3928975199523, 33.7761094140308], [-84.3928649820108, 33.7760979956402], [-84.3929181220272, 33.7759924058148], [-84.3929507323445, 33.7760038502068], [-84.3929730321675, 33.7759564419154], [-84.3929779563454, 33.7759464452831], [-84.3930241572164, 33.7759625073404], [-84.3930536421322, 33.7759728547171], [-84.3931468729539, 33.7760057192955], [-84.3930464480461, 33.7762175033039], [-84.3930385326808, 33.7762150418862]]]}, "properties": {"OBJECTID_1": 3, "OBJECTID": 3, "BLDG_NUM": "317", "BLDG_CODE": "317", "BLDG_TYPE": "Greek Housing", "BLDG_NAME": "Phi Kappa Tau", "SHAPE_Leng": 300.623596866, "ShowFeatur": "Yes", "CreationDate": 1628109909991, "Creator": "wsims6_GTFacilities", "EditDate": 1628109909991, "Editor": "wsims6_GTFacilities", "Shape__Area": 691.97265625, "Shape__Length": 110.41074903066803, "GlobalID": "2bb7af7c-ddfa-4418-a490-e9f8b3041495"}}, {"type": "Feature", "id": 4, "geometry": {"type": "Polygon", "coordinates": [[[-84.3947572806184, 33.775913867635], [-84.3947886485865, 33.7759005328268], [-84.3947976499247, 33.7759151256592], [-84.3948244108769, 33.7759034592999], [-84.3948936215304, 33.775873844593], [-84.394926586383, 33.7759272858669], [-84.3948569253264, 33.7759572575775], [-84.3949401443679, 33.7760921819986], [-84.3948485695152, 33.7761315741241], [-84.3947962258481, 33.7760467145174], [-84.3947564504143, 33.7760638247561], [-84.3946913292262, 33.7759584472772], [-84.3947316373982, 33.77594110976], [-84.3947238115223, 33.7759284226469], [-84.3947572806184, 33.775913867635]]]}, "properties": {"OBJECTID_1": 4, "OBJECTID": 4, "BLDG_NUM": "308", "BLDG_CODE": "308", "BLDG_TYPE": "Greek Housing", "BLDG_NAME": "Delta Tau Delta", "SHAPE_Leng": 303.597925379, "ShowFeatur": "Yes", "CreationDate": 1628109909991, "Creator": "wsims6_GTFacilities", "EditDate": 1628109909991, "Editor": "wsims6_GTFacilities", "Shape__Area": 492.89453125, "Shape__Length": 111.49555049185217, "GlobalID": "e6c2dd53-25d1-42d1-990b-b16eb92b1ad4"}}, {"type": "Feature", "id": 5, "geometry": {"type": "Polygon", "coordinates": [[[-84.3922384627308, 33.7762722740524], [-84.39223590085, 33.776252606486], [-84.3922335249187, 33.7762330296466], [-84.3924158427528, 33.7762164791582], [-84.3924116181529, 33.776185314964], [-84.3923924706086, 33.7761869855848], [-84.3923811175128, 33.7761878367715], [-84.3923739791173, 33.776134155533], [-84.3923838647557, 33.77613325744], [-84.3924045989025, 33.7761313729318], [-84.3924841459675, 33.7761212515212], [-84.3924958547633, 33.7761197622059], [-84.3925267656535, 33.776367788944], [-84.3922542660469, 33.7763923849177], [-84.3922384627308, 33.7762722740524]]]}, "properties": {"OBJECTID_1": 5, "OBJECTID": 5, "BLDG_NUM": "312", "BLDG_CODE": "312", "BLDG_TYPE": "Greek Housing", "BLDG_NAME": "Lambda Chi Alpha", "SHAPE_Leng": 365.860864359, "ShowFeatur": "Yes", "CreationDate": 1628109909991, "Creator": "wsims6_GTFacilities", "EditDate": 1628109909991, "Editor": "wsims6_GTFacilities", "Shape__Area": 801.015625, "Shape__Length": 134.3405097852556, "GlobalID": "327a8ac2-d979-4915-82be-599afaf3e9b0"}}, {"type": "Feature", "id": 6, "geometry": {"type": "Polygon", "coordinates": [[[-84.3939869059172, 33.7763657022106], [-84.3939695722442, 33.7763044019515], [-84.3939659287299, 33.7762915159373], [-84.3939629010071, 33.7762808080822], [-84.3939557120812, 33.7762553857135], [-84.3940164078157, 33.7762434171867], [-84.394066371272, 33.7762335214682], [-84.3941765846538, 33.7762104957158], [-84.3941650355956, 33.7761686596051], [-84.3941692414944, 33.7761675942137], [-84.3942348508986, 33.7761535823938], [-84.3942421017137, 33.7761823741067], [-84.3942696332875, 33.7762950587133], [-84.3942165956584, 33.7763065056143], [-84.3942210334145, 33.7763208490298], [-84.3941618071326, 33.776333630042], [-84.394156143336, 33.7763153928452], [-84.3940425820952, 33.7763377800662], [-84.3940471204227, 33.776353828327], [-84.3939869059172, 33.7763657022106]]]}, "properties": {"OBJECTID_1": 6, "OBJECTID": 6, "BLDG_NUM": "302", "BLDG_CODE": "302", "BLDG_TYPE": "Greek Housing", "BLDG_NAME": "Alpha Tau Omega", "SHAPE_Leng": 308.143834177, "ShowFeatur": "Yes", "CreationDate": 1628109909991, "Creator": "wsims6_GTFacilities", "EditDate": 1628109909991, "Editor": "wsims6_GTFacilities", "Shape__Area": 511.1015625, "Shape__Length": 113.11286580760239, "GlobalID": "65321c36-87ef-469f-9ac5-425535c639d2"}}, {"type": "Feature", "id": 8, "geometry": {"type": "Polygon", "coordinates": [[[-84.3921611983368, 33.7742504795715], [-84.3921618728274, 33.7741510422915], [-84.392178656712, 33.774151104494], [-84.3922837385499, 33.7741516310527], [-84.3922836306773, 33.774141782499], [-84.3924151929867, 33.7741423479936], [-84.392415135515, 33.7741529560411], [-84.3924301454604, 33.7741530124377], [-84.3924307625935, 33.7740050717615], [-84.3924309997288, 33.7739925726196], [-84.3924979900979, 33.7739926808778], [-84.3925395086751, 33.7739928339174], [-84.3925417172374, 33.7742510216931], [-84.3921668301698, 33.7742505495283], [-84.3921611983368, 33.7742504795715]]]}, "properties": {"OBJECTID_1": 8, "OBJECTID": 9, "BLDG_NUM": "300", "BLDG_CODE": "300", "BLDG_TYPE": "Greek Housing", "BLDG_NAME": "Alpha Epsilon Pi", "SHAPE_Leng": 426.128423183, "ShowFeatur": "Yes", "CreationDate": 1628109909991, "Creator": "wsims6_GTFacilities", "EditDate": 1628109909991, "Editor": "wsims6_GTFacilities", "Shape__Area": 840.28125, "Shape__Length": 156.44187817695556, "GlobalID": "f03e30fc-9041-4e3e-ae5c-4085b32a37df"}}, {"type": "Feature", "id": 9, "geometry": {"type": "Polygon", "coordinates": [[[-84.3922170727627, 33.777718800331], [-84.3921952176221, 33.7777182713309], [-84.3922005788515, 33.7775272438394], [-84.3925133497145, 33.7775344287535], [-84.392508878959, 33.7777238415717], [-84.3922170727627, 33.777718800331]]]}, "properties": {"OBJECTID_1": 9, "OBJECTID": 10, "BLDG_NUM": "328", "BLDG_CODE": "328", "BLDG_TYPE": "Greek Housing", "BLDG_NAME": "Theta Chi", "SHAPE_Leng": 328.86719545, "ShowFeatur": "Yes", "CreationDate": 1628109909991, "Creator": "wsims6_GTFacilities", "EditDate": 1628109909991, "Editor": "wsims6_GTFacilities", "Shape__Area": 889.046875, "Shape__Length": 120.71813606608814, "GlobalID": "acc315ab-38d0-4482-9e8f-3a067dc1d42c"}}, {"type": "Feature", "id": 11, "geometry": {"type": "Polygon", "coordinates": [[[-84.3944857979685, 33.7757075787542], [-84.394460818858, 33.7756438960796], [-84.3944388444328, 33.7756499127897], [-84.3944046146627, 33.7755626374103], [-84.3943613549517, 33.7754523351522], [-84.394390122235, 33.7754432412054], [-84.3943679716925, 33.7753875698805], [-84.3944725217019, 33.7753595528469], [-84.3944738892471, 33.7753634671003], [-84.3945193783304, 33.7753513027854], [-84.3945394514463, 33.7754036481171], [-84.394566938887, 33.7753976798159], [-84.3945753297682, 33.7754190776616], [-84.394557624677, 33.7754239188686], [-84.3945595030921, 33.7754287112887], [-84.3945231682772, 33.7754386505706], [-84.3945406587558, 33.7754832437547], [-84.3945290668237, 33.7754864146297], [-84.3945511739703, 33.7755427739653], [-84.3945612273672, 33.7755400242961], [-84.3945851086064, 33.7756009075452], [-84.3945676688982, 33.7756056779347], [-84.3945768054929, 33.7756289696756], [-84.3945980988581, 33.7756768612843], [-84.3944857979685, 33.7757075787542]]]}, "properties": {"OBJECTID_1": 11, "OBJECTID": 12, "BLDG_NUM": "303", "BLDG_CODE": "303", "BLDG_TYPE": "Greek Housing", "BLDG_NAME": "Beta Theta Pi", "SHAPE_Leng": 380.931804309, "ShowFeatur": "Yes", "CreationDate": 1628109909991, "Creator": "wsims6_GTFacilities", "EditDate": 1628109909991, "Editor": "wsims6_GTFacilities", "Shape__Area": 753.55078125, "Shape__Length": 139.9477609689975, "GlobalID": "2ac6ffde-8575-4562-9cd9-ce692f4bc68e"}}, {"type": "Feature", "id": 12, "geometry": {"type": "Polygon", "coordinates": [[[-84.3925653298832, 33.7757495635901], [-84.3926399140485, 33.7757915910122], [-84.3926998664598, 33.7758255357275], [-84.3925628981104, 33.7759950383734], [-84.3923612851476, 33.7758814320865], [-84.3924982450807, 33.7757119305778], [-84.3925653298832, 33.7757495635901]], [[-84.3924463174998, 33.7758628954658], [-84.3924984315402, 33.7758912075703], [-84.3925510465919, 33.7758236658821], [-84.3924989314957, 33.7757953538014], [-84.3924463174998, 33.7758628954658]]]}, "properties": {"OBJECTID_1": 12, "OBJECTID": 13, "BLDG_NUM": "307", "BLDG_CODE": "307", "BLDG_TYPE": "Greek Housing", "BLDG_NAME": "Delta Sigma Phi", "SHAPE_Leng": 393.043906502, "ShowFeatur": "Yes", "CreationDate": 1628109909991, "Creator": "wsims6_GTFacilities", "EditDate": 1628109909991, "Editor": "wsims6_GTFacilities", "Shape__Area": 667.109375, "Shape__Length": 144.33338195489364, "GlobalID": "08cd9501-e876-40da-8d39-280a7eaf2ea9"}}, {"type": "Feature", "id": 14, "geometry": {"type": "Polygon", "coordinates": [[[-84.393187042433, 33.7780099939011], [-84.3931334090634, 33.7780088714993], [-84.392972550704, 33.7780053643216], [-84.3929758161787, 33.7778909477119], [-84.3929767173738, 33.7778608299807], [-84.3930475126199, 33.7778613971102], [-84.3931979377611, 33.7778646862084], [-84.3931976716656, 33.7778735273947], [-84.3932038523921, 33.7778736549034], [-84.3932048665226, 33.7778343779823], [-84.3933978284522, 33.7778371406242], [-84.3934029578546, 33.7778373962858], [-84.3934024775207, 33.7778591720641], [-84.3934015527994, 33.7778844019858], [-84.3934335505971, 33.7778855973906], [-84.3934282170921, 33.7779693318894], [-84.3933983949821, 33.7779685670823], [-84.3933970307184, 33.7780142544912], [-84.393187042433, 33.7780099939011]]]}, "properties": {"OBJECTID_1": 14, "OBJECTID": 15, "BLDG_NUM": "311", "BLDG_CODE": "311", "BLDG_TYPE": "Greek Housing", "BLDG_NAME": "Kappa Sigma", "SHAPE_Leng": 411.507942402, "ShowFeatur": "Yes", "CreationDate": 1628109909991, "Creator": "wsims6_GTFacilities", "EditDate": 1628109909991, "Editor": "wsims6_GTFacilities", "Shape__Area": 1051.0234375, "Shape__Length": 150.98739969417497, "GlobalID": "415ca012-de4b-4c53-b25e-a191592ced83"}}, {"type": "Feature", "id": 15, "geometry": {"type": "Polygon", "coordinates": [[[-84.3925696666626, 33.777987471642], [-84.3925424449948, 33.777986874985], [-84.3922931542019, 33.7779812701117], [-84.3922963290852, 33.7778805515806], [-84.3923103574075, 33.77788071618], [-84.3923115731659, 33.7778646483214], [-84.3923116779057, 33.7778584736168], [-84.39231177982, 33.7778524567066], [-84.3923122402632, 33.7778353434109], [-84.3923275182095, 33.7778352415394], [-84.392327045918, 33.7777856587547], [-84.3925051560719, 33.7777843330064], [-84.39250294116, 33.7778467268714], [-84.392652533254, 33.7778469363125], [-84.3926535749784, 33.7778883815446], [-84.3926601304301, 33.7778885309356], [-84.392656962446, 33.777989247659], [-84.3925696666626, 33.777987471642]]]}, "properties": {"OBJECTID_1": 15, "OBJECTID": 16, "BLDG_NUM": "330", "BLDG_CODE": "330", "BLDG_TYPE": "Greek Housing", "BLDG_NAME": "Zeta Beta Tau", "SHAPE_Leng": 366.743109584, "ShowFeatur": "Yes", "CreationDate": 1628109909991, "Creator": "wsims6_GTFacilities", "EditDate": 1628109909991, "Editor": "wsims6_GTFacilities", "Shape__Area": 905.1796875, "Shape__Length": 134.60674609612136, "GlobalID": "2d344964-1675-40e8-8b04-323889391e78"}}, {"type": "Feature", "id": 16, "geometry": {"type": "Polygon", "coordinates": [[[-84.391562360417, 33.7758276138779], [-84.391562607368, 33.775818821416], [-84.3915641336164, 33.7757645193273], [-84.3917780187787, 33.7757668568688], [-84.3917893477454, 33.7757671193223], [-84.3917884184303, 33.7758365843134], [-84.3917565967144, 33.7758367749001], [-84.3917560924462, 33.7758689584963], [-84.391601241732, 33.7758672644092], [-84.3916009187459, 33.775887861442], [-84.3917617890363, 33.7758896193874], [-84.3917619281642, 33.7758808911391], [-84.3918076862264, 33.775881319809], [-84.3918052134837, 33.7759142580727], [-84.3918027439004, 33.7759471665759], [-84.3917784281899, 33.7759485616072], [-84.391778443773, 33.7759578215481], [-84.3917779431312, 33.775979004979], [-84.3914628706895, 33.7759755597275], [-84.391464609879, 33.7758646929962], [-84.3914957074265, 33.7758650321723], [-84.3914957915233, 33.7758596130886], [-84.3915621220169, 33.7758603379805], [-84.391562360417, 33.7758276138779]]]}, "properties": {"OBJECTID_1": 16, "OBJECTID": 17, "BLDG_NUM": "329A", "BLDG_CODE": "329A", "BLDG_TYPE": "Greek Housing", "BLDG_NAME": "Theta Xi", "SHAPE_Leng": 480.657077639, "ShowFeatur": "Yes", "CreationDate": 1628109909991, "Creator": "wsims6_GTFacilities", "EditDate": 1628109909991, "Editor": "wsims6_GTFacilities", "Shape__Area": 825.44140625, "Shape__Length": 176.3596628025651, "GlobalID": "52e09f16-c4e0-46ad-b4a1-469d4ae2f4a4"}}, {"type": "Feature", "id": 17, "geometry": {"type": "Polygon", "coordinates": [[[-84.3921958296218, 33.7757738897302], [-84.3922064379419, 33.7757628431354], [-84.3921812094301, 33.7757463258857], [-84.3922215085557, 33.7757035454761], [-84.3922314677636, 33.7756932475353], [-84.3921773654449, 33.7756580566376], [-84.3921676225956, 33.7756495592356], [-84.3921602057902, 33.7756399620752], [-84.3921552071357, 33.7756298041765], [-84.392152891876, 33.7756185350474], [-84.3921529296028, 33.7756077962989], [-84.3921558743336, 33.775596401246], [-84.3921616670164, 33.7755857132947], [-84.392169037088, 33.7755766517466], [-84.3921785525975, 33.7755688521977], [-84.3921902868319, 33.775562676076], [-84.3922028922118, 33.7755584937178], [-84.3922160196434, 33.7755565834699], [-84.3922295928375, 33.775556674074], [-84.392242472113, 33.7755589506487], [-84.3922551624038, 33.7755636845702], [-84.3923087540158, 33.7755988835814], [-84.3923196105828, 33.7755874064346], [-84.3924056616726, 33.7756441162775], [-84.3923936078489, 33.7756568786728], [-84.3924445001635, 33.7756903748319], [-84.392436822671, 33.7756987183417], [-84.3922955350442, 33.7758479919121], [-84.3921907987717, 33.7757794684301], [-84.3921958296218, 33.7757738897302]]]}, "properties": {"OBJECTID_1": 17, "OBJECTID": 18, "BLDG_NUM": "324", "BLDG_CODE": "324", "BLDG_TYPE": "Greek Housing", "BLDG_NAME": "Sigma Chi", "SHAPE_Leng": 323.124466765, "ShowFeatur": "Yes", "CreationDate": 1628109909991, "Creator": "wsims6_GTFacilities", "EditDate": 1628109909991, "Editor": "wsims6_GTFacilities", "Shape__Area": 717.05078125, "Shape__Length": 118.64623232869832, "GlobalID": "30b5dd43-9144-4446-a15e-83a5af920524"}}, {"type": "Feature", "id": 18, "geometry": {"type": "Polygon", "coordinates": [[[-84.3927396413721, 33.7752832172641], [-84.3928124616798, 33.7753324943972], [-84.3928179471067, 33.7753364002216], [-84.3927091223177, 33.7754483846516], [-84.3926789795258, 33.775427957021], [-84.3926670755904, 33.7754402088336], [-84.3926454430583, 33.775425551513], [-84.3926590903267, 33.7754115076318], [-84.3926326110468, 33.7753935699563], [-84.3927396413721, 33.7752832172641]]]}, "properties": {"OBJECTID_1": 18, "OBJECTID": 19, "BLDG_NUM": "337", "BLDG_CODE": "337", "BLDG_TYPE": "Greek Housing", "BLDG_NAME": "Delta Sigma Theta", "SHAPE_Leng": 177.764937059, "ShowFeatur": "Yes", "CreationDate": 1628109909991, "Creator": "wsims6_GTFacilities", "EditDate": 1628109909991, "Editor": "wsims6_GTFacilities", "Shape__Area": 222.390625, "Shape__Length": 65.28465311279005, "GlobalID": "6f70a9f4-3ab0-496b-afa5-23b99d67e195"}}, {"type": "Feature", "id": 19, "geometry": {"type": "Polygon", "coordinates": [[[-84.3941636078667, 33.7747969001117], [-84.39414710322, 33.7747334154328], [-84.3941119803488, 33.7747397845216], [-84.394095193889, 33.7746758675612], [-84.3940905809722, 33.7746581198203], [-84.3940751370549, 33.7745980522415], [-84.3941064406766, 33.7745923772609], [-84.3940991400799, 33.7745642898145], [-84.3941053507234, 33.7745631621233], [-84.3940971873947, 33.7745317825302], [-84.394324248593, 33.7744926126659], [-84.3943374276409, 33.7745449887887], [-84.3943445513111, 33.774571468901], [-84.3942393291496, 33.7745907527597], [-84.3942543241925, 33.7746484326682], [-84.3942682379935, 33.7746459094316], [-84.3942763534482, 33.7746771222953], [-84.3942630116025, 33.774679540788], [-84.3942676981244, 33.7746944869525], [-84.3943254762543, 33.7746848877866], [-84.3943395923467, 33.7747367951228], [-84.3943455498422, 33.7747624127009], [-84.3941636078667, 33.7747969001117]]]}, "properties": {"OBJECTID_1": 19, "OBJECTID": 20, "BLDG_NUM": "314", "BLDG_CODE": "314", "BLDG_TYPE": "Greek Housing", "BLDG_NAME": "Phi Delta Theta", "SHAPE_Leng": 404.332183758, "ShowFeatur": "Yes", "CreationDate": 1628109909991, "Creator": "wsims6_GTFacilities", "EditDate": 1628109909991, "Editor": "wsims6_GTFacilities", "Shape__Area": 796.36328125, "Shape__Length": 148.45778850671638, "GlobalID": "9bdd6076-7291-4a17-8816-cc9f5b794b16"}}, {"type": "Feature", "id": 20, "geometry": {"type": "Polygon", "coordinates": [[[-84.3927035963768, 33.7744695239203], [-84.3926809925929, 33.7744101383025], [-84.3927025064291, 33.7744043616862], [-84.3926988283957, 33.7743950841066], [-84.3928476873544, 33.7743540161137], [-84.3928852160258, 33.7744504638207], [-84.3928710539304, 33.7744542361453], [-84.39288002087, 33.7744764625751], [-84.3929041645218, 33.7745379299532], [-84.3928997913874, 33.7745390154446], [-84.3929047237962, 33.7745514825683], [-84.3929095303322, 33.774550155541], [-84.3929420313746, 33.774641394581], [-84.3929255945793, 33.7746460799482], [-84.3928933132141, 33.7746548418764], [-84.3928958062673, 33.7746618413429], [-84.3928614980016, 33.7746713075623], [-84.392859291027, 33.7746651136482], [-84.3928264653424, 33.7746734113039], [-84.3928066374634, 33.7746781894281], [-84.3927299210839, 33.7744628332288], [-84.3927035963768, 33.7744695239203]]]}, "properties": {"OBJECTID_1": 20, "OBJECTID": 21, "BLDG_NUM": "334", "BLDG_CODE": "334", "BLDG_TYPE": "Greek Housing", "BLDG_NAME": "Alpha Delta Pi", "SHAPE_Leng": 334.954568481, "ShowFeatur": "Yes", "CreationDate": 1628109909991, "Creator": "wsims6_GTFacilities", "EditDate": 1628109909991, "Editor": "wsims6_GTFacilities", "Shape__Area": 672.828125, "Shape__Length": 123.07037196323115, "GlobalID": "affba804-1019-4d37-9905-73d7ea5b0f3d"}}, {"type": "Feature", "id": 22, "geometry": {"type": "Polygon", "coordinates": [[[-84.3941096354402, 33.7744881746112], [-84.3941083923165, 33.7744835288837], [-84.3940863310695, 33.7744876395982], [-84.3940773139394, 33.7744538911322], [-84.3940667112165, 33.7744558708616], [-84.3940380018158, 33.7743490310523], [-84.394033058709, 33.7743305283317], [-84.3940201469267, 33.7742815599283], [-84.3941138479181, 33.7742641007947], [-84.394122845403, 33.7742977717532], [-84.3941589280837, 33.7742910501492], [-84.3941526131301, 33.7742674105428], [-84.3942355743629, 33.7742556434087], [-84.3942498540466, 33.7743090345775], [-84.3942688133489, 33.7743045355324], [-84.3942812304854, 33.7743554343579], [-84.3942415124985, 33.7743629814016], [-84.3942140101751, 33.7743681048097], [-84.3942062009934, 33.7743694085708], [-84.3942035663887, 33.7743595448418], [-84.3941885283358, 33.7743623478528], [-84.3942068592792, 33.7744309541555], [-84.3941482372473, 33.774441876644], [-84.3941581878752, 33.7744791272055], [-84.3941408159688, 33.7744825124719], [-84.3941096354402, 33.7744881746112]]]}, "properties": {"OBJECTID_1": 22, "OBJECTID": 23, "BLDG_NUM": "304", "BLDG_CODE": "304", "BLDG_TYPE": "Greek Housing", "BLDG_NAME": "Phi Kappa Psi", "SHAPE_Leng": 326.162542612, "ShowFeatur": "Yes", "CreationDate": 1628109909991, "Creator": "wsims6_GTFacilities", "EditDate": 1628109909991, "Editor": "wsims6_GTFacilities", "Shape__Area": 533.40625, "Shape__Length": 119.79454371897702, "GlobalID": "87a1ce7c-1475-4871-9884-1e6e5ba4bb1b"}}, {"type": "Feature", "id": 41, "geometry": {"type": "Polygon", "coordinates": [[[-84.3928597457857, 33.7749273007258], [-84.3928589510168, 33.7748611145817], [-84.3928557196591, 33.7748611791115], [-84.3928527970784, 33.7748612376654], [-84.3928327427939, 33.7748616377844], [-84.3928331968508, 33.774881582406], [-84.3928160465015, 33.7748818149031], [-84.3927671855488, 33.7748824769785], [-84.3926755194361, 33.7748837187508], [-84.3926731128825, 33.7748837520109], [-84.3926713163325, 33.7748837760389], [-84.3926706563117, 33.7748491132191], [-84.3926382461853, 33.7748491725669], [-84.3926369932775, 33.7747856669701], [-84.3926369347343, 33.774782697034], [-84.3926676494377, 33.7747821205379], [-84.392833093596, 33.7747790142189], [-84.3928354333854, 33.7748037016836], [-84.3928452002535, 33.7748036837843], [-84.3928538064557, 33.7748036680114], [-84.3928581770374, 33.7748036600011], [-84.3928581718602, 33.7747938842947], [-84.3928669612934, 33.7747937482653], [-84.3929744793348, 33.774792079655], [-84.3929761795964, 33.7748630185518], [-84.3929849414562, 33.7748626589547], [-84.3929860089538, 33.7749635437899], [-84.3929866239969, 33.7749802322484], [-84.3929816090369, 33.7749803198887], [-84.3929833235884, 33.7750517618791], [-84.392890091858, 33.7750534602134], [-84.3928717375679, 33.7750536759904], [-84.3928629167118, 33.7750537796183], [-84.3928617299689, 33.775053720481], [-84.3928624640252, 33.775041754208], [-84.3928597928961, 33.7749304365867], [-84.3928597457857, 33.7749273007258]]]}, "properties": {"OBJECTID_1": 41, "OBJECTID": 55, "BLDG_NUM": "331", "BLDG_CODE": "331", "BLDG_TYPE": "Greek Housing", "BLDG_NAME": "Alpha Chi Omega", "SHAPE_Leng": 431.373786, "ShowFeatur": "Yes", "CreationDate": 1628109909991, "Creator": "wsims6_GTFacilities", "EditDate": 1628109909991, "Editor": "wsims6_GTFacilities", "Shape__Area": 774.84765625, "Shape__Length": 158.40803267601706, "GlobalID": "078bcf91-1d4e-42cd-aaa9-ed423bee9db9"}}, {"type": "Feature", "id": 43, "geometry": {"type": "Polygon", "coordinates": [[[-84.3925877971245, 33.775301091975], [-84.3925546423977, 33.7752705127128], [-84.3925478462165, 33.7752756519475], [-84.392536615536, 33.7752655045684], [-84.3925252766197, 33.7752548434445], [-84.3925214566613, 33.7752577312148], [-84.392452795961, 33.7751946041312], [-84.3924501166458, 33.7751919130923], [-84.3924622165844, 33.7751827635275], [-84.3923843460217, 33.7751109378825], [-84.3923911659081, 33.7751057814819], [-84.3923661530401, 33.7750829153387], [-84.3923605768577, 33.7750773253732], [-84.3923686994288, 33.7750711513308], [-84.3924548709365, 33.7750060305508], [-84.3924817194249, 33.775030593834], [-84.392690207593, 33.7752228961976], [-84.3925877971245, 33.775301091975]]]}, "properties": {"OBJECTID_1": 43, "OBJECTID": 57, "BLDG_NUM": "305", "BLDG_CODE": "305", "BLDG_TYPE": "Greek Housing", "BLDG_NAME": "Chi Psi", "SHAPE_Leng": 306.121145592, "ShowFeatur": "Yes", "CreationDate": 1628109909991, "Creator": "wsims6_GTFacilities", "EditDate": 1628109909991, "Editor": "wsims6_GTFacilities", "Shape__Area": 619.71484375, "Shape__Length": 112.4174624740596, "GlobalID": "0b572bfe-c47c-4615-8d74-93619150da66"}}, {"type": "Feature", "id": 44, "geometry": {"type": "Polygon", "coordinates": [[[-84.3942960530456, 33.7749161681181], [-84.3943030405485, 33.7749348374676], [-84.3943349913164, 33.7749276437544], [-84.3943670105392, 33.775023050736], [-84.3944494467916, 33.7750039909604], [-84.3945113982382, 33.7751906042992], [-84.3945075934885, 33.7751914615817], [-84.3944575879197, 33.7752027397898], [-84.3944585790429, 33.7752055799686], [-84.3943569122621, 33.775229201526], [-84.3943560106907, 33.7752267443833], [-84.3943074935728, 33.7752382740505], [-84.3943094876011, 33.7752455548218], [-84.3942675130483, 33.7752561166533], [-84.3942630648062, 33.7752422808865], [-84.3942456953885, 33.7751935822144], [-84.3942282726946, 33.7751447357666], [-84.3941918916548, 33.7751522703296], [-84.3941580676261, 33.7750500339094], [-84.3941958873116, 33.7750414742302], [-84.3941695220639, 33.77494625785], [-84.3942960530456, 33.7749161681181]]]}, "properties": {"OBJECTID_1": 44, "OBJECTID": 58, "BLDG_NUM": "325", "BLDG_CODE": "325", "BLDG_TYPE": "Greek Housing", "BLDG_NAME": "Sigma Nu", "SHAPE_Leng": 411.740203718, "ShowFeatur": "Yes", "CreationDate": 1628109909991, "Creator": "wsims6_GTFacilities", "EditDate": 1628109909991, "Editor": "wsims6_GTFacilities", "Shape__Area": 1101.05859375, "Shape__Length": 151.23239758311865, "GlobalID": "1e5dbc2b-2a12-43a8-b6c1-517ba5f64e06"}}, {"type": "Feature", "id": 45, "geometry": {"type": "Polygon", "coordinates": [[[-84.3917080892877, 33.7779609926921], [-84.3917091698907, 33.7778585143619], [-84.3917671581308, 33.7778589712336], [-84.3917708562866, 33.7777260826162], [-84.391800523915, 33.7777260284969], [-84.3918004443745, 33.777695624033], [-84.3918979125743, 33.7776943227244], [-84.391898270305, 33.7777179678966], [-84.3919036510966, 33.7777177434828], [-84.3919028908099, 33.7777948289072], [-84.3919046257307, 33.7778277522699], [-84.3919309214059, 33.7778277042734], [-84.3919417852096, 33.7778564002565], [-84.3919398380517, 33.7778851205264], [-84.3919271472436, 33.7779116630814], [-84.3919008010421, 33.7779122178978], [-84.3919018869088, 33.777960353314], [-84.3918827224702, 33.7779606741138], [-84.3918853643859, 33.7780158846584], [-84.3917695884296, 33.7780149345676], [-84.3917687762335, 33.7779620081741], [-84.3917532539431, 33.7779619950106], [-84.3917080892877, 33.7779609926921]]]}, "properties": {"OBJECTID_1": 45, "OBJECTID": 60, "BLDG_NUM": "322", "BLDG_CODE": "322", "BLDG_TYPE": "Greek Housing", "BLDG_NAME": "Alpha Xi Delta", "SHAPE_Leng": 367.409812394, "ShowFeatur": "Yes", "CreationDate": 1628109909991, "Creator": "wsims6_GTFacilities", "EditDate": 1628109909991, "Editor": "wsims6_GTFacilities", "Shape__Area": 742.89453125, "Shape__Length": 134.99722091139859, "GlobalID": "bd0ec7b2-625b-4e9b-98fb-6c0a2dd56a12"}}, {"type": "Feature", "id": 49, "geometry": {"type": "Polygon", "coordinates": [[[-84.3928436373741, 33.7771986887975], [-84.3928439654636, 33.7771834322425], [-84.3928112454229, 33.7771825806354], [-84.392811833994, 33.77716783484], [-84.3927953379783, 33.7771674268646], [-84.3927964290501, 33.7771372285362], [-84.3927650886237, 33.777136677344], [-84.3927664986769, 33.7770898014735], [-84.3927979469899, 33.7770907374731], [-84.392798227345, 33.7770815554358], [-84.3928443017085, 33.7770825394595], [-84.3928445850892, 33.7770732780712], [-84.3928706823746, 33.7770738352472], [-84.3928703989967, 33.7770830966356], [-84.3929110701246, 33.7770839652085], [-84.392909607436, 33.7771317356159], [-84.392914723887, 33.7771315991029], [-84.3929143064413, 33.777156396203], [-84.3929136850992, 33.7771697589247], [-84.392909397531, 33.7771697649818], [-84.3929089218505, 33.7771847323772], [-84.3928886834859, 33.7771847271003], [-84.3928893380886, 33.7772000350514], [-84.3928436373741, 33.7771986887975]]]}, "properties": {"OBJECTID_1": 49, "OBJECTID": 64, "BLDG_NUM": "333", "BLDG_CODE": "333", "BLDG_TYPE": "Greek Housing", "BLDG_NAME": "Alpha Gamma Delta", "SHAPE_Leng": 182.611452786, "ShowFeatur": "Yes", "CreationDate": 1628109909991, "Creator": "wsims6_GTFacilities", "EditDate": 1628109909991, "Editor": "wsims6_GTFacilities", "Shape__Area": 205.375, "Shape__Length": 67.05592991459811, "GlobalID": "e767470a-d68a-48ff-a3ed-f42258e01505"}}, {"type": "Feature", "id": 50, "geometry": {"type": "Polygon", "coordinates": [[[-84.3927475752604, 33.7765965179007], [-84.3927483217007, 33.7765337687533], [-84.3928015702549, 33.7765346657152], [-84.3928161005377, 33.7765348726172], [-84.3928178338811, 33.776535024525], [-84.392817927582, 33.7765986223911], [-84.3928242637298, 33.7766049259518], [-84.392823198802, 33.7766417802317], [-84.3927375834642, 33.7766412833998], [-84.3927377045447, 33.7766039376458], [-84.3927475752604, 33.7765965179007]]]}, "properties": {"OBJECTID_1": 50, "OBJECTID": 65, "BLDG_NUM": " ", "BLDG_CODE": " ", "BLDG_TYPE": "Greek Housing", "BLDG_NAME": " ", "SHAPE_Leng": 127.152928796, "ShowFeatur": "No", "CreationDate": 1628109909991, "Creator": "wsims6_GTFacilities", "EditDate": 1628109909991, "Editor": "wsims6_GTFacilities", "Shape__Area": 121.60546875, "Shape__Length": 46.71302194720358, "GlobalID": "fabca00f-55ec-456a-be32-6a563c69188f"}}, {"type": "Feature", "id": 52, "geometry": {"type": "Polygon", "coordinates": [[[-84.3942701555103, 33.776778714793], [-84.3942705262087, 33.7767661928662], [-84.3942373725512, 33.7767654488315], [-84.3942206156382, 33.7767651632507], [-84.3942208098871, 33.7767585916518], [-84.3941836774097, 33.7767578251846], [-84.3941850664808, 33.7767233191013], [-84.3941570132026, 33.7767224890014], [-84.3941592977883, 33.7766493373578], [-84.3941948039765, 33.7766496244468], [-84.3941970620921, 33.7765730078013], [-84.3941992723944, 33.7765726457702], [-84.3941999660951, 33.7765524240398], [-84.3942130933001, 33.7765528380391], [-84.3942229314147, 33.7765531481004], [-84.3942273586208, 33.7765532878079], [-84.3942274219197, 33.7765515015182], [-84.394275235973, 33.7765526882788], [-84.3942745478844, 33.7765656354697], [-84.3942745720852, 33.7765743778444], [-84.3942897365564, 33.7765747303725], [-84.3943001056819, 33.7765749601027], [-84.3943030502811, 33.7765750403283], [-84.3943012139038, 33.7766355382638], [-84.3943430852115, 33.7766363058713], [-84.394342988529, 33.7766528171039], [-84.3944528603264, 33.7766567998239], [-84.3944518517149, 33.7766767300013], [-84.394478226743, 33.7766770176326], [-84.394476671721, 33.7767291414067], [-84.3944489450536, 33.7767285154453], [-84.3944479163178, 33.7767632796404], [-84.3944107827571, 33.7767625132437], [-84.3944105885227, 33.7767690848428], [-84.3943920584467, 33.7767686997692], [-84.3943606779468, 33.7767680543824], [-84.3943602903831, 33.7767811344632], [-84.3943599167353, 33.7767937609874], [-84.3942697649726, 33.7767919003724], [-84.3942701555103, 33.776778714793]]]}, "properties": {"OBJECTID_1": 52, "OBJECTID": 67, "BLDG_NUM": "336", "BLDG_CODE": "336", "BLDG_TYPE": "Greek Housing", "BLDG_NAME": "Pi Kappa Phi", "SHAPE_Leng": 367.822856596, "ShowFeatur": "Yes", "CreationDate": 1628109909991, "Creator": "wsims6_GTFacilities", "EditDate": 1628109909991, "Editor": "wsims6_GTFacilities", "Shape__Area": 686.34375, "Shape__Length": 135.04783702441338, "GlobalID": "7b6b5acf-490e-430b-9ee1-4bec5e4481dd"}}, {"type": "Feature", "id": 53, "geometry": {"type": "Polygon", "coordinates": [[[-84.3938305139918, 33.7766263891377], [-84.3938316675743, 33.7765676542936], [-84.3938373448267, 33.776567693434], [-84.393837631324, 33.776544110194], [-84.3939594791821, 33.7765452347101], [-84.3939595529274, 33.7765686603993], [-84.3939595550587, 33.7765694673741], [-84.3939669337409, 33.7765694294394], [-84.3939659770059, 33.776624169603], [-84.3939703049627, 33.7766243401587], [-84.3939692027117, 33.7767081976427], [-84.3940856338974, 33.7767093374202], [-84.3940852184395, 33.7767421132412], [-84.3940845355668, 33.7767958619836], [-84.3940845195343, 33.7767971495724], [-84.3938346090114, 33.7767951925226], [-84.3938349049676, 33.7767653752431], [-84.3938288205524, 33.7767652998843], [-84.3938296444545, 33.7767068343407], [-84.3938356700516, 33.7767067168541], [-84.3938360218702, 33.7766833372678], [-84.393836310638, 33.7766507970114], [-84.3938366091632, 33.7766264527551], [-84.3938305139918, 33.7766263891377]]]}, "properties": {"OBJECTID_1": 53, "OBJECTID": 68, "BLDG_NUM": "318", "BLDG_CODE": "318", "BLDG_TYPE": "Greek Housing", "BLDG_NAME": "Phi Kappa Theta", "SHAPE_Leng": 341.662192927, "ShowFeatur": "Yes", "CreationDate": 1628109909991, "Creator": "wsims6_GTFacilities", "EditDate": 1628109909991, "Editor": "wsims6_GTFacilities", "Shape__Area": 655.375, "Shape__Length": 125.47928521659986, "GlobalID": "126c4bce-8d0c-46d5-a58e-4d5a5bea626b"}}, {"type": "Feature", "id": 55, "geometry": {"type": "Polygon", "coordinates": [[[-84.3948306743262, 33.7768096406214], [-84.3947536824418, 33.7768082943151], [-84.3947534070897, 33.7768192850617], [-84.3947187736696, 33.7768187512714], [-84.394701952705, 33.7768183387414], [-84.3946784968914, 33.7768179366644], [-84.394640437128, 33.7768172540984], [-84.3946409036599, 33.7768030233628], [-84.3946196511794, 33.7768024783501], [-84.3946203094178, 33.7767774653044], [-84.3946415083603, 33.7767777741831], [-84.394641791684, 33.7767653038108], [-84.3946423826918, 33.7767393694005], [-84.3946776554729, 33.7767167494077], [-84.3947035193633, 33.776700162614], [-84.3947558243309, 33.7767010469511], [-84.3948421689362, 33.7767025058021], [-84.3948426567501, 33.7766840976718], [-84.394834760384, 33.7766839508757], [-84.3948348163411, 33.7766818436112], [-84.3948367637991, 33.7766084058538], [-84.3948474355279, 33.7766083329251], [-84.3948475906279, 33.7766008597454], [-84.3948678791131, 33.7766010882183], [-84.3948683653836, 33.7765861721894], [-84.3948940299945, 33.7765864835869], [-84.3948948457185, 33.7765671434431], [-84.3949250361584, 33.7765677349929], [-84.3949530562548, 33.7765682836643], [-84.3949482073041, 33.7767697938524], [-84.3949463953975, 33.7768226583626], [-84.3949072159547, 33.7768219734417], [-84.3948810280151, 33.7768214078473], [-84.3948641892919, 33.7768212207853], [-84.3948303989816, 33.7768206304665], [-84.3948306743262, 33.7768096406214]]]}, "properties": {"OBJECTID_1": 55, "OBJECTID": 70, "BLDG_NUM": "362", "BLDG_CODE": "362", "BLDG_TYPE": "Greek Housing", "BLDG_NAME": "Phi Mu", "SHAPE_Leng": 386.983699164, "ShowFeatur": "Yes", "CreationDate": 1628109909991, "Creator": "wsims6_GTFacilities", "EditDate": 1628109909991, "Editor": "wsims6_GTFacilities", "Shape__Area": 724.90625, "Shape__Length": 142.09042414118636, "GlobalID": "05f4ba9c-e4c1-4797-8139-fa938b43e5ab"}}, {"type": "Feature", "id": 56, "geometry": {"type": "Polygon", "coordinates": [[[-84.3928994393132, 33.77673482895], [-84.3929007676085, 33.7764876593051], [-84.3930302080229, 33.7764892270561], [-84.3930196194196, 33.7767388851153], [-84.3928994393132, 33.77673482895]]]}, "properties": {"OBJECTID_1": 56, "OBJECTID": 71, "BLDG_NUM": "335", "BLDG_CODE": "335", "BLDG_TYPE": "Greek Housing", "BLDG_NAME": "Delta Chi", "SHAPE_Leng": 256.722477631, "ShowFeatur": "Yes", "CreationDate": 1628109909991, "Creator": "wsims6_GTFacilities", "EditDate": 1628109909991, "Editor": "wsims6_GTFacilities", "Shape__Area": 462.4765625, "Shape__Length": 94.35863181214498, "GlobalID": "5f382cad-d6f2-41f7-9e3e-aacef219c9e2"}}, {"type": "Feature", "id": 57, "geometry": {"type": "Polygon", "coordinates": [[[-84.3927430831215, 33.7767664830583], [-84.3927442485921, 33.7767341855457], [-84.3927342033057, 33.7767339325502], [-84.3927366090412, 33.7766604047195], [-84.3927375834642, 33.7766412833998], [-84.392823198802, 33.7766417802317], [-84.3928494492913, 33.7766419322899], [-84.3928470187267, 33.7767039217255], [-84.3928458532949, 33.7767362192391], [-84.392806519449, 33.7767359234479], [-84.3928054066654, 33.7767677177425], [-84.3927430831215, 33.7767664830583]]]}, "properties": {"OBJECTID_1": 57, "OBJECTID": 72, "BLDG_NUM": "335", "BLDG_CODE": "335", "BLDG_TYPE": "Greek Housing", "BLDG_NAME": "Delta Chi", "SHAPE_Leng": 159.327237242, "ShowFeatur": "Yes", "CreationDate": 1628109909991, "Creator": "wsims6_GTFacilities", "EditDate": 1720208885469, "Editor": "dsimsGT", "Shape__Area": 186.1484375, "Shape__Length": 58.52533070555829, "GlobalID": "22cbb61b-4200-47b6-a469-c3866b156058"}}, {"type": "Feature", "id": 58, "geometry": {"type": "Polygon", "coordinates": [[[-84.3923380158264, 33.7767788656754], [-84.3922897322807, 33.7767782001778], [-84.3922897326446, 33.7767799863501], [-84.3922798258646, 33.7767798502792], [-84.3922730963548, 33.7767738170038], [-84.3922747600506, 33.7767725236981], [-84.392265078923, 33.7767641461126], [-84.3922469330366, 33.7767484436488], [-84.3922373071074, 33.7767401146494], [-84.3922357760604, 33.7767413482031], [-84.3922289362605, 33.7767352520112], [-84.3922278959433, 33.7767272156834], [-84.3922300235809, 33.7767270296608], [-84.3922307684929, 33.7766866225596], [-84.3922372351506, 33.77668670902], [-84.3922373578683, 33.7766886275116], [-84.392259549228, 33.7766890071177], [-84.3922640341394, 33.7765694677883], [-84.3922644178487, 33.7765358489841], [-84.392413025342, 33.7765390233498], [-84.3924119642499, 33.77661774584], [-84.39237106974, 33.7766501845428], [-84.3923906788735, 33.7766672088392], [-84.3925224638447, 33.7766700973609], [-84.3925200609133, 33.7767591633547], [-84.392377591174, 33.776757199632], [-84.3923774053227, 33.7767707319679], [-84.3923480585761, 33.7767703266973], [-84.392347851708, 33.7767807871426], [-84.3923379805607, 33.7767806519128], [-84.3923380158264, 33.7767788656754]]]}, "properties": {"OBJECTID_1": 58, "OBJECTID": 73, "BLDG_NUM": "309", "BLDG_CODE": "309", "BLDG_TYPE": "Greek Housing", "BLDG_NAME": "Delta Upsilon", "SHAPE_Leng": 362.178213095, "ShowFeatur": "Yes", "CreationDate": 1628109909991, "Creator": "wsims6_GTFacilities", "EditDate": 1628109909991, "Editor": "wsims6_GTFacilities", "Shape__Area": 679.47265625, "Shape__Length": 132.97424005147894, "GlobalID": "1cc09e67-4234-4b9f-8cac-a9c34ff89cdf"}}, {"type": "Feature", "id": 60, "geometry": {"type": "Polygon", "coordinates": [[[-84.3922295821345, 33.7773623183377], [-84.3922259663528, 33.7772577666636], [-84.3922272201128, 33.7771326087461], [-84.3922272450773, 33.7771157685436], [-84.3922274696577, 33.7770663332515], [-84.3922510668428, 33.7770662738897], [-84.3922511103041, 33.7770569038412], [-84.3922987663893, 33.7770570439359], [-84.39229881661, 33.7770560195672], [-84.3922987318778, 33.7770339968686], [-84.3922988687968, 33.7770326829111], [-84.3923556509216, 33.7770329144964], [-84.3923559012655, 33.7770221519186], [-84.3923952363082, 33.7770228544961], [-84.3923951937245, 33.7770329647994], [-84.3924433162389, 33.7770331057884], [-84.3924432253924, 33.777054449864], [-84.392488970355, 33.7770545852668], [-84.392488896501, 33.777071702366], [-84.3925209515697, 33.7770718005928], [-84.392520364743, 33.7772057186465], [-84.3925181644454, 33.7772057875923], [-84.3924585057136, 33.7772055153609], [-84.3923324015322, 33.7772051346997], [-84.3923093762435, 33.77720507221], [-84.3923091557025, 33.7772556183291], [-84.3923090311235, 33.7772628741514], [-84.3923290391255, 33.7772631387187], [-84.3923333402887, 33.7772633742997], [-84.3923331297431, 33.777270786265], [-84.3924010479804, 33.7772721263333], [-84.3924012375466, 33.7772653626941], [-84.3924303873133, 33.7772659360192], [-84.3924308932157, 33.7772480517259], [-84.3924581918974, 33.7772492839319], [-84.392457560969, 33.7772660161427], [-84.3924847099061, 33.7772665516397], [-84.3924844747393, 33.7772748625975], [-84.3925218880792, 33.7772756002085], [-84.392520076825, 33.7773568495904], [-84.3925192850345, 33.7773678241454], [-84.3922295821345, 33.7773623183377]]]}, "properties": {"OBJECTID_1": 60, "OBJECTID": 75, "BLDG_NUM": "327", "BLDG_CODE": "327", "BLDG_TYPE": "Greek Housing", "BLDG_NAME": "Tau Kappa Epsilon", "SHAPE_Leng": 571.811442821, "ShowFeatur": "Yes", "CreationDate": 1628109909991, "Creator": "wsims6_GTFacilities", "EditDate": 1628109909991, "Editor": "wsims6_GTFacilities", "Shape__Area": 1204.20703125, "Shape__Length": 209.9377639407433, "GlobalID": "6fabc199-b7fe-450c-8ecc-9283bffbe09c"}}, {"type": "Feature", "id": 61, "geometry": {"type": "Polygon", "coordinates": [[[-84.3930353976812, 33.7771991658189], [-84.3929777790911, 33.777199098378], [-84.3929776210106, 33.7772256189612], [-84.3929428142, 33.7772253131087], [-84.3929452416955, 33.7771104363759], [-84.3929697697256, 33.7771100090992], [-84.3930117948192, 33.7771108697461], [-84.3930401334077, 33.7771113452334], [-84.3930405542175, 33.7770948189815], [-84.3930407616205, 33.7770866460263], [-84.3930410257627, 33.7770762359681], [-84.3931087197057, 33.7770777401594], [-84.3931025279792, 33.7773028020814], [-84.3930721749443, 33.7773020625136], [-84.393054275018, 33.7773019736285], [-84.3930548546677, 33.7772744117659], [-84.393055841458, 33.7772288224258], [-84.3930345784766, 33.7772288370856], [-84.3930353976812, 33.7771991658189]]]}, "properties": {"OBJECTID_1": 61, "OBJECTID": 76, "BLDG_NUM": "333", "BLDG_CODE": "333", "BLDG_TYPE": "Greek Housing", "BLDG_NAME": "Alpha Gamma Delta", "SHAPE_Leng": 282.200603215, "ShowFeatur": "Yes", "CreationDate": 1628109909991, "Creator": "wsims6_GTFacilities", "EditDate": 1628109909991, "Editor": "wsims6_GTFacilities", "Shape__Area": 345.83984375, "Shape__Length": 103.69789982801666, "GlobalID": "f54469ec-87b5-4726-95ad-fc45acf97852"}}, {"type": "Feature", "id": 64, "geometry": {"type": "Polygon", "coordinates": [[[-84.3952099106298, 33.7767998682726], [-84.395210161178, 33.7767929764816], [-84.3952002777399, 33.7767926873211], [-84.3951656740745, 33.7767923772107], [-84.3951658459318, 33.7767834992259], [-84.3951133275942, 33.7767827912798], [-84.3951142152621, 33.7767218307403], [-84.395115087952, 33.7766641765863], [-84.3951159548479, 33.7766023063171], [-84.3951258250608, 33.7766025026387], [-84.3951260494946, 33.7765943125169], [-84.3951613602218, 33.7765950018266], [-84.3951803760999, 33.7765953732622], [-84.3952275459717, 33.7765962939575], [-84.3952974731367, 33.7765976593685], [-84.3953218414474, 33.7765981344743], [-84.3954098450908, 33.7765998522352], [-84.3954095725259, 33.7766082038425], [-84.3954195734522, 33.7766084251446], [-84.3954195554433, 33.7766097740495], [-84.3954188544112, 33.7766275360926], [-84.3954188334965, 33.7766907545683], [-84.3954184016838, 33.7767078434796], [-84.3954171227278, 33.776789684304], [-84.3953641973161, 33.7767889709076], [-84.3953640473776, 33.7767967443283], [-84.3953291981911, 33.7767962751264], [-84.3953195570323, 33.7767961451189], [-84.3953194324371, 33.7768020800239], [-84.3953191764169, 33.7768142239488], [-84.3953190996963, 33.7768178586506], [-84.3953188756198, 33.7768286148737], [-84.3953074839194, 33.7768283672873], [-84.3952205971076, 33.7768264814817], [-84.3952089516605, 33.7768262289462], [-84.3952093430992, 33.7768154697084], [-84.3952094940684, 33.7768113317473], [-84.3952099106298, 33.7767998682726]]]}, "properties": {"OBJECTID_1": 64, "OBJECTID": 79, "BLDG_NUM": "320", "BLDG_CODE": "320", "BLDG_TYPE": "Greek Housing", "BLDG_NAME": "Pi Kappa Alpha", "SHAPE_Leng": 352.438758767, "ShowFeatur": "Yes", "CreationDate": 1628109909991, "Creator": "wsims6_GTFacilities", "EditDate": 1628109909991, "Editor": "wsims6_GTFacilities", "Shape__Area": 932.6328125, "Shape__Length": 129.40204703721614, "GlobalID": "84b9eeeb-be6b-430c-b7e8-e9e3ec6c8197"}}, {"type": "Feature", "id": 65, "geometry": {"type": "Polygon", "coordinates": [[[-84.393258890166, 33.7772140548972], [-84.3932460050009, 33.7772133364955], [-84.3932462689807, 33.7772172275412], [-84.3932170009533, 33.7772172533229], [-84.3932173957419, 33.7771916754332], [-84.3932466849774, 33.7771915062498], [-84.3932461747823, 33.7771982632657], [-84.3932592704462, 33.7771997846529], [-84.3932607198326, 33.7771515463094], [-84.3932631437436, 33.7770797577278], [-84.3934580364856, 33.7770820343507], [-84.3934560536375, 33.7771560131397], [-84.393455295047, 33.7771828179456], [-84.3934523682582, 33.7772841509856], [-84.3934355874281, 33.7772838409977], [-84.3932574154115, 33.7772805445284], [-84.3932583610015, 33.7772546148848], [-84.393258890166, 33.7772140548972]]]}, "properties": {"OBJECTID_1": 65, "OBJECTID": 80, "BLDG_NUM": "338", "BLDG_CODE": "338", "BLDG_TYPE": "Greek Housing", "BLDG_NAME": "Zeta Tau Alpha", "SHAPE_Leng": 298.856182056, "ShowFeatur": "Yes", "CreationDate": 1628109909991, "Creator": "wsims6_GTFacilities", "EditDate": 1628109909991, "Editor": "wsims6_GTFacilities", "Shape__Area": 600.3671875, "Shape__Length": 109.75048751174084, "GlobalID": "bcbf2059-c689-405b-a448-7b1b17921048"}}, {"type": "Feature", "id": 66, "geometry": {"type": "Polygon", "coordinates": [[[-84.3932207375665, 33.7767754035603], [-84.3932218049767, 33.776681315099], [-84.3932476010427, 33.7766815147926], [-84.3932489925051, 33.7765678048815], [-84.3932685671102, 33.7765679664025], [-84.3934090779544, 33.7765691130946], [-84.3934177676915, 33.7765691809822], [-84.393416841069, 33.7766596607758], [-84.3934165769199, 33.7766811151728], [-84.3934283979396, 33.776681216979], [-84.393446216927, 33.7766813699762], [-84.3934461094638, 33.7766901675938], [-84.3934456522418, 33.7767272642073], [-84.3934455214625, 33.7767378669754], [-84.3934448933801, 33.7767773217229], [-84.393382089026, 33.7767767852221], [-84.3932351910126, 33.7767755276019], [-84.3932207375665, 33.7767754035603]]]}, "properties": {"OBJECTID_1": 66, "OBJECTID": 81, "BLDG_NUM": "326", "BLDG_CODE": "326", "BLDG_TYPE": "Greek Housing", "BLDG_NAME": "Sigma Phi Epsilon", "SHAPE_Leng": 287.510776162, "ShowFeatur": "Yes", "CreationDate": 1628109909991, "Creator": "wsims6_GTFacilities", "EditDate": 1628109909991, "Editor": "wsims6_GTFacilities", "Shape__Area": 601.96484375, "Shape__Length": 105.58762479031104, "GlobalID": "32df2a8f-acbc-4d88-9ce1-4904534ddb3a"}}, {"type": "Feature", "id": 123, "geometry": {"type": "Polygon", "coordinates": [[[-84.3932679238053, 33.7777687058001], [-84.3932692871887, 33.7776529501119], [-84.3932070143421, 33.7776535828919], [-84.3932052574453, 33.7776457228096], [-84.3931717145801, 33.7776461432368], [-84.3931717076929, 33.7776414753969], [-84.3931393311242, 33.7776415564567], [-84.3931390066101, 33.7776359965642], [-84.3931071962986, 33.7776358484585], [-84.3931063828289, 33.77750847537], [-84.3933089641186, 33.7775098995817], [-84.3933376286524, 33.7775102743184], [-84.3934010691957, 33.7775111045119], [-84.3934019321742, 33.7775550593651], [-84.3934038748538, 33.7777162089646], [-84.3934018790557, 33.7777238225744], [-84.3934011709321, 33.7777697900951], [-84.3932679238053, 33.7777687058001]]]}, "properties": {"OBJECTID_1": 123, "OBJECTID": 144, "BLDG_NUM": "315", "BLDG_CODE": "315", "BLDG_TYPE": "Greek Housing", "BLDG_NAME": "Phi Gamma Delta", "SHAPE_Leng": 367.962595939, "ShowFeatur": "Yes", "CreationDate": 1628109909991, "Creator": "wsims6_GTFacilities", "EditDate": 1628109909991, "Editor": "wsims6_GTFacilities", "Shape__Area": 846.73046875, "Shape__Length": 135.12713349290044, "GlobalID": "cfb67c59-5ac8-4ccc-9a97-3eb6cba759fa"}}, {"type": "Feature", "id": 124, "geometry": {"type": "Polygon", "coordinates": [[[-84.3916020086587, 33.7775602917521], [-84.3916033449985, 33.7774998407572], [-84.3916473468368, 33.7775005422794], [-84.3916636265783, 33.7775008020297], [-84.3918796039052, 33.7775042446024], [-84.3918788391634, 33.7775441531191], [-84.3919074477711, 33.7775446094387], [-84.3919063294553, 33.7776028852533], [-84.3919030383092, 33.7776028353577], [-84.3919030753825, 33.7776009111645], [-84.3916012119935, 33.7775962979751], [-84.3916020086587, 33.7775602917521]]]}, "properties": {"OBJECTID_1": 124, "OBJECTID": 145, "BLDG_NUM": "321", "BLDG_CODE": "321", "BLDG_TYPE": "Greek Housing", "BLDG_NAME": "Psi Upsilon", "SHAPE_Leng": 256.928087332, "ShowFeatur": "Yes", "CreationDate": 1628109909991, "Creator": "wsims6_GTFacilities", "EditDate": 1628109909991, "Editor": "wsims6_GTFacilities", "Shape__Area": 421.3828125, "Shape__Length": 94.2484471186465, "GlobalID": "92210754-9df7-454d-b818-e87281be0ba9"}}, {"type": "Feature", "id": 125, "geometry": {"type": "Polygon", "coordinates": [[[-84.3916356251511, 33.7766459065073], [-84.391639933097, 33.7765376426816], [-84.3916408945612, 33.776517601708], [-84.3915831334943, 33.7765161381169], [-84.3914706016699, 33.7765130160596], [-84.3914739893748, 33.7763855369987], [-84.3918457671735, 33.7763933004671], [-84.3918423858006, 33.7764792467185], [-84.3918813282059, 33.7764826659533], [-84.3918767389612, 33.7765980208941], [-84.3918763472054, 33.7766034540636], [-84.3918534785831, 33.7766029584096], [-84.3918417023262, 33.7766026282528], [-84.3918297441342, 33.7766029160587], [-84.3918295741927, 33.7766138957878], [-84.3918247793846, 33.7766734063687], [-84.3916369617713, 33.7766681838969], [-84.3916356251511, 33.7766459065073]]]}, "properties": {"OBJECTID_1": 125, "OBJECTID": 146, "BLDG_NUM": "310", "BLDG_CODE": "310", "BLDG_TYPE": "Greek Housing", "BLDG_NAME": "Kappa Alpha", "SHAPE_Leng": 450.138569588, "ShowFeatur": "Yes", "CreationDate": 1628109909991, "Creator": "wsims6_GTFacilities", "EditDate": 1628109909991, "Editor": "wsims6_GTFacilities", "Shape__Area": 1222.81640625, "Shape__Length": 165.25274672664122, "GlobalID": "46a8a560-38a7-402f-a62a-8e64bb012dad"}}]}