{"type": "FeatureCollection", "features": [{"type": "Feature", "id": 1, "geometry": {"type": "Point", "coordinates": [-84.3937262168333, 33.776837466]}, "properties": {"objectid": 1, "globalid": "2e845740-7cf1-4b1a-9692-c04820afffbb", "CreationDate": 1626364680118, "Creator": "wsims6_GTFacilities", "EditDate": 1691786980357, "Editor": "dsimsGT", "phone_name": "Ferst and Fowler ", "phone_number": null, "box_condition": "2", "comments": null, "gt_phone_name": null, "camera": "No", "location_code": "Outside", "floor_location": null, "keypad": null, "label_applied": null, "blue_light_condition": "light_yes", "blue_light_flashes": null, "phone_status": "Active", "screwsmissing": null}}, {"type": "Feature", "id": 2, "geometry": {"type": "Point", "coordinates": [-84.3963793368333, 33.7782029663333]}, "properties": {"objectid": 2, "globalid": "93fc2dfa-c0c0-4794-9e49-8f3237e6e96d", "CreationDate": 1626364845855, "Creator": "wsims6_GTFacilities", "EditDate": 1691786980404, "Editor": "dsimsGT", "phone_name": "Ferst and Plum", "phone_number": null, "box_condition": "3", "comments": "Camera installed above call box. ", "gt_phone_name": null, "camera": "Yes", "location_code": "Outside", "floor_location": null, "keypad": null, "label_applied": null, "blue_light_condition": "light_yes", "blue_light_flashes": null, "phone_status": "Active", "screwsmissing": null}}, {"type": "Feature", "id": 3, "geometry": {"type": "Point", "coordinates": [-84.397866274, 33.779588693]}, "properties": {"objectid": 3, "globalid": "216bc096-e6fe-4f38-9d19-e58190881f34", "CreationDate": 1626365065726, "Creator": "wsims6_GTFacilities", "EditDate": 1691786980404, "Editor": "dsimsGT", "phone_name": "Atlantic and eitghth street", "phone_number": null, "box_condition": "3", "comments": "Label is faded and not readable. ", "gt_phone_name": null, "camera": "No", "location_code": "Outside", "floor_location": null, "keypad": "keypad_yes", "label_applied": "label_yes", "blue_light_condition": "light_yes", "blue_light_flashes": null, "phone_status": "Active", "screwsmissing": null}}, {"type": "Feature", "id": 4, "geometry": {"type": "Point", "coordinates": [-84.397722244, 33.7805400081667]}, "properties": {"objectid": 4, "globalid": "12d49705-c998-43f2-8137-eb7af0d4201a", "CreationDate": 1626365169337, "Creator": "wsims6_GTFacilities", "EditDate": 1691786980404, "Editor": "dsimsGT", "phone_name": "Atlantic at EBB", "phone_number": null, "box_condition": "2", "comments": "Electronic look good but pole is in poor condition. ", "gt_phone_name": null, "camera": "Yes", "location_code": "Outside", "floor_location": null, "keypad": null, "label_applied": null, "blue_light_condition": "light_yes", "blue_light_flashes": null, "phone_status": "Active", "screwsmissing": null}}, {"type": "Feature", "id": 5, "geometry": {"type": "Point", "coordinates": [-84.3992343771667, 33.7804702966667]}, "properties": {"objectid": 5, "globalid": "35d05cae-feae-411a-b454-22a34f0eaa89", "CreationDate": 1626365520211, "Creator": "wsims6_GTFacilities", "EditDate": 1691786980420, "Editor": "dsimsGT", "phone_name": "State and Peachtree Place", "phone_number": null, "box_condition": "2", "comments": null, "gt_phone_name": null, "camera": "No", "location_code": "Outside", "floor_location": null, "keypad": null, "label_applied": null, "blue_light_condition": "light_yes", "blue_light_flashes": null, "phone_status": "Active", "screwsmissing": null}}, {"type": "Feature", "id": 6, "geometry": {"type": "Point", "coordinates": [-84.3992736993333, 33.7795248623333]}, "properties": {"objectid": 6, "globalid": "6940bea7-e444-4d31-a2ac-e5706fec9f47", "CreationDate": 1626368006951, "Creator": "wsims6_GTFacilities", "EditDate": 1691786980420, "Editor": "dsimsGT", "phone_name": "State and EcoCommons", "phone_number": null, "box_condition": "3", "comments": null, "gt_phone_name": null, "camera": "Yes", "location_code": "Outside", "floor_location": null, "keypad": null, "label_applied": null, "blue_light_condition": "light_no", "blue_light_flashes": null, "phone_status": "Active", "screwsmissing": null}}, {"type": "Feature", "id": 7, "geometry": {"type": "Point", "coordinates": [-84.4005391316667, 33.7794535036667]}, "properties": {"objectid": 7, "globalid": "108e25cb-1313-4b88-a3b3-831658734750", "CreationDate": 1626368008220, "Creator": "wsims6_GTFacilities", "EditDate": 1691786980420, "Editor": "dsimsGT", "phone_name": "Dalney and EcoCommons", "phone_number": null, "box_condition": "3", "comments": null, "gt_phone_name": null, "camera": "Yes", "location_code": "Outside", "floor_location": null, "keypad": null, "label_applied": null, "blue_light_condition": "light_no", "blue_light_flashes": null, "phone_status": "Active", "screwsmissing": null}}, {"type": "Feature", "id": 8, "geometry": {"type": "Point", "coordinates": [-84.4021601901667, 33.7795045265]}, "properties": {"objectid": 8, "globalid": "3c1bb87c-2eca-4df0-9e94-d389dea7e8d6", "CreationDate": 1626368009243, "Creator": "wsims6_GTFacilities", "EditDate": 1691786980420, "Editor": "dsimsGT", "phone_name": "Hemphill and EcoCommons", "phone_number": null, "box_condition": "3", "comments": null, "gt_phone_name": null, "camera": "Yes", "location_code": "Outside", "floor_location": null, "keypad": null, "label_applied": null, "blue_light_condition": "light_yes", "blue_light_flashes": null, "phone_status": "Active", "screwsmissing": null}}, {"type": "Feature", "id": 9, "geometry": {"type": "Point", "coordinates": [-84.4013529986667, 33.7785620163333]}, "properties": {"objectid": 9, "globalid": "2c9bc796-8e82-4c69-9231-bf95e824d937", "CreationDate": 1626368010512, "Creator": "wsims6_GTFacilities", "EditDate": 1691786980435, "Editor": "dsimsGT", "phone_name": "Hemphill and Ferst", "phone_number": null, "box_condition": "3", "comments": "Multiple cameras on top. ", "gt_phone_name": null, "camera": "Yes", "location_code": "Outside", "floor_location": null, "keypad": null, "label_applied": null, "blue_light_condition": "light_yes", "blue_light_flashes": null, "phone_status": "Active", "screwsmissing": null}}, {"type": "Feature", "id": 10, "geometry": {"type": "Point", "coordinates": [-84.4025290745, 33.7773842778333]}, "properties": {"objectid": 10, "globalid": "011a528e-6620-48d9-b30e-9434db5956f7", "CreationDate": 1626368011689, "Creator": "wsims6_GTFacilities", "EditDate": 1691786980435, "Editor": "dsimsGT", "phone_name": "Ferst and Sixth St", "phone_number": null, "box_condition": "2", "comments": null, "gt_phone_name": null, "camera": "No", "location_code": "Outside", "floor_location": null, "keypad": null, "label_applied": null, "blue_light_condition": "light_yes", "blue_light_flashes": null, "phone_status": "Active", "screwsmissing": null}}, {"type": "Feature", "id": 11, "geometry": {"type": "Point", "coordinates": [-84.4023678123334, 33.7753375906667]}, "properties": {"objectid": 11, "globalid": "6535dad5-b5e6-4b56-a677-439021f235ab", "CreationDate": 1626368012633, "Creator": "wsims6_GTFacilities", "EditDate": 1691786980435, "Editor": "dsimsGT", "phone_name": "Ferst and CRC", "phone_number": null, "box_condition": "3", "comments": null, "gt_phone_name": null, "camera": "Yes", "location_code": "Outside", "floor_location": null, "keypad": null, "label_applied": null, "blue_light_condition": "light_yes", "blue_light_flashes": null, "phone_status": "Active", "screwsmissing": null}}, {"type": "Feature", "id": 12, "geometry": {"type": "Point", "coordinates": [-84.401982335, 33.7749126231667]}, "properties": {"objectid": 12, "globalid": "3417a1af-ef35-455d-bbc4-7035a650d9c8", "CreationDate": 1626368013352, "Creator": "wsims6_GTFacilities", "EditDate": 1691786980435, "Editor": "dsimsGT", "phone_name": "ISyE and Exhibition Hall", "phone_number": null, "box_condition": "3", "comments": null, "gt_phone_name": null, "camera": "Yes", "location_code": "Outside", "floor_location": null, "keypad": null, "label_applied": null, "blue_light_condition": "light_yes", "blue_light_flashes": null, "phone_status": "Active", "screwsmissing": null}}, {"type": "Feature", "id": 13, "geometry": {"type": "Point", "coordinates": [-84.4012657883333, 33.774947678]}, "properties": {"objectid": 13, "globalid": "7098a996-aed8-483e-9c38-d9d2f7f4656d", "CreationDate": 1626368014138, "Creator": "wsims6_GTFacilities", "EditDate": 1691786980451, "Editor": "dsimsGT", "phone_name": "exhibition Hall and IC", "phone_number": null, "box_condition": "3", "comments": null, "gt_phone_name": null, "camera": "Yes", "location_code": "Outside", "floor_location": null, "keypad": null, "label_applied": null, "blue_light_condition": "light_yes", "blue_light_flashes": null, "phone_status": "Active", "screwsmissing": null}}, {"type": "Feature", "id": 14, "geometry": {"type": "Point", "coordinates": [-84.4000975781667, 33.7750029891667]}, "properties": {"objectid": 14, "globalid": "b961df79-ce6e-49d7-a251-13dcc708f893", "CreationDate": 1626368014862, "Creator": "wsims6_GTFacilities", "EditDate": 1691786980451, "Editor": "dsimsGT", "phone_name": "Boggs west", "phone_number": null, "box_condition": "2", "comments": null, "gt_phone_name": null, "camera": "No", "location_code": "Outside", "floor_location": null, "keypad": null, "label_applied": null, "blue_light_condition": "light_yes", "blue_light_flashes": null, "phone_status": "Active", "screwsmissing": null}}, {"type": "Feature", "id": 16, "geometry": {"type": "Point", "coordinates": [-84.401292052, 33.7742390481667]}, "properties": {"objectid": 16, "globalid": "42bacec0-3b1f-4ea9-8d02-51e015c2e30e", "CreationDate": 1626369292148, "Creator": "wsims6_GTFacilities", "EditDate": 1691786980451, "Editor": "dsimsGT", "phone_name": "Exhibition Hall and campus center deck", "phone_number": null, "box_condition": "3", "comments": null, "gt_phone_name": null, "camera": "Yes", "location_code": "Outside", "floor_location": null, "keypad": null, "label_applied": null, "blue_light_condition": "light_yes", "blue_light_flashes": null, "phone_status": "Active", "screwsmissing": null}}, {"type": "Feature", "id": 23, "geometry": {"type": "Point", "coordinates": [-84.3974238658333, 33.7733634716667]}, "properties": {"objectid": 23, "globalid": "084be13c-9781-4779-89dc-ce4c544d6c96", "CreationDate": 1626369301142, "Creator": "wsims6_GTFacilities", "EditDate": 1691786980482, "Editor": "dsimsGT", "phone_name": "Campus center parking", "phone_number": null, "box_condition": "1", "comments": "Out of order. ", "gt_phone_name": null, "camera": "No", "location_code": "Outside", "floor_location": null, "keypad": null, "label_applied": null, "blue_light_condition": "light_yes", "blue_light_flashes": null, "phone_status": "Active", "screwsmissing": null}}, {"type": "Feature", "id": 24, "geometry": {"type": "Point", "coordinates": [-84.3969283663333, 33.7739041183333]}, "properties": {"objectid": 24, "globalid": "37a08a4b-4a4c-4942-942f-ce020eda65d3", "CreationDate": 1626369302998, "Creator": "wsims6_GTFacilities", "EditDate": 1691786980482, "Editor": "dsimsGT", "phone_name": "Skiles West", "phone_number": null, "box_condition": "2", "comments": null, "gt_phone_name": null, "camera": "No", "location_code": "Outside", "floor_location": null, "keypad": null, "label_applied": null, "blue_light_condition": "light_yes", "blue_light_flashes": null, "phone_status": "Active", "screwsmissing": null}}, {"type": "Feature", "id": 26, "geometry": {"type": "Point", "coordinates": [-84.3955168056667, 33.7725053246667]}, "properties": {"objectid": 26, "globalid": "07586234-0188-49ac-89a8-b751cc971dfc", "CreationDate": 1626374384721, "Creator": "wsims6_GTFacilities", "EditDate": 1691786980498, "Editor": "dsimsGT", "phone_name": "JS Coon and Cherry St", "phone_number": null, "box_condition": "2", "comments": null, "gt_phone_name": null, "camera": "Yes", "location_code": "Outside", "floor_location": null, "keypad": null, "label_applied": null, "blue_light_condition": "light_yes", "blue_light_flashes": null, "phone_status": "Active", "screwsmissing": null}}, {"type": "Feature", "id": 27, "geometry": {"type": "Point", "coordinates": [-84.3940007781667, 33.77196628]}, "properties": {"objectid": 27, "globalid": "46e1d640-7d70-47d3-8451-4f63977776eb", "CreationDate": 1626374386198, "Creator": "wsims6_GTFacilities", "EditDate": 1691786980498, "Editor": "dsimsGT", "phone_name": "Flag lawn at stadium", "phone_number": null, "box_condition": "2", "comments": null, "gt_phone_name": null, "camera": "No", "location_code": "Outside", "floor_location": null, "keypad": null, "label_applied": null, "blue_light_condition": "light_yes", "blue_light_flashes": null, "phone_status": "Active", "screwsmissing": null}}, {"type": "Feature", "id": 28, "geometry": {"type": "Point", "coordinates": [-84.3957566845, 33.7739625335]}, "properties": {"objectid": 28, "globalid": "7d865659-5d35-4def-827e-0ee915088850", "CreationDate": 1626374388667, "Creator": "wsims6_GTFacilities", "EditDate": 1691786980498, "Editor": "dsimsGT", "phone_name": "Skiles East", "phone_number": null, "box_condition": "3", "comments": " NO camera. ", "gt_phone_name": null, "camera": "No", "location_code": "Outside", "floor_location": null, "keypad": null, "label_applied": null, "blue_light_condition": "light_yes", "blue_light_flashes": null, "phone_status": "Active", "screwsmissing": null}}, {"type": "Feature", "id": 29, "geometry": {"type": "Point", "coordinates": [-84.394884118, 33.7739833491667]}, "properties": {"objectid": 29, "globalid": "44c6953f-1c20-4d0f-b45a-2d013daeaef8", "CreationDate": 1626374389688, "Creator": "wsims6_GTFacilities", "EditDate": 1691786980498, "Editor": "dsimsGT", "phone_name": "Old CE and Crosland", "phone_number": null, "box_condition": "3", "comments": null, "gt_phone_name": null, "camera": "No", "location_code": "Outside", "floor_location": null, "keypad": null, "label_applied": null, "blue_light_condition": "light_yes", "blue_light_flashes": null, "phone_status": "Active", "screwsmissing": null}}, {"type": "Feature", "id": 30, "geometry": {"type": "Point", "coordinates": [-84.3937526703334, 33.7742998818333]}, "properties": {"objectid": 30, "globalid": "ca776cfc-ac9b-4f7f-852b-7df5e7a3796c", "CreationDate": 1626374390700, "Creator": "wsims6_GTFacilities", "EditDate": 1691786980498, "Editor": "dsimsGT", "phone_name": "Peters deck West and Brittain ", "phone_number": null, "box_condition": "2", "comments": null, "gt_phone_name": null, "camera": "No", "location_code": "Outside", "floor_location": null, "keypad": null, "label_applied": null, "blue_light_condition": "light_yes", "blue_light_flashes": null, "phone_status": "Active", "screwsmissing": null}}, {"type": "Feature", "id": 31, "geometry": {"type": "Point", "coordinates": [-84.3927484215, 33.7739599716667]}, "properties": {"objectid": 31, "globalid": "884aa318-dab8-4712-b828-ad68bdcdac48", "CreationDate": 1626374393248, "Creator": "wsims6_GTFacilities", "EditDate": 1691786980513, "Editor": "dsimsGT", "phone_name": "Bobby Dodd and Brittain", "phone_number": null, "box_condition": "2", "comments": null, "gt_phone_name": null, "camera": "No", "location_code": "Outside", "floor_location": null, "keypad": null, "label_applied": null, "blue_light_condition": "light_yes", "blue_light_flashes": null, "phone_status": "Active", "screwsmissing": null}}, {"type": "Feature", "id": 32, "geometry": {"type": "Point", "coordinates": [-84.391869837, 33.7738055505]}, "properties": {"objectid": 32, "globalid": "d5b958ce-fcbe-4e6a-8397-36f1bc6f5331", "CreationDate": 1626374394325, "Creator": "wsims6_GTFacilities", "EditDate": 1691786980513, "Editor": "dsimsGT", "phone_name": "Bobby Dodd and Techwood", "phone_number": null, "box_condition": "2", "comments": null, "gt_phone_name": null, "camera": "No", "location_code": "Outside", "floor_location": null, "keypad": "keypad_no", "label_applied": "label_no", "blue_light_condition": "light_yes", "blue_light_flashes": null, "phone_status": "Active", "screwsmissing": null}}, {"type": "Feature", "id": 36, "geometry": {"type": "Point", "coordinates": [-84.3919101201667, 33.7750118743333]}, "properties": {"objectid": 36, "globalid": "aa8a8f08-7946-45a8-a150-7800035297c8", "CreationDate": 1626374399128, "Creator": "wsims6_GTFacilities", "EditDate": 1691786980529, "Editor": "dsimsGT", "phone_name": "Techwood and Fourth St", "phone_number": null, "box_condition": "2", "comments": null, "gt_phone_name": null, "camera": "No", "location_code": "Outside", "floor_location": null, "keypad": null, "label_applied": null, "blue_light_condition": "light_yes", "blue_light_flashes": null, "phone_status": "Active", "screwsmissing": null}}, {"type": "Feature", "id": 37, "geometry": {"type": "Point", "coordinates": [-84.3921940288333, 33.776752193]}, "properties": {"objectid": 37, "globalid": "6d80db44-33e9-49bf-b293-37a508df86bf", "CreationDate": 1626374399932, "Creator": "wsims6_GTFacilities", "EditDate": 1691786980529, "Editor": "dsimsGT", "phone_name": "Techwood and Fifth", "phone_number": null, "box_condition": "2", "comments": null, "gt_phone_name": null, "camera": "No", "location_code": "Outside", "floor_location": null, "keypad": null, "label_applied": null, "blue_light_condition": "light_yes", "blue_light_flashes": null, "phone_status": "Active", "screwsmissing": null}}, {"type": "Feature", "id": 38, "geometry": {"type": "Point", "coordinates": [-84.396134156, 33.7754575753333]}, "properties": {"objectid": 38, "globalid": "858c5cb8-90e5-4273-a73e-727930b70171", "CreationDate": 1626374400607, "Creator": "wsims6_GTFacilities", "EditDate": 1691786980529, "Editor": "dsimsGT", "phone_name": "Architecture and Clough", "phone_number": null, "box_condition": "2", "comments": null, "gt_phone_name": null, "camera": "No", "location_code": "Outside", "floor_location": null, "keypad": null, "label_applied": null, "blue_light_condition": "light_yes", "blue_light_flashes": null, "phone_status": "Active", "screwsmissing": null}}, {"type": "Feature", "id": 39, "geometry": {"type": "Point", "coordinates": [-84.395406809, 33.774803975]}, "properties": {"objectid": 39, "globalid": "55ed11b3-81eb-4c9f-ad28-220114ff1087", "CreationDate": 1626374401576, "Creator": "wsims6_GTFacilities", "EditDate": 1691786980545, "Editor": "dsimsGT", "phone_name": "Hinman and Research Drive", "phone_number": null, "box_condition": "2", "comments": null, "gt_phone_name": null, "camera": "No", "location_code": "Outside", "floor_location": null, "keypad": null, "label_applied": null, "blue_light_condition": "light_yes", "blue_light_flashes": null, "phone_status": "Active", "screwsmissing": null}}, {"type": "Feature", "id": 40, "geometry": {"type": "Point", "coordinates": [-84.3978726355, 33.7752317048333]}, "properties": {"objectid": 40, "globalid": "e73965e9-ccba-4ba6-81c5-722941f5303e", "CreationDate": 1626374403481, "Creator": "wsims6_GTFacilities", "EditDate": 1691786980545, "Editor": "dsimsGT", "phone_name": "Atlantic and Fourth St", "phone_number": null, "box_condition": "2", "comments": null, "gt_phone_name": null, "camera": "Yes", "location_code": "Outside", "floor_location": null, "keypad": "keypad_no", "label_applied": "label_no", "blue_light_condition": "light_yes", "blue_light_flashes": null, "phone_status": "Active", "screwsmissing": null}}, {"type": "Feature", "id": 41, "geometry": {"type": "Point", "coordinates": [-84.4007460308333, 33.77585719]}, "properties": {"objectid": 41, "globalid": "9d928e84-2884-46e2-a367-b4035c1678f2", "CreationDate": 1626374405423, "Creator": "wsims6_GTFacilities", "EditDate": 1691786980545, "Editor": "dsimsGT", "phone_name": "IC Lawn sidewalk ", "phone_number": null, "box_condition": "2", "comments": "Camera on top. ", "gt_phone_name": null, "camera": "Yes", "location_code": "Outside", "floor_location": null, "keypad": null, "label_applied": null, "blue_light_condition": "light_yes", "blue_light_flashes": null, "phone_status": "Active", "screwsmissing": null}}, {"type": "Feature", "id": 42, "geometry": {"type": "Point", "coordinates": [-84.4046541855, 33.7773002666667]}, "properties": {"objectid": 42, "globalid": "b0703b4e-a70a-4a24-80f9-86a409920891", "CreationDate": 1626374406410, "Creator": "wsims6_GTFacilities", "EditDate": 1691786980545, "Editor": "dsimsGT", "phone_name": "Zbar South", "phone_number": null, "box_condition": "2", "comments": null, "gt_phone_name": null, "camera": "No", "location_code": "Outside", "floor_location": null, "keypad": null, "label_applied": null, "blue_light_condition": "light_yes", "blue_light_flashes": null, "phone_status": "Active", "screwsmissing": null}}, {"type": "Feature", "id": 43, "geometry": {"type": "Point", "coordinates": [-84.4047131808333, 33.7772481988333]}, "properties": {"objectid": 43, "globalid": "5bfd1c1b-51f8-4a0d-9800-ff5845560683", "CreationDate": 1626374408235, "Creator": "wsims6_GTFacilities", "EditDate": 1691786980560, "Editor": "dsimsGT", "phone_name": "CRC Field", "phone_number": null, "box_condition": "2", "comments": "Inside fenced area. ", "gt_phone_name": null, "camera": "No", "location_code": "Outside", "floor_location": null, "keypad": null, "label_applied": null, "blue_light_condition": "light_yes", "blue_light_flashes": null, "phone_status": "Active", "screwsmissing": null}}, {"type": "Feature", "id": 44, "geometry": {"type": "Point", "coordinates": [-84.4052087763333, 33.7777203958333]}, "properties": {"objectid": 44, "globalid": "f9d55f21-6295-42f4-9187-3ffdc0b69426", "CreationDate": 1626374409742, "Creator": "wsims6_GTFacilities", "EditDate": 1691786980560, "Editor": "dsimsGT", "phone_name": "Zbar and ULC courtyard", "phone_number": null, "box_condition": "3", "comments": "Camera on top. ", "gt_phone_name": null, "camera": "Yes", "location_code": "Outside", "floor_location": null, "keypad": null, "label_applied": null, "blue_light_condition": "light_yes", "blue_light_flashes": null, "phone_status": "Active", "screwsmissing": null}}, {"type": "Feature", "id": 45, "geometry": {"type": "Point", "coordinates": [-84.4040007733333, 33.7776941458333]}, "properties": {"objectid": 45, "globalid": "d12e6495-f076-4bd9-b92d-f1eb27101cdd", "CreationDate": 1626374410630, "Creator": "wsims6_GTFacilities", "EditDate": 1691786980560, "Editor": "dsimsGT", "phone_name": "Freeman and Montag", "phone_number": null, "box_condition": "2", "comments": null, "gt_phone_name": null, "camera": "No", "location_code": "Outside", "floor_location": null, "keypad": null, "label_applied": null, "blue_light_condition": "light_yes", "blue_light_flashes": null, "phone_status": "Active", "screwsmissing": null}}, {"type": "Feature", "id": 46, "geometry": {"type": "Point", "coordinates": [-84.4039623066667, 33.778250954]}, "properties": {"objectid": 46, "globalid": "bc8f1819-848d-4809-8fb4-3c4c18cd991d", "CreationDate": 1626374411245, "Creator": "wsims6_GTFacilities", "EditDate": 1691786980560, "Editor": "dsimsGT", "phone_name": "Fitten parking area", "phone_number": "5-8013", "box_condition": "3", "comments": null, "gt_phone_name": null, "camera": "No", "location_code": "Outside", "floor_location": null, "keypad": "keypad_yes", "label_applied": "label_yes", "blue_light_condition": "light_yes", "blue_light_flashes": null, "phone_status": "Active", "screwsmissing": null}}, {"type": "Feature", "id": 47, "geometry": {"type": "Point", "coordinates": [-84.4040098373118, 33.7787596725412]}, "properties": {"objectid": 47, "globalid": "3e478261-80a2-44b2-943b-0bea9dfe3cf1", "CreationDate": 1626374412189, "Creator": "wsims6_GTFacilities", "EditDate": 1691786980576, "Editor": "dsimsGT", "phone_name": "commander Commons lobby ", "phone_number": "18360", "box_condition": "2", "comments": "Label is yellow and faded. ", "gt_phone_name": null, "camera": "No", "location_code": "Outside", "floor_location": null, "keypad": "keypad_yes", "label_applied": "label_yes", "blue_light_condition": "light_yes", "blue_light_flashes": null, "phone_status": "Active", "screwsmissing": null}}, {"type": "Feature", "id": 48, "geometry": {"type": "Point", "coordinates": [-84.4062210451667, 33.7796889876667]}, "properties": {"objectid": 48, "globalid": "60c6a18a-3188-4bec-a2a5-2959c98586f4", "CreationDate": 1626374412975, "Creator": "wsims6_GTFacilities", "EditDate": 1691786980576, "Editor": "dsimsGT", "phone_name": "woodruff hall parking", "phone_number": null, "box_condition": "2", "comments": null, "gt_phone_name": null, "camera": "No", "location_code": "Outside", "floor_location": null, "keypad": "keypad_no", "label_applied": "label_no", "blue_light_condition": "light_yes", "blue_light_flashes": null, "phone_status": "Active", "screwsmissing": null}}, {"type": "Feature", "id": 49, "geometry": {"type": "Point", "coordinates": [-84.399414854, 33.7783702428333]}, "properties": {"objectid": 49, "globalid": "352580e5-f45a-4206-b0ef-3e97b12c7e64", "CreationDate": 1626374413808, "Creator": "wsims6_GTFacilities", "EditDate": 1691786980576, "Editor": "dsimsGT", "phone_name": "Kendeda State and Ferst", "phone_number": null, "box_condition": "3", "comments": null, "gt_phone_name": null, "camera": "No", "location_code": "Outside", "floor_location": null, "keypad": null, "label_applied": null, "blue_light_condition": "light_yes", "blue_light_flashes": null, "phone_status": "Active", "screwsmissing": null}}, {"type": "Feature", "id": 50, "geometry": {"type": "Point", "coordinates": [-84.3977757393333, 33.7781561395]}, "properties": {"objectid": 50, "globalid": "6aa5c761-d965-42e7-bef4-60418b939943", "CreationDate": 1626374414815, "Creator": "wsims6_GTFacilities", "EditDate": 1691786980576, "Editor": "dsimsGT", "phone_name": "Atlantic and Ferst", "phone_number": null, "box_condition": "3", "comments": null, "gt_phone_name": null, "camera": "Yes", "location_code": "Outside", "floor_location": null, "keypad": null, "label_applied": null, "blue_light_condition": "light_yes", "blue_light_flashes": null, "phone_status": "Active", "screwsmissing": null}}, {"type": "Feature", "id": 51, "geometry": {"type": "Point", "coordinates": [-84.3978434951667, 33.7771339718333]}, "properties": {"objectid": 51, "globalid": "bcb2db54-9828-4e93-ae3b-b7f33e902e4f", "CreationDate": 1626374415619, "Creator": "wsims6_GTFacilities", "EditDate": 1691786980592, "Editor": "dsimsGT", "phone_name": "Howey Physics Atlantic and Fifth ", "phone_number": null, "box_condition": "3", "comments": null, "gt_phone_name": null, "camera": "Yes", "location_code": "Outside", "floor_location": null, "keypad": "keypad_no", "label_applied": "label_no", "blue_light_condition": "light_yes", "blue_light_flashes": null, "phone_status": "Active", "screwsmissing": null}}, {"type": "Feature", "id": 52, "geometry": {"type": "Point", "coordinates": [-84.3991055983333, 33.7770820285]}, "properties": {"objectid": 52, "globalid": "111ee1e9-92ec-46a1-9a0d-b983a7ec21ef", "CreationDate": 1626374416410, "Creator": "wsims6_GTFacilities", "EditDate": 1692212438161, "Editor": "dsimsGT", "phone_name": "Howey Physics State Street", "phone_number": null, "box_condition": "3", "comments": null, "gt_phone_name": null, "camera": "Yes", "location_code": "Outside", "floor_location": null, "keypad": "keypad_no", "label_applied": "label_no", "blue_light_condition": "light_yes", "blue_light_flashes": null, "phone_status": "Active", "screwsmissing": null}}, {"type": "Feature", "id": 53, "geometry": {"type": "Point", "coordinates": [-84.3993961745, 33.7766587493333]}, "properties": {"objectid": 53, "globalid": "8a8dd447-5992-4ff9-9979-4a1cc1ef6348", "CreationDate": 1626374417196, "Creator": "wsims6_GTFacilities", "EditDate": 1691786980592, "Editor": "dsimsGT", "phone_name": "Mason parking lot ", "phone_number": null, "box_condition": "2", "comments": null, "gt_phone_name": null, "camera": "No", "location_code": "Outside", "floor_location": null, "keypad": null, "label_applied": null, "blue_light_condition": "light_yes", "blue_light_flashes": null, "phone_status": "Active", "screwsmissing": null}}, {"type": "Feature", "id": 54, "geometry": {"type": "Point", "coordinates": [-84.3955428485, 33.7771086651667]}, "properties": {"objectid": 54, "globalid": "e15f8bde-101e-4ded-9405-f33eb77331bb", "CreationDate": 1626374418328, "Creator": "wsims6_GTFacilities", "EditDate": 1691786980592, "Editor": "dsimsGT", "phone_name": "Klaus bus stop", "phone_number": null, "box_condition": "2", "comments": null, "gt_phone_name": null, "camera": "Yes", "location_code": "Outside", "floor_location": null, "keypad": null, "label_applied": null, "blue_light_condition": "light_yes", "blue_light_flashes": null, "phone_status": "Active", "screwsmissing": null}}, {"type": "Feature", "id": 56, "geometry": {"type": "Point", "coordinates": [-84.3965086598333, 33.7762733351667]}, "properties": {"objectid": 56, "globalid": "cc1d325e-e01e-471b-83df-a639a9ed007e", "CreationDate": 1626374421059, "Creator": "wsims6_GTFacilities", "EditDate": 1691786980607, "Editor": "dsimsGT", "phone_name": "Architecture west and Plum street", "phone_number": null, "box_condition": "2", "comments": null, "gt_phone_name": null, "camera": "No", "location_code": "Outside", "floor_location": null, "keypad": null, "label_applied": null, "blue_light_condition": "light_yes", "blue_light_flashes": null, "phone_status": "Active", "screwsmissing": null}}, {"type": "Feature", "id": 58, "geometry": {"type": "Point", "coordinates": [-84.3953661123333, 33.7802048548333]}, "properties": {"objectid": 58, "globalid": "a20b1d00-2378-40e8-8a82-78c7f0a48d60", "CreationDate": 1626374422516, "Creator": "wsims6_GTFacilities", "EditDate": 1691786980607, "Editor": "dsimsGT", "phone_name": "Track and Cherry Street ", "phone_number": null, "box_condition": "2", "comments": null, "gt_phone_name": null, "camera": "No", "location_code": "Outside", "floor_location": null, "keypad": null, "label_applied": null, "blue_light_condition": "light_no", "blue_light_flashes": null, "phone_status": "Active", "screwsmissing": null}}, {"type": "Feature", "id": 59, "geometry": {"type": "Point", "coordinates": [-84.3920450445, 33.7796415631667]}, "properties": {"objectid": 59, "globalid": "67b581eb-852d-4131-8a5d-84225aa80530", "CreationDate": 1626374423211, "Creator": "wsims6_GTFacilities", "EditDate": 1691786980607, "Editor": "dsimsGT", "phone_name": "Coliseum parking lot and 8th street", "phone_number": null, "box_condition": "2", "comments": null, "gt_phone_name": null, "camera": "No", "location_code": "Outside", "floor_location": null, "keypad": null, "label_applied": null, "blue_light_condition": "light_yes", "blue_light_flashes": null, "phone_status": "Active", "screwsmissing": null}}, {"type": "Feature", "id": 60, "geometry": {"type": "Point", "coordinates": [-84.3919989333334, 33.781196434]}, "properties": {"objectid": 60, "globalid": "40ce40ed-84f1-4ed8-9539-96cbc3c59900", "CreationDate": 1626374425296, "Creator": "wsims6_GTFacilities", "EditDate": 1691786980623, "Editor": "dsimsGT", "phone_name": "Coliseum parking lot and 10th street", "phone_number": null, "box_condition": "2", "comments": null, "gt_phone_name": null, "camera": "No", "location_code": "Outside", "floor_location": null, "keypad": null, "label_applied": null, "blue_light_condition": "light_no", "blue_light_flashes": null, "phone_status": "Active", "screwsmissing": null}}, {"type": "Feature", "id": 61, "geometry": {"type": "Point", "coordinates": [-84.4003965746232, 33.7746159894954]}, "properties": {"objectid": 61, "globalid": "9eeafc9c-8200-4bb1-8473-8ff546046cf5", "CreationDate": 1648484938443, "Creator": "dsimsGT", "EditDate": 1691786980623, "Editor": "dsimsGT", "phone_name": "Student we center deck at pavilion ", "phone_number": null, "box_condition": "3", "comments": "New call box installed with campus center project. ", "gt_phone_name": null, "camera": "Yes", "location_code": "Outside", "floor_location": null, "keypad": "keypad_no", "label_applied": "label_no", "blue_light_condition": "light_yes", "blue_light_flashes": null, "phone_status": "Active", "screwsmissing": null}}, {"type": "Feature", "id": 72, "geometry": {"type": "Point", "coordinates": [-84.4026686284777, 33.7770855100172]}, "properties": {"objectid": 72, "globalid": "adeda805-2660-4cbf-801b-a463cc520ebe", "CreationDate": 1648487234348, "Creator": "dsimsGT", "EditDate": 1691786980654, "Editor": "dsimsGT", "phone_name": "CRC field at ferst dr", "phone_number": null, "box_condition": "3", "comments": null, "gt_phone_name": null, "camera": "No", "location_code": "Outside", "floor_location": null, "keypad": "keypad_yes", "label_applied": "label_no", "blue_light_condition": "light_yes", "blue_light_flashes": null, "phone_status": "Active", "screwsmissing": null}}, {"type": "Feature", "id": 74, "geometry": {"type": "Point", "coordinates": [-84.4050910823749, 33.7756784589679]}, "properties": {"objectid": 74, "globalid": "7ab90274-52ec-4528-aa44-f0e4fea7bfcc", "CreationDate": 1648487238382, "Creator": "dsimsGT", "EditDate": 1784124206950, "Editor": "dsimsGT", "phone_name": "Tech parkway at CRC ", "phone_number": null, "box_condition": "3", "comments": null, "gt_phone_name": null, "camera": "Yes", "location_code": "Outside", "floor_location": null, "keypad": "keypad_no", "label_applied": "label_no", "blue_light_condition": "light_yes", "blue_light_flashes": null, "phone_status": "Active", "screwsmissing": null}}, {"type": "Feature", "id": 76, "geometry": {"type": "Point", "coordinates": [-84.4037592507981, 33.7776171179075]}, "properties": {"objectid": 76, "globalid": "77913992-6170-48eb-9b8d-6809180e358c", "CreationDate": 1648487652580, "Creator": "dsimsGT", "EditDate": 1691786980670, "Editor": "dsimsGT", "phone_name": "Freeman montag rear", "phone_number": null, "box_condition": "3", "comments": null, "gt_phone_name": null, "camera": "No", "location_code": "Outside", "floor_location": null, "keypad": "keypad_no", "label_applied": "label_no", "blue_light_condition": "light_yes", "blue_light_flashes": null, "phone_status": "Active", "screwsmissing": null}}, {"type": "Feature", "id": 77, "geometry": {"type": "Point", "coordinates": [-84.403682108595, 33.7781098366587]}, "properties": {"objectid": 77, "globalid": "c847646a-2216-4e4a-a2ab-a942fc8b4ea2", "CreationDate": 1648487653576, "Creator": "dsimsGT", "EditDate": 1691786980685, "Editor": "dsimsGT", "phone_name": "Fitten hall rear entrance ", "phone_number": "5-8014", "box_condition": "3", "comments": "Camera adjacent to phone but not on pedestal. ", "gt_phone_name": null, "camera": "No", "location_code": "Outside", "floor_location": null, "keypad": "keypad_yes", "label_applied": "label_yes", "blue_light_condition": "light_yes", "blue_light_flashes": null, "phone_status": "Active", "screwsmissing": null}}, {"type": "Feature", "id": 81, "geometry": {"type": "Point", "coordinates": [-84.3937219255875, 33.7801830300341]}, "properties": {"objectid": 81, "globalid": "06aec616-62b0-454b-b7e1-2eafc26577a2", "CreationDate": 1648489573737, "Creator": "dsimsGT", "EditDate": 1691786980685, "Editor": "dsimsGT", "phone_name": "Tennis and track entrance", "phone_number": null, "box_condition": "2", "comments": "Labels are peeling and in poor condition. ", "gt_phone_name": null, "camera": "No", "location_code": "Outside", "floor_location": null, "keypad": "keypad_no", "label_applied": "label_no", "blue_light_condition": "light_yes", "blue_light_flashes": null, "phone_status": "Active", "screwsmissing": null}}, {"type": "Feature", "id": 82, "geometry": {"type": "Point", "coordinates": [-84.3932020490867, 33.7783954086478]}, "properties": {"objectid": 82, "globalid": "82ea3e27-25c2-4dd6-9c74-2b46c1440da0", "CreationDate": 1648492359089, "Creator": "dsimsGT", "EditDate": 1691786980701, "Editor": "dsimsGT", "phone_name": "Softball field parking lot ", "phone_number": null, "box_condition": "1", "comments": "Wiring coiled up on ground behind pedestal. ", "gt_phone_name": null, "camera": "No", "location_code": "Outside", "floor_location": null, "keypad": "keypad_no", "label_applied": "label_no", "blue_light_condition": "light_yes", "blue_light_flashes": null, "phone_status": "Active", "screwsmissing": null}}, {"type": "Feature", "id": 85, "geometry": {"type": "Point", "coordinates": [-84.4047590477491, 33.7795929004925]}, "properties": {"objectid": 85, "globalid": "8e4c0ff0-c08e-4d92-abfa-85d717d361d3", "CreationDate": 1650043106710, "Creator": "dsimsGT", "EditDate": 1691786980701, "Editor": "dsimsGT", "phone_name": "West village north", "phone_number": null, "box_condition": "3", "comments": null, "gt_phone_name": null, "camera": "Yes", "location_code": "Outside", "floor_location": null, "keypad": "keypad_no", "label_applied": "label_no", "blue_light_condition": "light_yes", "blue_light_flashes": null, "phone_status": "Active", "screwsmissing": null}}, {"type": "Feature", "id": 86, "geometry": {"type": "Point", "coordinates": [-84.4042882363674, 33.7790485305178]}, "properties": {"objectid": 86, "globalid": "a297be26-f696-4c93-adce-d1fa0a0a6aa3", "CreationDate": 1650043111523, "Creator": "dsimsGT", "EditDate": 1691786980716, "Editor": "dsimsGT", "phone_name": "Caldwell and west village ", "phone_number": null, "box_condition": "3", "comments": "2 cameras installed on this phone. ", "gt_phone_name": null, "camera": "Yes", "location_code": "Outside", "floor_location": null, "keypad": "keypad_no", "label_applied": "label_no", "blue_light_condition": "light_yes", "blue_light_flashes": null, "phone_status": "Active", "screwsmissing": null}}, {"type": "Feature", "id": 87, "geometry": {"type": "Point", "coordinates": [-84.4037716156997, 33.7792686308019]}, "properties": {"objectid": 87, "globalid": "e094b39e-5afc-433f-afdc-d13c4cac6eb4", "CreationDate": 1650043114319, "Creator": "dsimsGT", "EditDate": 1691786980716, "Editor": "dsimsGT", "phone_name": "Hefner Armstrong lot", "phone_number": null, "box_condition": null, "comments": null, "gt_phone_name": null, "camera": "No", "location_code": "Outside", "floor_location": null, "keypad": "keypad_no", "label_applied": null, "blue_light_condition": "light_yes", "blue_light_flashes": null, "phone_status": "Active", "screwsmissing": null}}, {"type": "Feature", "id": 90, "geometry": {"type": "Point", "coordinates": [-84.3905203086667, 33.776955315]}, "properties": {"objectid": 90, "globalid": "d8bd30b0-7ed3-48b3-a65d-8e4bd2d29eac", "CreationDate": 1650398042816, "Creator": "dsimsGT", "EditDate": 1691786980732, "Editor": "dsimsGT", "phone_name": "Fifth street bridge north ", "phone_number": null, "box_condition": "3", "comments": "Two cameras installed. ", "gt_phone_name": null, "camera": "Yes", "location_code": "Outside", "floor_location": null, "keypad": "keypad_no", "label_applied": "label_no", "blue_light_condition": "light_yes", "blue_light_flashes": null, "phone_status": "Active", "screwsmissing": null}}, {"type": "Feature", "id": 91, "geometry": {"type": "Point", "coordinates": [-84.3913149581667, 33.7767816571667]}, "properties": {"objectid": 91, "globalid": "43ddb611-e552-4ba7-92fd-d6965164d74a", "CreationDate": 1650398045612, "Creator": "dsimsGT", "EditDate": 1691786980732, "Editor": "dsimsGT", "phone_name": "Fifth street bridge south ", "phone_number": null, "box_condition": null, "comments": "Lots of stickers applied to stanchion. ", "gt_phone_name": null, "camera": "No", "location_code": "Outside", "floor_location": null, "keypad": "keypad_no", "label_applied": "label_no", "blue_light_condition": "light_yes", "blue_light_flashes": null, "phone_status": "Active", "screwsmissing": null}}, {"type": "Feature", "id": 92, "geometry": {"type": "Point", "coordinates": [-84.3919328848478, 33.768810841062]}, "properties": {"objectid": 92, "globalid": "0590802f-5903-434b-bc13-997778f2441b", "CreationDate": 1650550532704, "Creator": "dsimsGT", "EditDate": 1691786980732, "Editor": "dsimsGT", "phone_name": "NAA south entrance", "phone_number": null, "box_condition": null, "comments": null, "gt_phone_name": null, "camera": "Yes", "location_code": "Outside", "floor_location": null, "keypad": "keypad_no", "label_applied": "label_no", "blue_light_condition": "light_yes", "blue_light_flashes": null, "phone_status": "Active", "screwsmissing": null}}, {"type": "Feature", "id": 93, "geometry": {"type": "Point", "coordinates": [-84.3920964398024, 33.7701362670189]}, "properties": {"objectid": 93, "globalid": "5aa815a2-f596-4d31-bdf3-c333c5d0f985", "CreationDate": 1650550535804, "Creator": "dsimsGT", "EditDate": 1691786980732, "Editor": "dsimsGT", "phone_name": "NAA turn around at sidewalk", "phone_number": null, "box_condition": null, "comments": null, "gt_phone_name": null, "camera": "Yes", "location_code": "Outside", "floor_location": null, "keypad": "keypad_yes", "label_applied": "label_yes", "blue_light_condition": "light_yes", "blue_light_flashes": null, "phone_status": "Active", "screwsmissing": null}}, {"type": "Feature", "id": 96, "geometry": {"type": "Point", "coordinates": [-84.3919856359204, 33.7706783862532]}, "properties": {"objectid": 96, "globalid": "6ffee101-8d1f-46a2-958b-886a284d54b0", "CreationDate": 1650550541112, "Creator": "dsimsGT", "EditDate": 1691786980748, "Editor": "dsimsGT", "phone_name": "NAA north parking deck", "phone_number": "5-78?0 ??", "box_condition": null, "comments": null, "gt_phone_name": null, "camera": "Yes", "location_code": "Outside", "floor_location": null, "keypad": "keypad_yes", "label_applied": "label_yes", "blue_light_condition": "light_yes", "blue_light_flashes": null, "phone_status": "Active", "screwsmissing": null}}, {"type": "Feature", "id": 97, "geometry": {"type": "Point", "coordinates": [-84.3919550821928, 33.7710709185359]}, "properties": {"objectid": 97, "globalid": "3178d3f6-0113-40bc-b688-a62c3d26e5b4", "CreationDate": 1650550543759, "Creator": "dsimsGT", "EditDate": 1691786980763, "Editor": "dsimsGT", "phone_name": "NAA at north and techwood", "phone_number": null, "box_condition": "2", "comments": "Faceplate held on with tape. ", "gt_phone_name": null, "camera": "No", "location_code": "Outside", "floor_location": null, "keypad": "keypad_no", "label_applied": "label_no", "blue_light_condition": "light_yes", "blue_light_flashes": null, "phone_status": "Active", "screwsmissing": null}}, {"type": "Feature", "id": 98, "geometry": {"type": "Point", "coordinates": [-84.3961645260034, 33.773203446469]}, "properties": {"objectid": 98, "globalid": "15abd7f2-82ad-4d6a-a861-cb5da684fcf9", "CreationDate": 1652392654745, "Creator": "dsimsGT", "EditDate": 1691786980763, "Editor": "dsimsGT", "phone_name": "Skiles walkway", "phone_number": null, "box_condition": null, "comments": null, "gt_phone_name": null, "camera": "No", "location_code": "Outside", "floor_location": null, "keypad": "keypad_yes", "label_applied": "label_no", "blue_light_condition": "light_yes", "blue_light_flashes": null, "phone_status": "Active", "screwsmissing": null}}, {"type": "Feature", "id": 99, "geometry": {"type": "Point", "coordinates": [-84.3970384198579, 33.7823906816731]}, "properties": {"objectid": 99, "globalid": "21aa3a02-8dca-436a-bfe2-9ad819239b0d", "CreationDate": 1654010085134, "Creator": "dsimsGT", "EditDate": 1691786980763, "Editor": "dsimsGT", "phone_name": "Home park at building G", "phone_number": null, "box_condition": null, "comments": null, "gt_phone_name": null, "camera": "Yes", "location_code": "Outside", "floor_location": null, "keypad": "keypad_no", "label_applied": "label_no", "blue_light_condition": "light_yes", "blue_light_flashes": null, "phone_status": "Active", "screwsmissing": null}}, {"type": "Feature", "id": 100, "geometry": {"type": "Point", "coordinates": [-84.3962293186667, 33.782408203]}, "properties": {"objectid": 100, "globalid": "95aad271-733b-4de4-9052-b77320449db3", "CreationDate": 1654010086518, "Creator": "dsimsGT", "EditDate": 1691786980763, "Editor": "dsimsGT", "phone_name": "Building E at round about", "phone_number": null, "box_condition": null, "comments": null, "gt_phone_name": null, "camera": "No", "location_code": "Outside", "floor_location": null, "keypad": "keypad_yes", "label_applied": "label_no", "blue_light_condition": "light_yes", "blue_light_flashes": null, "phone_status": "Active", "screwsmissing": null}}, {"type": "Feature", "id": 104, "geometry": {"type": "Point", "coordinates": [-84.3879840975622, 33.7769518349334]}, "properties": {"objectid": 104, "globalid": "9a4ab555-2850-4924-b982-8c7457ee0824", "CreationDate": 1654631799460, "Creator": "dsimsGT", "EditDate": 1691786980779, "Editor": "dsimsGT", "phone_name": "Tech square 3 parking lot", "phone_number": null, "box_condition": null, "comments": null, "gt_phone_name": null, "camera": "No", "location_code": "Outside", "floor_location": null, "keypad": "keypad_no", "label_applied": "label_no", "blue_light_condition": "light_yes", "blue_light_flashes": null, "phone_status": "Active", "screwsmissing": null}}, {"type": "Feature", "id": 106, "geometry": {"type": "Point", "coordinates": [-84.3968829775, 33.7752828828333]}, "properties": {"objectid": 106, "globalid": "04be0217-9b2f-4fce-ad7f-0ef7ffaa2d91", "CreationDate": 1664389342009, "Creator": "dsimsGT", "EditDate": 1691786980795, "Editor": "dsimsGT", "phone_name": "CULC Walkway", "phone_number": null, "box_condition": null, "comments": null, "gt_phone_name": null, "camera": "Yes", "location_code": "Outside", "floor_location": null, "keypad": "keypad_no", "label_applied": "label_no", "blue_light_condition": "light_yes", "blue_light_flashes": null, "phone_status": "Active", "screwsmissing": null}}, {"type": "Feature", "id": 107, "geometry": {"type": "Point", "coordinates": [-84.393564011, 33.7780673833333]}, "properties": {"objectid": 107, "globalid": "2b177ff1-b6c5-45c4-960c-ff49f461ebbe", "CreationDate": 1664389997860, "Creator": "dsimsGT", "EditDate": 1693505825932, "Editor": "dsimsGT", "phone_name": "Fowler and sixth", "phone_number": null, "box_condition": null, "comments": "Under Construction", "gt_phone_name": null, "camera": "Yes", "location_code": "Outside", "floor_location": null, "keypad": null, "label_applied": "label_no", "blue_light_condition": "light_yes", "blue_light_flashes": null, "phone_status": "Active", "screwsmissing": null}}, {"type": "Feature", "id": 108, "geometry": {"type": "Point", "coordinates": [-84.3863942854223, 33.7784752894256]}, "properties": {"objectid": 108, "globalid": "e7d7bc3e-d3d9-493b-b99d-1bc2429433ae", "CreationDate": 1669128629678, "Creator": "wsims6_GTFacilities", "EditDate": 1691786980795, "Editor": "dsimsGT", "phone_name": "Academy of medicine ", "phone_number": null, "box_condition": null, "comments": null, "gt_phone_name": null, "camera": "Yes", "location_code": "Outside", "floor_location": null, "keypad": "keypad_yes", "label_applied": "label_no", "blue_light_condition": "light_yes", "blue_light_flashes": null, "phone_status": "Active", "screwsmissing": null}}, {"type": "Feature", "id": 110, "geometry": {"type": "Point", "coordinates": [-84.390864693, 33.774433196]}, "properties": {"objectid": 110, "globalid": "2a8a447e-6585-4f4c-8c34-c16ce56674e6", "CreationDate": 1674065213447, "Creator": "wsims6_GTFacilities", "EditDate": 1691786980810, "Editor": "dsimsGT", "phone_name": "Field matheson", "phone_number": null, "box_condition": null, "comments": null, "gt_phone_name": null, "camera": "Yes", "location_code": "Outside", "floor_location": null, "keypad": "keypad_no", "label_applied": "label_no", "blue_light_condition": "light_yes", "blue_light_flashes": null, "phone_status": "Active", "screwsmissing": null}}, {"type": "Feature", "id": 111, "geometry": {"type": "Point", "coordinates": [-84.4036142394316, 33.7810953162015]}, "properties": {"objectid": 111, "globalid": "a85d4de6-6501-41f9-ab54-3fa72b7ac9c7", "CreationDate": 1675787374741, "Creator": "wsims6_GTFacilities", "EditDate": 1691786980810, "Editor": "dsimsGT", "phone_name": "GTPD south entrance ", "phone_number": null, "box_condition": "3", "comments": null, "gt_phone_name": null, "camera": "Yes", "location_code": "Outside", "floor_location": null, "keypad": "keypad_yes", "label_applied": "label_no", "blue_light_condition": "light_yes", "blue_light_flashes": null, "phone_status": "Active", "screwsmissing": null}}, {"type": "Feature", "id": 112, "geometry": {"type": "Point", "coordinates": [-84.4037332884568, 33.7813347832192]}, "properties": {"objectid": 112, "globalid": "7ea2e509-4698-45fa-8a79-5fccd7e220ad", "CreationDate": 1675787379813, "Creator": "wsims6_GTFacilities", "EditDate": 1691786980810, "Editor": "dsimsGT", "phone_name": "GTPD north entrance ", "phone_number": null, "box_condition": null, "comments": null, "gt_phone_name": null, "camera": "No", "location_code": "Outside", "floor_location": null, "keypad": "keypad_yes", "label_applied": "label_no", "blue_light_condition": "light_yes", "blue_light_flashes": null, "phone_status": "Active", "screwsmissing": null}}, {"type": "Feature", "id": 113, "geometry": {"type": "Point", "coordinates": [-84.3990485926226, 33.781424153741]}, "properties": {"objectid": 113, "globalid": "5fdcf720-9519-4341-a534-4ecbd2709c7f", "CreationDate": 1675787385276, "Creator": "wsims6_GTFacilities", "EditDate": 1691786980810, "Editor": "dsimsGT", "phone_name": "State and tenth street ", "phone_number": null, "box_condition": null, "comments": null, "gt_phone_name": null, "camera": "No", "location_code": "Outside", "floor_location": null, "keypad": "keypad_no", "label_applied": "label_no", "blue_light_condition": "light_yes", "blue_light_flashes": null, "phone_status": "Active", "screwsmissing": null}}, {"type": "Feature", "id": 114, "geometry": {"type": "Point", "coordinates": [-84.3977339115013, 33.7736075965782]}, "properties": {"objectid": 114, "globalid": "275dbb30-ee03-4752-a35d-505a233c15f8", "CreationDate": 1675795803634, "Creator": "wsims6_GTFacilities", "EditDate": 1691786980810, "Editor": "dsimsGT", "phone_name": "Student center commons", "phone_number": null, "box_condition": null, "comments": null, "gt_phone_name": null, "camera": "Yes", "location_code": "Outside", "floor_location": null, "keypad": "keypad_no", "label_applied": "label_no", "blue_light_condition": "light_yes", "blue_light_flashes": null, "phone_status": "Active", "screwsmissing": null}}, {"type": "Feature", "id": 115, "geometry": {"type": "Point", "coordinates": [-84.395222602318, 33.7817004375394]}, "properties": {"objectid": 115, "globalid": "e59a9576-c393-44f3-bb32-f1d033aaae95", "CreationDate": 1676391281676, "Creator": "wsims6_GTFacilities", "EditDate": 1691786980826, "Editor": "dsimsGT", "phone_name": "Tenth and home A", "phone_number": null, "box_condition": null, "comments": null, "gt_phone_name": null, "camera": "No", "location_code": "Outside", "floor_location": null, "keypad": "keypad_no", "label_applied": "label_no", "blue_light_condition": "light_yes", "blue_light_flashes": null, "phone_status": "Active", "screwsmissing": null}}, {"type": "Feature", "id": 116, "geometry": {"type": "Point", "coordinates": [-84.3961845017567, 33.7816077411939]}, "properties": {"objectid": 116, "globalid": "d141084b-3115-4277-8903-b21f02bdeebf", "CreationDate": 1676391284111, "Creator": "wsims6_GTFacilities", "EditDate": 1691786980826, "Editor": "dsimsGT", "phone_name": "GLC at Holly Street ", "phone_number": null, "box_condition": null, "comments": null, "gt_phone_name": null, "camera": "No", "location_code": "Outside", "floor_location": null, "keypad": "keypad_no", "label_applied": "label_no", "blue_light_condition": "light_yes", "blue_light_flashes": null, "phone_status": "Active", "screwsmissing": null}}, {"type": "Feature", "id": 117, "geometry": {"type": "Point", "coordinates": [-84.3971939478625, 33.7814256130832]}, "properties": {"objectid": 117, "globalid": "1eee5357-5cef-4775-a2b1-f8f9b8c0d3dc", "CreationDate": 1676391285968, "Creator": "wsims6_GTFacilities", "EditDate": 1691786980826, "Editor": "dsimsGT", "phone_name": "Fleet services entrance ", "phone_number": null, "box_condition": null, "comments": null, "gt_phone_name": null, "camera": "No", "location_code": "Outside", "floor_location": null, "keypad": "keypad_no", "label_applied": "label_no", "blue_light_condition": "light_yes", "blue_light_flashes": null, "phone_status": "Active", "screwsmissing": null}}, {"type": "Feature", "id": 118, "geometry": {"type": "Point", "coordinates": [-84.3967398362766, 33.7796648979156]}, "properties": {"objectid": 118, "globalid": "fbafa606-82ab-4bfa-8c7b-d5ba88bcfddb", "CreationDate": 1676391684186, "Creator": "wsims6_GTFacilities", "EditDate": 1691786980826, "Editor": "dsimsGT", "phone_name": "MSE and BioQuad", "phone_number": null, "box_condition": null, "comments": null, "gt_phone_name": null, "camera": "Yes", "location_code": "Outside", "floor_location": null, "keypad": "keypad_no", "label_applied": "label_no", "blue_light_condition": "light_yes", "blue_light_flashes": null, "phone_status": "Active", "screwsmissing": null}}, {"type": "Feature", "id": 119, "geometry": {"type": "Point", "coordinates": [-84.3965444625739, 33.7788735204507]}, "properties": {"objectid": 119, "globalid": "993b0d4f-621d-4ec0-af91-cb59028af044", "CreationDate": 1676391794734, "Creator": "wsims6_GTFacilities", "EditDate": 1691786980826, "Editor": "dsimsGT", "phone_name": "Upper BioQuad", "phone_number": null, "box_condition": null, "comments": "Install not completed at time of survey. ", "gt_phone_name": null, "camera": "Yes", "location_code": "Outside", "floor_location": null, "keypad": "keypad_no", "label_applied": "label_no", "blue_light_condition": "light_no", "blue_light_flashes": null, "phone_status": "Active", "screwsmissing": null}}, {"type": "Feature", "id": 120, "geometry": {"type": "Point", "coordinates": [-84.4029349334042, 33.7737051797027]}, "properties": {"objectid": 120, "globalid": "6ba882cb-a340-4c2c-aa0d-43e8b8533769", "CreationDate": 1676403375465, "Creator": "dsimsGT", "EditDate": 1691786980841, "Editor": "dsimsGT", "phone_name": "Tech Parkway at means st", "phone_number": null, "box_condition": null, "comments": null, "gt_phone_name": null, "camera": "No", "location_code": "Outside", "floor_location": null, "keypad": "keypad_no", "label_applied": "label_no", "blue_light_condition": "light_yes", "blue_light_flashes": null, "phone_status": "Active", "screwsmissing": null}}, {"type": "Feature", "id": 121, "geometry": {"type": "Point", "coordinates": [-84.4040404243512, 33.7745365532903]}, "properties": {"objectid": 121, "globalid": "3fdcadaa-4c35-4a02-9089-f9938b428be9", "CreationDate": 1676403431235, "Creator": "dsimsGT", "EditDate": 1691786980841, "Editor": "dsimsGT", "phone_name": "Tech Parkway", "phone_number": null, "box_condition": null, "comments": null, "gt_phone_name": null, "camera": "Yes", "location_code": "Outside", "floor_location": null, "keypad": "keypad_no", "label_applied": "label_no", "blue_light_condition": "light_yes", "blue_light_flashes": null, "phone_status": "Active", "screwsmissing": null}}, {"type": "Feature", "id": 122, "geometry": {"type": "Point", "coordinates": [-84.407282474452, 33.7775661572661]}, "properties": {"objectid": 122, "globalid": "19abd265-eda0-4a89-bee8-6fd4bb5e3c4c", "CreationDate": 1676403434124, "Creator": "dsimsGT", "EditDate": 1691786980841, "Editor": "dsimsGT", "phone_name": "Northside and Hampton St ", "phone_number": null, "box_condition": null, "comments": null, "gt_phone_name": null, "camera": "Yes", "location_code": "Outside", "floor_location": null, "keypad": "keypad_no", "label_applied": "label_no", "blue_light_condition": "light_yes", "blue_light_flashes": null, "phone_status": "Active", "screwsmissing": null}}, {"type": "Feature", "id": 123, "geometry": {"type": "Point", "coordinates": [-84.4021465145457, 33.7742000473865]}, "properties": {"objectid": 123, "globalid": "962ed8c0-be4d-4b33-a7f9-4896843abdfe", "CreationDate": 1676403437523, "Creator": "dsimsGT", "EditDate": 1691786980841, "Editor": "dsimsGT", "phone_name": "Regents&Ferst", "phone_number": null, "box_condition": null, "comments": null, "gt_phone_name": null, "camera": "Yes", "location_code": "Outside", "floor_location": null, "keypad": "keypad_no", "label_applied": "label_no", "blue_light_condition": "light_yes", "blue_light_flashes": null, "phone_status": "Active", "screwsmissing": null}}, {"type": "Feature", "id": 124, "geometry": {"type": "Point", "coordinates": [-84.3992538588553, 33.7729784051375]}, "properties": {"objectid": 124, "globalid": "515a131a-0274-4328-b8ad-16796a1f548d", "CreationDate": 1676403441264, "Creator": "dsimsGT", "EditDate": 1691786980857, "Editor": "dsimsGT", "phone_name": "Tech parkway & State", "phone_number": "4043856680", "box_condition": null, "comments": null, "gt_phone_name": null, "camera": "Yes", "location_code": "Outside", "floor_location": null, "keypad": "keypad_no", "label_applied": "label_no", "blue_light_condition": "light_yes", "blue_light_flashes": null, "phone_status": "Active", "screwsmissing": null}}, {"type": "Feature", "id": 125, "geometry": {"type": "Point", "coordinates": [-84.397257568732, 33.7725782278585]}, "properties": {"objectid": 125, "globalid": "7fe5fda7-6f1d-4722-8459-99715a2074cc", "CreationDate": 1676403443740, "Creator": "dsimsGT", "EditDate": 1691786980857, "Editor": "dsimsGT", "phone_name": "Tech Parkway at Ferst Drive ", "phone_number": null, "box_condition": null, "comments": null, "gt_phone_name": null, "camera": "Yes", "location_code": "Outside", "floor_location": null, "keypad": "keypad_no", "label_applied": "label_no", "blue_light_condition": "light_yes", "blue_light_flashes": null, "phone_status": "Active", "screwsmissing": null}}, {"type": "Feature", "id": 126, "geometry": {"type": "Point", "coordinates": [-84.3962735640512, 33.7714124206995]}, "properties": {"objectid": 126, "globalid": "8e10e63a-e9df-4bcc-9266-760d6d3dfb2a", "CreationDate": 1676403446206, "Creator": "dsimsGT", "EditDate": 1691786980857, "Editor": "dsimsGT", "phone_name": "Ferst and North Ave", "phone_number": null, "box_condition": null, "comments": null, "gt_phone_name": null, "camera": "Yes", "location_code": "Outside", "floor_location": null, "keypad": "keypad_no", "label_applied": "label_no", "blue_light_condition": "light_yes", "blue_light_flashes": null, "phone_status": "Active", "screwsmissing": null}}, {"type": "Feature", "id": 127, "geometry": {"type": "Point", "coordinates": [-84.3950171183111, 33.7711995172415]}, "properties": {"objectid": 127, "globalid": "e7792220-997f-4c21-afc0-2f28dbdcc4e6", "CreationDate": 1676403449441, "Creator": "dsimsGT", "EditDate": 1691786980857, "Editor": "dsimsGT", "phone_name": "Burge Parking Lot", "phone_number": "4043857982", "box_condition": null, "comments": null, "gt_phone_name": null, "camera": "No", "location_code": "Outside", "floor_location": null, "keypad": "keypad_yes", "label_applied": "label_no", "blue_light_condition": "light_yes", "blue_light_flashes": null, "phone_status": "Active", "screwsmissing": null}}, {"type": "Feature", "id": 128, "geometry": {"type": "Point", "coordinates": [-84.3942092409182, 33.7711757680099]}, "properties": {"objectid": 128, "globalid": "3f0ba76f-bd29-4fc4-9ce3-9e92322b600f", "CreationDate": 1676403452819, "Creator": "dsimsGT", "EditDate": 1691786980873, "Editor": "dsimsGT", "phone_name": "Burge Parking Lot", "phone_number": "4043857981", "box_condition": null, "comments": null, "gt_phone_name": null, "camera": "No", "location_code": "Outside", "floor_location": null, "keypad": "keypad_yes", "label_applied": "label_no", "blue_light_condition": "light_yes", "blue_light_flashes": null, "phone_status": "Active", "screwsmissing": null}}, {"type": "Feature", "id": 132, "geometry": {"type": "Point", "coordinates": [-84.3914679267793, 33.7729868101246]}, "properties": {"objectid": 132, "globalid": "552cd8f1-588c-497f-ba9f-2f1ebae29bbb", "CreationDate": 1676403461775, "Creator": "dsimsGT", "EditDate": 1691786980888, "Editor": "dsimsGT", "phone_name": "Glenn Towers Courtyard", "phone_number": "4043850516", "box_condition": null, "comments": null, "gt_phone_name": null, "camera": "No", "location_code": "Outside", "floor_location": null, "keypad": "keypad_yes", "label_applied": "label_no", "blue_light_condition": "light_yes", "blue_light_flashes": null, "phone_status": "Active", "screwsmissing": null}}, {"type": "Feature", "id": 135, "geometry": {"type": "Point", "coordinates": [-84.397937952323, 33.7740303759679]}, "properties": {"objectid": 135, "globalid": "be8aed97-42e5-4936-a246-e322fd43db4d", "CreationDate": 1677090134395, "Creator": "gtfm_kabernathy", "EditDate": 1691786980888, "Editor": "dsimsGT", "phone_name": "Student Center", "phone_number": null, "box_condition": null, "comments": null, "gt_phone_name": null, "camera": "Yes", "location_code": "Outside", "floor_location": null, "keypad": "keypad_no", "label_applied": "label_no", "blue_light_condition": "light_yes", "blue_light_flashes": null, "phone_status": "Active", "screwsmissing": null}}, {"type": "Feature", "id": 137, "geometry": {"type": "Point", "coordinates": [-84.4023919053846, 33.7734743404705]}, "properties": {"objectid": 137, "globalid": "4cde10ac-c089-48a4-b0ce-8e56bdc70789", "CreationDate": 1686676768412, "Creator": "wsims6_GTFacilities", "EditDate": 1691786980904, "Editor": "dsimsGT", "phone_name": "HR at tech parkway ", "phone_number": null, "box_condition": "1", "comments": "Still under construction. Not operational. ", "gt_phone_name": null, "camera": "Yes", "location_code": "Outside", "floor_location": null, "keypad": "keypad_no", "label_applied": "label_no", "blue_light_condition": "light_no", "blue_light_flashes": null, "phone_status": "Active", "screwsmissing": null}}, {"type": "Feature", "id": 138, "geometry": {"type": "Point", "coordinates": [-84.3981171189502, 33.7734142572263]}, "properties": {"objectid": 138, "globalid": "f936a5d4-c8e6-4376-983b-bd23920c6919", "CreationDate": 1686677825978, "Creator": "wsims6_GTFacilities", "EditDate": 1691786980904, "Editor": "dsimsGT", "phone_name": "Reck Garage", "phone_number": null, "box_condition": null, "comments": null, "gt_phone_name": null, "camera": "Yes", "location_code": "Outside", "floor_location": null, "keypad": "keypad_no", "label_applied": "label_no", "blue_light_condition": "light_yes", "blue_light_flashes": null, "phone_status": "Active", "screwsmissing": null}}, {"type": "Feature", "id": 139, "geometry": {"type": "Point", "coordinates": [-84.3966135774261, 33.7762341472888]}, "properties": {"objectid": 139, "globalid": "fd0e11b7-14fc-4d74-976b-17883c392de5", "CreationDate": 1686678083899, "Creator": "wsims6_GTFacilities", "EditDate": 1691786980904, "Editor": "dsimsGT", "phone_name": "Petit architecture walkway", "phone_number": null, "box_condition": null, "comments": "Still under construction. ", "gt_phone_name": null, "camera": "Yes", "location_code": "Outside", "floor_location": null, "keypad": null, "label_applied": "label_no", "blue_light_condition": "light_no", "blue_light_flashes": null, "phone_status": "Active", "screwsmissing": null}}, {"type": "Feature", "id": 141, "geometry": {"type": "Point", "coordinates": [-84.3992293358288, 33.7744983568467]}, "properties": {"objectid": 141, "globalid": "0f9393cb-9a18-4ead-acc5-6c545771cf48", "CreationDate": 1693503659044, "Creator": "wsims6_GTFacilities", "EditDate": 1693503659044, "Editor": "wsims6_GTFacilities", "phone_name": "Flag building courtyard ", "phone_number": null, "box_condition": null, "comments": null, "gt_phone_name": null, "camera": "Yes", "location_code": "Outside", "floor_location": null, "keypad": "keypad_no", "label_applied": "label_no", "blue_light_condition": "light_yes", "blue_light_flashes": null, "phone_status": "Active", "screwsmissing": null}}, {"type": "Feature", "id": 143, "geometry": {"type": "Point", "coordinates": [-84.403686979013, 33.7813646955168]}, "properties": {"objectid": 143, "globalid": "ddaba980-5dc5-4d1a-98a5-a7bc6bf2ad6d", "CreationDate": 1710196207728, "Creator": "jpressey6_GTFacilities", "EditDate": 1710196207728, "Editor": "jpressey6_GTFacilities", "phone_name": "GTPD N E-Phone", "phone_number": "4042114768", "box_condition": "3", "comments": null, "gt_phone_name": null, "camera": "Yes", "location_code": "Outside", "floor_location": null, "keypad": "keypad_yes", "label_applied": "label_no", "blue_light_condition": "light_yes", "blue_light_flashes": "Yes", "phone_status": "Active", "screwsmissing": 3}}, {"type": "Feature", "id": 148, "geometry": {"type": "Point", "coordinates": [-84.4035692242875, 33.7810502872907]}, "properties": {"objectid": 148, "globalid": "d77bb432-9352-40bd-af97-479de353d2b5", "CreationDate": 1710198987570, "Creator": "jpressey6_GTFacilities", "EditDate": 1710198987570, "Editor": "jpressey6_GTFacilities", "phone_name": "GTPD S E-Phone", "phone_number": "4048943491", "box_condition": "3", "comments": null, "gt_phone_name": null, "camera": "Yes", "location_code": "Outside", "floor_location": null, "keypad": "keypad_yes", "label_applied": "label_no", "blue_light_condition": "light_yes", "blue_light_flashes": "Yes", "phone_status": "Active", "screwsmissing": 1}}, {"type": "Feature", "id": 157, "geometry": {"type": "Point", "coordinates": [-84.4021211604879, 33.7795158911735]}, "properties": {"objectid": 157, "globalid": "641de2c4-6f20-4cd0-a00a-498bd895249f", "CreationDate": 1710206769089, "Creator": "jpressey6_GTFacilities", "EditDate": 1710210244720, "Editor": "jpressey6_GTFacilities", "phone_name": "EcoCommons W End E-Phone", "phone_number": "404-894-5677", "box_condition": "3", "comments": null, "gt_phone_name": null, "camera": "Yes", "location_code": "Outside", "floor_location": null, "keypad": "keypad_no", "label_applied": "label_no", "blue_light_condition": "light_yes", "blue_light_flashes": "Yes", "phone_status": "Active", "screwsmissing": 5}}, {"type": "Feature", "id": 172, "geometry": {"type": "Point", "coordinates": [-84.4005374044121, 33.7794694469147]}, "properties": {"objectid": 172, "globalid": "c2e8141a-a26d-4301-ae97-36ef13be0052", "CreationDate": 1710210197906, "Creator": "jpressey6_GTFacilities", "EditDate": 1710210212032, "Editor": "jpressey6_GTFacilities", "phone_name": "EcoCommos Middle E-Phone", "phone_number": "404-894-5673", "box_condition": "3", "comments": null, "gt_phone_name": null, "camera": "Yes", "location_code": "Outside", "floor_location": null, "keypad": "keypad_no", "label_applied": "label_no", "blue_light_condition": "light_yes", "blue_light_flashes": "Yes", "phone_status": "Active", "screwsmissing": 0}}, {"type": "Feature", "id": 182, "geometry": {"type": "Point", "coordinates": [-84.4013042553259, 33.7785505888809]}, "properties": {"objectid": 182, "globalid": "d7d3cd0e-94a8-4297-854f-9e5cb592a064", "CreationDate": 1710212701593, "Creator": "jpressey6_GTFacilities", "EditDate": 1710212701593, "Editor": "jpressey6_GTFacilities", "phone_name": "Hemphill Ave & Ferst Dr E-Phone", "phone_number": "404-894-4092", "box_condition": "3", "comments": null, "gt_phone_name": null, "camera": "Yes", "location_code": "Outside", "floor_location": null, "keypad": "keypad_no", "label_applied": "label_no", "blue_light_condition": "light_yes", "blue_light_flashes": "Yes", "phone_status": "Active", "screwsmissing": 4}}, {"type": "Feature", "id": 183, "geometry": {"type": "Point", "coordinates": [-84.3993871309037, 33.7783728772069]}, "properties": {"objectid": 183, "globalid": "9e0991dc-7f29-4d1f-8a9a-7a793e4e5f2a", "CreationDate": 1710213033913, "Creator": "jpressey6_GTFacilities", "EditDate": 1710213033913, "Editor": "jpressey6_GTFacilities", "phone_name": "Kendeda SE E-Phone Ferst Dr & State St", "phone_number": "404-894-4091", "box_condition": "2", "comments": "Poor because blue light didn't blink during the call.", "gt_phone_name": null, "camera": "Yes", "location_code": "Outside", "floor_location": null, "keypad": "keypad_no", "label_applied": "label_no", "blue_light_condition": "light_yes", "blue_light_flashes": "No", "phone_status": "Active", "screwsmissing": 2}}, {"type": "Feature", "id": 185, "geometry": {"type": "Point", "coordinates": [-84.4000117976684, 33.7794741117246]}, "properties": {"objectid": 185, "globalid": "c78f1526-7c6a-448a-93e0-83d8245181aa", "CreationDate": 1710213535945, "Creator": "jpressey6_GTFacilities", "EditDate": 1710213535945, "Editor": "jpressey6_GTFacilities", "phone_name": "EcoComments E End E-Phone", "phone_number": null, "box_condition": "1", "comments": "Pushing the red button does nothing.", "gt_phone_name": null, "camera": "Yes", "location_code": "Outside", "floor_location": null, "keypad": "keypad_no", "label_applied": "label_no", "blue_light_condition": "light_yes", "blue_light_flashes": "No", "phone_status": "Active", "screwsmissing": 3}}, {"type": "Feature", "id": 189, "geometry": {"type": "Point", "coordinates": [-84.3991956186877, 33.7805040702576]}, "properties": {"objectid": 189, "globalid": "4e445186-8928-4d60-9277-8102334e0a48", "CreationDate": 1710215111263, "Creator": "jpressey6_GTFacilities", "EditDate": 1710215190881, "Editor": "jpressey6_GTFacilities", "phone_name": "State St NW E-Phone NE of Baker Building NW of Crosswalk to North Campus Parking Deck ", "phone_number": null, "box_condition": "1", "comments": "Phone doesn't connect.", "gt_phone_name": null, "camera": "No", "location_code": "Outside", "floor_location": null, "keypad": "keypad_no", "label_applied": "label_no", "blue_light_condition": "light_yes", "blue_light_flashes": "No", "phone_status": "Active", "screwsmissing": 5}}, {"type": "Feature", "id": 190, "geometry": {"type": "Point", "coordinates": [-84.3990323738589, 33.7814119697664]}, "properties": {"objectid": 190, "globalid": "82ab270f-1deb-4c75-bb95-adfdad3cc5ac", "CreationDate": 1710215602487, "Creator": "jpressey6_GTFacilities", "EditDate": 1710215602487, "Editor": "jpressey6_GTFacilities", "phone_name": "10th Street NW & State Street NW E-Phone", "phone_number": "404-385-7851", "box_condition": "3", "comments": null, "gt_phone_name": null, "camera": "No", "location_code": "Outside", "floor_location": null, "keypad": "keypad_no", "label_applied": "label_no", "blue_light_condition": "light_yes", "blue_light_flashes": "Yes", "phone_status": "Active", "screwsmissing": 0}}, {"type": "Feature", "id": 191, "geometry": {"type": "Point", "coordinates": [-84.3977139152323, 33.7805959711262]}, "properties": {"objectid": 191, "globalid": "56bf6a41-b2bb-4207-b51c-4e449568bd4f", "CreationDate": 1710216334149, "Creator": "jpressey6_GTFacilities", "EditDate": 1710216496790, "Editor": "jpressey6_GTFacilities", "phone_name": "950 Atlantic Dr NW SE of EBB", "phone_number": "561-609-7990", "box_condition": "2", "comments": "Blue light always blinking & dispatch could barely hear me", "gt_phone_name": null, "camera": "No", "location_code": "Outside", "floor_location": null, "keypad": "keypad_no", "label_applied": "label_no", "blue_light_condition": "light_yes", "blue_light_flashes": "Yes", "phone_status": "Active", "screwsmissing": 5}}, {"type": "Feature", "id": 195, "geometry": {"type": "Point", "coordinates": [-84.3979405815915, 33.7795739749987]}, "properties": {"objectid": 195, "globalid": "0b941e43-a302-4d65-b22e-5d64982b2fb2", "CreationDate": 1710218182198, "Creator": "jpressey6_GTFacilities", "EditDate": 1710218182198, "Editor": "jpressey6_GTFacilities", "phone_name": "Atlantic Dr NW Btwn North Campus Parking Deck & Marcus Nanotech", "phone_number": "404-385-7852", "box_condition": "3", "comments": null, "gt_phone_name": null, "camera": "No", "location_code": "Outside", "floor_location": null, "keypad": "keypad_yes", "label_applied": "label_no", "blue_light_condition": "light_yes", "blue_light_flashes": "Yes", "phone_status": "Active", "screwsmissing": 2}}, {"type": "Feature", "id": 215, "geometry": {"type": "Point", "coordinates": [-84.4034495007258, 33.7799774179538]}, "properties": {"objectid": 215, "globalid": "d0cd8889-c93e-4264-af30-d77aab36905d", "CreationDate": 1710228080570, "Creator": "jpressey6_GTFacilities", "EditDate": 1710228080570, "Editor": "jpressey6_GTFacilities", "phone_name": "Crecine Apartments Courtyard E-Phone", "phone_number": "404-894-5486", "box_condition": "3", "comments": null, "gt_phone_name": null, "camera": "Yes", "location_code": "Outside", "floor_location": "1", "keypad": "keypad_no", "label_applied": "label_no", "blue_light_condition": "light_yes", "blue_light_flashes": "Yes", "phone_status": "Active", "screwsmissing": 1}}, {"type": "Feature", "id": 227, "geometry": {"type": "Point", "coordinates": [-84.4056964166124, 33.7801553642871]}, "properties": {"objectid": 227, "globalid": "428fe1ae-0814-4ac9-ab25-ac1b048c3dc3", "CreationDate": 1710232122460, "Creator": "jpressey6_GTFacilities", "EditDate": 1710232122460, "Editor": "jpressey6_GTFacilities", "phone_name": "8th St Apt W Ctyrd E-Phone", "phone_number": "404-894-2633", "box_condition": "2", "comments": null, "gt_phone_name": null, "camera": "Yes", "location_code": "Outside", "floor_location": "1", "keypad": "keypad_yes", "label_applied": "label_no", "blue_light_condition": "light_yes", "blue_light_flashes": "No", "phone_status": "Active", "screwsmissing": 1}}, {"type": "Feature", "id": 244, "geometry": {"type": "Point", "coordinates": [-84.4048990187138, 33.7795914288387]}, "properties": {"objectid": 244, "globalid": "4f521cc7-2c04-44e5-a78c-c276e95caec9", "CreationDate": 1710236654454, "Creator": "jpressey6_GTFacilities", "EditDate": 1710236654454, "Editor": "jpressey6_GTFacilities", "phone_name": "West Village Dining N E-Phone", "phone_number": "404-385-6180", "box_condition": "3", "comments": null, "gt_phone_name": null, "camera": "Yes", "location_code": "Outside", "floor_location": null, "keypad": "keypad_no", "label_applied": "label_no", "blue_light_condition": "light_yes", "blue_light_flashes": "Yes", "phone_status": "Active", "screwsmissing": 4}}, {"type": "Feature", "id": 247, "geometry": {"type": "Point", "coordinates": [-84.4042921893105, 33.7790460047894]}, "properties": {"objectid": 247, "globalid": "f1eb45d1-ddaf-44a9-952b-2d0c0d19a489", "CreationDate": 1710238049979, "Creator": "jpressey6_GTFacilities", "EditDate": 1710238049979, "Editor": "jpressey6_GTFacilities", "phone_name": "Caldwell Residence Hall NE E-Phone", "phone_number": "404-385-6181", "box_condition": "2", "comments": "Scratchy recording plays before connecting and dispatch audio quiet, but usuable. Tried 2 more times and didn't work, so add to list of phones need fixing.", "gt_phone_name": null, "camera": "Yes", "location_code": "Outside", "floor_location": "B", "keypad": "keypad_no", "label_applied": "label_no", "blue_light_condition": "light_yes", "blue_light_flashes": "Yes", "phone_status": "Active", "screwsmissing": 1}}, {"type": "Feature", "id": 250, "geometry": {"type": "Point", "coordinates": [-84.4055790233837, 33.7785116455455]}, "properties": {"objectid": 250, "globalid": "a1284685-40ed-4dea-a930-5a63eed05535", "CreationDate": 1710239105816, "Creator": "jpressey6_GTFacilities", "EditDate": 1710239661503, "Editor": "jpressey6_GTFacilities", "phone_name": "Nelson-Shell Apartments N Un", "phone_number": "404-385-7786", "box_condition": "3", "comments": null, "gt_phone_name": null, "camera": "No", "location_code": "Outside", "floor_location": "G", "keypad": "keypad_no", "label_applied": "label_no", "blue_light_condition": "light_no", "blue_light_flashes": "No", "phone_status": "Active", "screwsmissing": 0}}, {"type": "Feature", "id": 260, "geometry": {"type": "Point", "coordinates": [-84.4046631504871, 33.7773025940176]}, "properties": {"objectid": 260, "globalid": "26211eb6-b0a9-4821-9cb9-4e69cb88c191", "CreationDate": 1710242161778, "Creator": "jpressey6_GTFacilities", "EditDate": 1710242161778, "Editor": "jpressey6_GTFacilities", "phone_name": "Zbar Residence Hall SE E-Phone", "phone_number": "404-894-8359", "box_condition": "3", "comments": null, "gt_phone_name": null, "camera": "Yes", "location_code": "Outside", "floor_location": "1", "keypad": "keypad_no", "label_applied": "label_no", "blue_light_condition": "light_yes", "blue_light_flashes": "Yes", "phone_status": "Active", "screwsmissing": 0}}, {"type": "Feature", "id": 261, "geometry": {"type": "Point", "coordinates": [-84.4051743080236, 33.7777058945563]}, "properties": {"objectid": 261, "globalid": "ef3906dc-f62f-4e82-98dc-ace7c1383476", "CreationDate": 1710242164178, "Creator": "jpressey6_GTFacilities", "EditDate": 1710242164178, "Editor": "jpressey6_GTFacilities", "phone_name": "Zbar Residence Hall NW E-Phone", "phone_number": "404-385-4688", "box_condition": "3", "comments": null, "gt_phone_name": null, "camera": "Yes", "location_code": "Outside", "floor_location": "1", "keypad": "keypad_no", "label_applied": "label_no", "blue_light_condition": "light_yes", "blue_light_flashes": "Yes", "phone_status": "Active", "screwsmissing": 0}}, {"type": "Feature", "id": 265, "geometry": {"type": "Point", "coordinates": [-84.4039588372173, 33.7776668030793]}, "properties": {"objectid": 265, "globalid": "0af6f2fd-9656-4bf6-ba56-327ddf0c7473", "CreationDate": 1710243793890, "Creator": "jpressey6_GTFacilities", "EditDate": 1710243793890, "Editor": "jpressey6_GTFacilities", "phone_name": "Freeman-Montag Residence Hall W E-Phone", "phone_number": "404-206-9287", "box_condition": "3", "comments": null, "gt_phone_name": null, "camera": "No", "location_code": "Outside", "floor_location": "1", "keypad": "keypad_yes", "label_applied": "label_no", "blue_light_condition": "light_yes", "blue_light_flashes": "Yes", "phone_status": "Active", "screwsmissing": 1}}, {"type": "Feature", "id": 266, "geometry": {"type": "Point", "coordinates": [-84.403752816511, 33.7774858904912]}, "properties": {"objectid": 266, "globalid": "4476580d-d4bb-471e-beef-36b2acd7f47b", "CreationDate": 1710244163858, "Creator": "jpressey6_GTFacilities", "EditDate": 1710244163858, "Editor": "jpressey6_GTFacilities", "phone_name": "Freeman Residence Hall E E-Phone", "phone_number": "404-385-8008", "box_condition": "3", "comments": null, "gt_phone_name": null, "camera": "No", "location_code": "Outside", "floor_location": "G", "keypad": "keypad_no", "label_applied": "label_no", "blue_light_condition": "light_yes", "blue_light_flashes": "Yes", "phone_status": "Active", "screwsmissing": 1}}, {"type": "Feature", "id": 267, "geometry": {"type": "Point", "coordinates": [-84.4036241250392, 33.7781336021209]}, "properties": {"objectid": 267, "globalid": "d1d36127-f07b-4e5f-a81a-dbe395084b90", "CreationDate": 1710244488797, "Creator": "jpressey6_GTFacilities", "EditDate": 1710244488797, "Editor": "jpressey6_GTFacilities", "phone_name": "Fitten Residence Hall SE E-Phone", "phone_number": "404-385-8014", "box_condition": "3", "comments": null, "gt_phone_name": null, "camera": "No", "location_code": "Outside", "floor_location": "G", "keypad": "keypad_yes", "label_applied": "label_yes", "blue_light_condition": "light_yes", "blue_light_flashes": "Yes", "phone_status": "Active", "screwsmissing": 0}}, {"type": "Feature", "id": 268, "geometry": {"type": "Point", "coordinates": [-84.4039030641296, 33.7782523613545]}, "properties": {"objectid": 268, "globalid": "d6905f28-80a6-408a-b73e-a0db0fdf16bd", "CreationDate": 1710244667280, "Creator": "jpressey6_GTFacilities", "EditDate": 1710244697837, "Editor": "jpressey6_GTFacilities", "phone_name": "Fitten Residence Hall W E-Phone", "phone_number": "404-385-8013", "box_condition": "3", "comments": "Bit staticky, but decipherable", "gt_phone_name": null, "camera": "No", "location_code": "Outside", "floor_location": "1", "keypad": "keypad_yes", "label_applied": "label_no", "blue_light_condition": "light_yes", "blue_light_flashes": "Yes", "phone_status": "Active", "screwsmissing": 0}}, {"type": "Feature", "id": 270, "geometry": {"type": "Point", "coordinates": [-84.4040083307395, 33.7787732436372]}, "properties": {"objectid": 270, "globalid": "82c1abda-274b-4bed-9bc3-7752d0f55bf7", "CreationDate": 1710245744839, "Creator": "jpressey6_GTFacilities", "EditDate": 1710245744839, "Editor": "jpressey6_GTFacilities", "phone_name": "Fulmer Residence Hall-Commander Building W E-Phone", "phone_number": "404-894-8360", "box_condition": "2", "comments": null, "gt_phone_name": null, "camera": "No", "location_code": "Outside", "floor_location": null, "keypad": "keypad_yes", "label_applied": "label_no", "blue_light_condition": "light_yes", "blue_light_flashes": "Yes", "phone_status": "Active", "screwsmissing": 5}}, {"type": "Feature", "id": 271, "geometry": {"type": "Point", "coordinates": [-84.3939998415, 33.7719359285]}, "properties": {"objectid": 271, "globalid": "49fa18a2-1677-4a1d-b9f6-7d92268e429c", "CreationDate": 1736793793943, "Creator": "dsimsGT", "EditDate": 1736793793943, "Editor": "dsimsGT", "phone_name": "Gate 2 at tech tower lawn", "phone_number": null, "box_condition": "3", "comments": "New style phone. ", "gt_phone_name": null, "camera": "Yes", "location_code": "Outside", "floor_location": null, "keypad": "keypad_no", "label_applied": "label_no", "blue_light_condition": "light_yes", "blue_light_flashes": null, "phone_status": "Active", "screwsmissing": null}}, {"type": "Feature", "id": 272, "geometry": {"type": "Point", "coordinates": [-84.3938360926423, 33.7758556984072]}, "properties": {"objectid": 272, "globalid": "21cb1798-fc27-4a60-8bab-6d1d79be021a", "CreationDate": 1762372210783, "Creator": "dsimsGT", "EditDate": 1762372210783, "Editor": "dsimsGT", "phone_name": "Peter's deck north entrance", "phone_number": null, "box_condition": "3", "comments": null, "gt_phone_name": null, "camera": "Yes", "location_code": "Outside", "floor_location": null, "keypad": "keypad_no", "label_applied": "label_no", "blue_light_condition": "light_yes", "blue_light_flashes": null, "phone_status": "Active", "screwsmissing": null}}, {"type": "Feature", "id": 273, "geometry": {"type": "Point", "coordinates": [-84.3896015325016, 33.775060288035]}, "properties": {"objectid": 273, "globalid": "e5f27fd2-f6ea-40c3-a5a9-a78ea85e469c", "CreationDate": 1762539576194, "Creator": "dsimsGT", "EditDate": 1762539576194, "Editor": "dsimsGT", "phone_name": "Security Hub", "phone_number": null, "box_condition": "3", "comments": null, "gt_phone_name": null, "camera": "Yes", "location_code": "Outside", "floor_location": null, "keypad": "keypad_no", "label_applied": "label_no", "blue_light_condition": "light_yes", "blue_light_flashes": null, "phone_status": "Active", "screwsmissing": null}}, {"type": "Feature", "id": 274, "geometry": {"type": "Point", "coordinates": [-84.3919008670821, 33.7714972102101]}, "properties": {"objectid": 274, "globalid": "616d63f5-878c-45d4-af59-500f1fb1da9b", "CreationDate": 1775144555398, "Creator": "dsimsGT", "EditDate": 1775144555398, "Editor": "dsimsGT", "phone_name": "Brown Dorm", "phone_number": null, "box_condition": "3", "comments": null, "gt_phone_name": null, "camera": "Yes", "location_code": "Outside", "floor_location": null, "keypad": "keypad_no", "label_applied": "label_no", "blue_light_condition": "light_yes", "blue_light_flashes": null, "phone_status": "Active", "screwsmissing": null}}]}