{"type": "FeatureCollection", "features": [{"type": "Feature", "geometry": {"type": "Point", "coordinates": [-84.3892152, 33.7596125]}, "properties": {"name": "Andrew Young Statue", "artwork_type": "sculpture", "tourism": "artwork"}}, {"type": "Feature", "geometry": {"type": "Point", "coordinates": [-84.3892499, 33.7592518]}, "properties": {"name": "Public Art: \"Emerging\"", "artwork_type": "sculpture", "tourism": "artwork", "material": "bronze"}}, {"type": "Feature", "geometry": {"type": "Point", "coordinates": [-84.3929026, 33.759106]}, "properties": {"name": "024", "artwork_type": "sculpture", "tourism": "artwork"}}, {"type": "Feature", "geometry": {"type": "Point", "coordinates": [-84.3923821, 33.7590927]}, "properties": {"artwork_type": "sculpture", "tourism": "artwork"}}, {"type": "Feature", "geometry": {"type": "Point", "coordinates": [-84.3935584, 33.7604273]}, "properties": {"name": "Baron Pierre de Coubertin Statue", "artwork_type": "statue", "tourism": "artwork"}}, {"type": "Feature", "geometry": {"type": "Point", "coordinates": [-84.3894143, 33.759549]}, "properties": {"artwork_type": "sculpture", "tourism": "artwork"}}, {"type": "Feature", "geometry": {"type": "Point", "coordinates": [-84.3923084, 33.7620359]}, "properties": {"name": "Androgyne Planet Sculpture", "artwork_type": "sculpture", "tourism": "artwork"}}, {"type": "Feature", "geometry": {"type": "Point", "coordinates": [-84.3885881, 33.7645668]}, "properties": {"name": "Southern Company", "memorial": "plaque", "material": "aluminium"}}, {"type": "Feature", "geometry": {"type": "Point", "coordinates": [-84.3928881, 33.7593785]}, "properties": {"name": "In Celebration", "memorial": "plaque"}}, {"type": "Feature", "geometry": {"type": "Point", "coordinates": [-84.3922764, 33.7598517]}, "properties": {"memorial": "plaque"}}, {"type": "Feature", "geometry": {"type": "Point", "coordinates": [-84.3922803, 33.7596207]}, "properties": {"name": "100", "memorial": "plaque"}}, {"type": "Feature", "geometry": {"type": "Point", "coordinates": [-84.3851913, 33.7680302]}, "properties": {"name": "Meraki", "artwork_type": "mural", "tourism": "artwork", "material": "brick"}}, {"type": "Feature", "geometry": {"type": "Point", "coordinates": [-84.3851958, 33.7683499]}, "properties": {"name": "I Found my Future in the Wind", "artwork_type": "mural", "tourism": "artwork", "material": "brick"}}, {"type": "Feature", "geometry": {"type": "Point", "coordinates": [-84.3885561, 33.7682196]}, "properties": {"name": "Baltimore Block", "memorial": "plaque", "material": "bronze"}}, {"type": "Feature", "geometry": {"type": "Point", "coordinates": [-84.3857067, 33.7677693]}, "properties": {"name": "Memorial Heart", "artwork_type": "architecture", "tourism": "artwork", "material": "steel"}}, {"type": "Feature", "geometry": {"type": "Point", "coordinates": [-84.3924891, 33.7625479]}, "properties": {"artwork_type": "sculpture", "tourism": "artwork"}}, {"type": "Feature", "geometry": {"type": "Point", "coordinates": [-84.3870046, 33.7625082]}, "properties": {"name": "Ballet Olympia", "artwork_type": "sculpture", "tourism": "artwork", "material": "bronze"}}, {"type": "Feature", "geometry": {"type": "Point", "coordinates": [-84.3935282, 33.7647514]}, "properties": {"artwork_type": "mural", "tourism": "artwork"}}, {"type": "Feature", "geometry": {"type": "Point", "coordinates": [-84.3874237, 33.7631459]}, "properties": {"artwork_type": "statue", "tourism": "artwork"}}, {"type": "Feature", "geometry": {"type": "Point", "coordinates": [-84.3868389, 33.7628613]}, "properties": {"artwork_type": "installation", "tourism": "artwork"}}, {"type": "Feature", "geometry": {"type": "Point", "coordinates": [-84.3864527, 33.7631278]}, "properties": {"artwork_type": "installation", "tourism": "artwork"}}, {"type": "Feature", "geometry": {"type": "Point", "coordinates": [-84.3864527, 33.7632027]}, "properties": {"artwork_type": "installation", "tourism": "artwork"}}, {"type": "Feature", "geometry": {"type": "Point", "coordinates": [-84.3861215, 33.7631195]}, "properties": {"artwork_type": "installation", "tourism": "artwork"}}, {"type": "Feature", "geometry": {"type": "Point", "coordinates": [-84.3893469, 33.7642456]}, "properties": {"name": "OuterSpace Mission 5", "artwork_type": "mural", "tourism": "artwork", "material": "concrete"}}, {"type": "Feature", "geometry": {"type": "Point", "coordinates": [-84.3933986, 33.7591049]}, "properties": {"artwork_type": "sculpture", "tourism": "artwork"}}, {"type": "Feature", "geometry": {"type": "Point", "coordinates": [-84.3923794, 33.759938]}, "properties": {"artwork_type": "sculpture", "tourism": "artwork"}}, {"type": "Feature", "geometry": {"type": "Point", "coordinates": [-84.393391, 33.7599535]}, "properties": {"artwork_type": "sculpture", "tourism": "artwork"}}, {"type": "Feature", "geometry": {"type": "Point", "coordinates": [-84.3923744, 33.7595036]}, "properties": {"artwork_type": "sculpture", "tourism": "artwork"}}, {"type": "Feature", "geometry": {"type": "Point", "coordinates": [-84.3933947, 33.7595292]}, "properties": {"artwork_type": "sculpture", "tourism": "artwork"}}, {"type": "Feature", "geometry": {"type": "Point", "coordinates": [-84.3928866, 33.7599532]}, "properties": {"artwork_type": "sculpture", "tourism": "artwork"}}, {"type": "Feature", "geometry": {"type": "Point", "coordinates": [-84.3916592, 33.7599029]}, "properties": {"name": "ATL Nighthawks at the Diner", "artwork_type": "mural", "tourism": "artwork"}}, {"type": "Feature", "geometry": {"type": "Point", "coordinates": [-84.3724667, 33.7599466]}, "properties": {"name": "Homage to King", "memorial": "sculpture", "material": "weathering_steel"}}, {"type": "Feature", "geometry": {"type": "Point", "coordinates": [-84.3978544, 33.7750964]}, "properties": {"name": "Einstein Statue", "artwork_type": "statue", "tourism": "artwork"}}, {"type": "Feature", "geometry": {"type": "Point", "coordinates": [-84.3993682, 33.7745398]}, "properties": {"name": "Dean Griffin Statue", "artwork_type": "statue", "tourism": "artwork"}}, {"type": "Feature", "geometry": {"type": "Point", "coordinates": [-84.3965232, 33.7755067]}, "properties": {"name": "Koan Statue", "artwork_type": "statue", "tourism": "artwork", "material": "fiberglass"}}, {"type": "Feature", "geometry": {"type": "Point", "coordinates": [-84.3933053, 33.7737854]}, "properties": {"name": "Bobby Dodd Statue", "artwork_type": "statue", "tourism": "artwork"}}, {"type": "Feature", "geometry": {"type": "Point", "coordinates": [-84.3898205, 33.7743269]}, "properties": {"name": "Organized Chaos 2", "artwork_type": "mural", "tourism": "artwork", "material": "brick"}}, {"type": "Feature", "geometry": {"type": "Point", "coordinates": [-84.3887527, 33.7697314]}, "properties": {"name": "Atlas", "artwork_type": "statue", "tourism": "artwork", "material": "steel"}}, {"type": "Feature", "geometry": {"type": "Point", "coordinates": [-84.3855146, 33.7687718]}, "properties": {"name": "Wind Chime Brasso Profundo", "artwork_type": "installation", "tourism": "artwork", "material": "steel"}}, {"type": "Feature", "geometry": {"type": "Point", "coordinates": [-84.3830993, 33.7735106]}, "properties": {"name": "James J. Andrews", "memorial": "plaque", "material": "bronze"}}, {"type": "Feature", "geometry": {"type": "Point", "coordinates": [-84.4093644, 33.7786374]}, "properties": {"name": "1942 (Bartaco Loves Art Campaign)", "artwork_type": "mural", "tourism": "artwork"}}, {"type": "Feature", "geometry": {"type": "Point", "coordinates": [-84.386268, 33.781336]}, "properties": {"name": "Illuminated Swallows", "artwork_type": "installation", "tourism": "artwork", "material": "plastic"}}, {"type": "Feature", "geometry": {"type": "Point", "coordinates": [-84.3862297, 33.7816214]}, "properties": {"name": "Illuminated Swallows", "artwork_type": "installation", "tourism": "artwork", "material": "plastic"}}, {"type": "Feature", "geometry": {"type": "Point", "coordinates": [-84.3865047, 33.7816264]}, "properties": {"name": "Illuminated Swallows", "artwork_type": "installation", "tourism": "artwork", "material": "plastic"}}, {"type": "Feature", "geometry": {"type": "Point", "coordinates": [-84.3863588, 33.7817911]}, "properties": {"name": "Lift", "artwork_type": "installation", "tourism": "artwork", "material": "bronze"}}, {"type": "Feature", "geometry": {"type": "Point", "coordinates": [-84.3876148, 33.7815077]}, "properties": {"name": "Sam Phibian", "artwork_type": "installation", "tourism": "artwork", "material": "metal"}}, {"type": "Feature", "geometry": {"type": "Point", "coordinates": [-84.3868708, 33.7815955]}, "properties": {"name": "Let Me Share The Sky With You", "artwork_type": "mural", "tourism": "artwork"}}, {"type": "Feature", "geometry": {"type": "Point", "coordinates": [-84.3903935, 33.7836635]}, "properties": {"name": "Williams Street Golden Owl", "artwork_type": "statue", "tourism": "artwork", "material": "fiberglass"}}, {"type": "Feature", "geometry": {"type": "Point", "coordinates": [-84.3861982, 33.7811387]}, "properties": {"name": "The Garden of Eden, Confinement, Forward Ever, Graffiti Sphinx", "artwork_type": "installation", "tourism": "artwork", "material": "aluminium"}}, {"type": "Feature", "geometry": {"type": "Point", "coordinates": [-84.3862183, 33.780922]}, "properties": {"name": "Confluence: Burst Forth with A Terrific Noise", "artwork_type": "mural", "tourism": "artwork", "material": "concrete"}}, {"type": "Feature", "geometry": {"type": "Point", "coordinates": [-84.3842677, 33.7813238]}, "properties": {"name": "Margaret Mitchell House", "memorial": "plaque", "material": "bronze"}}, {"type": "Feature", "geometry": {"type": "Point", "coordinates": [-84.3842355, 33.7808573]}, "properties": {"name": "The Sole Sitter", "artwork_type": "sculpture", "tourism": "artwork", "material": "bronze"}}, {"type": "Feature", "geometry": {"type": "Point", "coordinates": [-84.3837198, 33.7825274]}, "properties": {"name": "On The Strip", "artwork_type": "mural", "tourism": "artwork", "material": "concrete"}}, {"type": "Feature", "geometry": {"type": "Point", "coordinates": [-84.3856806, 33.7808896]}, "properties": {"name": "Follow The Flow", "artwork_type": "mural", "tourism": "artwork", "material": "concrete"}}, {"type": "Feature", "geometry": {"type": "Point", "coordinates": [-84.3834083, 33.7819201]}, "properties": {"name": "Thief Of Your Heart II", "artwork_type": "mural", "tourism": "artwork", "material": "concrete"}}, {"type": "Feature", "geometry": {"type": "Point", "coordinates": [-84.3833611, 33.7825203]}, "properties": {"name": "Thief Of Your Heart", "artwork_type": "mural", "tourism": "artwork", "material": "concrete"}}, {"type": "Feature", "geometry": {"type": "Point", "coordinates": [-84.3844018, 33.7808459]}, "properties": {"name": "Avenues of Engagement", "artwork_type": "installation", "tourism": "artwork", "material": "plastic"}}, {"type": "Feature", "geometry": {"type": "Point", "coordinates": [-84.3836344, 33.781506]}, "properties": {"name": "Forgotten Alchemy", "artwork_type": "installation", "tourism": "artwork", "material": "steel"}}, {"type": "Feature", "geometry": {"type": "Point", "coordinates": [-84.3888188, 33.7823774]}, "properties": {"artwork_type": "mural", "tourism": "artwork"}}, {"type": "Feature", "geometry": {"type": "Point", "coordinates": [-84.3831867, 33.7859134]}, "properties": {"name": "Atlanta Woman's Club", "memorial": "plaque", "material": "bronze"}}, {"type": "Feature", "geometry": {"type": "Point", "coordinates": [-84.3826527, 33.7815849]}, "properties": {"name": "Blooming Hill", "artwork_type": "sculpture", "tourism": "artwork", "material": "concrete"}}, {"type": "Feature", "geometry": {"type": "Point", "coordinates": [-84.3830091, 33.782211]}, "properties": {"name": "Thief Of Your Heart III", "artwork_type": "mural", "tourism": "artwork", "material": "concrete"}}, {"type": "Feature", "geometry": {"type": "Point", "coordinates": [-84.3830018, 33.7819413]}, "properties": {"name": "Henry's Don Cosme Tequila", "artwork_type": "mural", "tourism": "artwork", "material": "concrete"}}, {"type": "Feature", "geometry": {"type": "Point", "coordinates": [-84.3829021, 33.7821217]}, "properties": {"name": "Untitled - Outer Space Project", "artwork_type": "mural", "tourism": "artwork", "material": "concrete"}}, {"type": "Feature", "geometry": {"type": "Point", "coordinates": [-84.3733377, 33.7839327]}, "properties": {"artwork_type": "sculpture", "tourism": "artwork"}}, {"type": "Feature", "geometry": {"type": "Point", "coordinates": [-84.3779272, 33.7865774]}, "properties": {"name": "Tenth Street School Memorial", "memorial": "plaque", "material": "bronze"}}, {"type": "Feature", "geometry": {"type": "Point", "coordinates": [-84.3778589, 33.7866686]}, "properties": {"name": "The Last Meter", "artwork_type": "statue", "tourism": "artwork"}}, {"type": "Feature", "geometry": {"type": "Point", "coordinates": [-84.3777703, 33.7865965]}, "properties": {"name": "In Memoriam", "memorial": "plaque", "material": "bronze"}}, {"type": "Feature", "geometry": {"type": "Point", "coordinates": [-84.3775194, 33.7869539]}, "properties": {"name": "Pioneer Women", "memorial": "stone"}}, {"type": "Feature", "geometry": {"type": "Point", "coordinates": [-84.3775352, 33.7863005]}, "properties": {"name": "Booker T. Washington", "memorial": "plaque", "material": "bronze"}}, {"type": "Feature", "geometry": {"type": "Point", "coordinates": [-84.3772753, 33.7863458]}, "properties": {"name": "Cotton States Expisition Of 1895", "memorial": "plaque", "material": "bronze"}}, {"type": "Feature", "geometry": {"type": "Point", "coordinates": [-84.3777532, 33.785802]}, "properties": {"name": "Sons Of Atlanta", "memorial": "war_memorial", "material": "metal"}}, {"type": "Feature", "geometry": {"type": "Point", "coordinates": [-84.3853419, 33.7877196]}, "properties": {"name": "Olympia", "artwork_type": "sculpture", "tourism": "artwork", "material": "steel"}}, {"type": "Feature", "geometry": {"type": "Point", "coordinates": [-84.3850657, 33.7882295]}, "properties": {"name": "Stealth", "artwork_type": "sculpture", "tourism": "artwork", "material": "steel"}}, {"type": "Feature", "geometry": {"type": "Point", "coordinates": [-84.3839432, 33.7882479]}, "properties": {"name": "Sabine Woman", "artwork_type": "sculpture", "tourism": "artwork", "material": "steel"}}, {"type": "Feature", "geometry": {"type": "Point", "coordinates": [-84.383621, 33.7883782]}, "properties": {"name": "Trilon", "artwork_type": "sculpture", "tourism": "artwork", "material": "copper"}}, {"type": "Feature", "geometry": {"type": "Point", "coordinates": [-84.3902232, 33.7891032]}, "properties": {"name": "AAPI Music Princess", "artwork_type": "mural", "tourism": "artwork", "material": "concrete"}}, {"type": "Feature", "geometry": {"type": "Point", "coordinates": [-84.3853895, 33.7897771]}, "properties": {"name": "House III", "artwork_type": "installation", "tourism": "artwork", "material": "aluminium"}}, {"type": "Feature", "geometry": {"type": "Point", "coordinates": [-84.3850581, 33.7898734]}, "properties": {"name": "The Shade", "artwork_type": "statue", "memorial": "sculpture", "tourism": "artwork", "material": "bronze"}}, {"type": "Feature", "geometry": {"type": "Point", "coordinates": [-84.3843964, 33.7886411]}, "properties": {"name": "Robert W. Woodruff", "artwork_type": "statue", "tourism": "artwork", "material": "bronze"}}, {"type": "Feature", "geometry": {"type": "Point", "coordinates": [-84.3859206, 33.7889788]}, "properties": {"name": "Untitled", "artwork_type": "sculpture", "tourism": "artwork", "material": "bronze"}}, {"type": "Feature", "geometry": {"type": "Point", "coordinates": [-84.3879802, 33.7914367]}, "properties": {"name": "Union - North Mural", "artwork_type": "mural", "tourism": "artwork"}}, {"type": "Feature", "geometry": {"type": "Point", "coordinates": [-84.389089, 33.7908313]}, "properties": {"name": "Union - South Mural", "artwork_type": "mural", "tourism": "artwork"}}, {"type": "Feature", "geometry": {"type": "Point", "coordinates": [-84.3872952, 33.7891875]}, "properties": {"name": "Everyday MARTA Scenes", "artwork_type": "mural", "tourism": "artwork", "material": "concrete"}}, {"type": "Feature", "geometry": {"type": "Point", "coordinates": [-84.3876172, 33.7891359]}, "properties": {"name": "Swept Up In The Spectrum", "artwork_type": "mural", "tourism": "artwork", "material": "xterra_panel"}}, {"type": "Feature", "geometry": {"type": "Point", "coordinates": [-84.3874833, 33.7937387]}, "properties": {"name": "Pershing Point Park World War I Memorial", "memorial": "war_memorial", "material": "concrete;bronze"}}, {"type": "Feature", "geometry": {"type": "Point", "coordinates": [-84.3845316, 33.7900176]}, "properties": {"name": "Octetra", "artwork_type": "installation", "tourism": "artwork", "material": "metal"}}, {"type": "Feature", "geometry": {"type": "Point", "coordinates": [-84.3879011, 33.7961098]}, "properties": {"name": "Rhodes Hall - Le R\u00eave", "memorial": "plaque", "material": "bronze"}}, {"type": "Feature", "geometry": {"type": "Point", "coordinates": [-84.3872241, 33.794315]}, "properties": {"name": "Silhouette", "artwork_type": "mural", "tourism": "artwork", "material": "concrete"}}, {"type": "Feature", "geometry": {"type": "Point", "coordinates": [-84.3737102, 33.7908944]}, "properties": {"name": "Earth Goddess", "artwork_type": "sculpture", "tourism": "artwork"}}, {"type": "Feature", "geometry": {"type": "Point", "coordinates": [-84.39228096666668, 33.75985186666667]}, "properties": {"artwork_type": "sculpture", "tourism": "artwork"}}, {"type": "Feature", "geometry": {"type": "Point", "coordinates": [-84.39228051666666, 33.759616933333334]}, "properties": {"artwork_type": "sculpture", "tourism": "artwork"}}, {"type": "Feature", "geometry": {"type": "Point", "coordinates": [-84.39532659999999, 33.76442876666667]}, "properties": {"artwork_type": "mural", "tourism": "artwork"}}, {"type": "Feature", "geometry": {"type": "Point", "coordinates": [-84.38755037377048, 33.767555903278684]}, "properties": {"name": "Ex Static Test Program", "artwork_type": "installation", "tourism": "artwork", "material": "steel"}}, {"type": "Feature", "geometry": {"type": "Point", "coordinates": [-84.389545, 33.77371695]}, "properties": {"artwork_type": "graffiti", "tourism": "artwork"}}, {"type": "Feature", "geometry": {"type": "Point", "coordinates": [-84.38640843333333, 33.78143553333334]}, "properties": {"name": "Art Walk Crosswalk Mural", "artwork_type": "mural", "tourism": "artwork"}}, {"type": "Feature", "geometry": {"type": "Point", "coordinates": [-84.38655045, 33.782255]}, "properties": {"name": "Electric Saturation", "artwork_type": "mural", "tourism": "artwork", "material": "concrete"}}, {"type": "Feature", "geometry": {"type": "Point", "coordinates": [-84.38628453333332, 33.78317993333334]}, "properties": {"name": "Art Walk Crosswalk Mural", "artwork_type": "mural", "tourism": "artwork"}}, {"type": "Feature", "geometry": {"type": "Point", "coordinates": [-84.3862271, 33.783260899999995]}, "properties": {"name": "Art Walk Crosswalk Mural", "artwork_type": "mural", "tourism": "artwork"}}, {"type": "Feature", "geometry": {"type": "Point", "coordinates": [-84.38640780000001, 33.7815094]}, "properties": {"name": "Art Walk Crosswalk Mural", "artwork_type": "mural", "tourism": "artwork"}}, {"type": "Feature", "geometry": {"type": "Point", "coordinates": [-84.37763281666666, 33.7847959]}, "properties": {"name": "Noguchi Playscape", "artwork_type": "installation", "leisure": "playground", "tourism": "artwork", "material": "metal"}}, {"type": "Feature", "geometry": {"type": "Point", "coordinates": [-84.38481133499998, 33.788683105000004]}, "properties": {"name": "World Events", "artwork_type": "installation", "tourism": "artwork", "material": "aluminium"}}, {"type": "Feature", "geometry": {"type": "Point", "coordinates": [-84.38505193225808, 33.78986997419356]}, "properties": {"name": "Orly Memorial", "memorial": "stone", "material": "granite"}}]}