{"type": "FeatureCollection", "features": [{"type": "Feature", "geometry": {"type": "LineString", "coordinates": [[-84.397782, 33.7640823], [-84.3979777, 33.7640363], [-84.3981311, 33.7640095], [-84.3982518, 33.7639909], [-84.3983643, 33.7639774], [-84.3986149, 33.7639521]]}, "properties": {"name": "Ivan Allen Junior Boulevard", "highway": "secondary", "layer": "1", "bridge": "yes"}}, {"type": "Feature", "geometry": {"type": "LineString", "coordinates": [[-84.3978046, 33.7641871], [-84.397887, 33.7641641], [-84.3980313, 33.7641328], [-84.3981633, 33.7641092], [-84.39825, 33.7640953], [-84.398344, 33.7640816], [-84.398435, 33.7640718], [-84.3986192, 33.7640566]]}, "properties": {"highway": "footway", "bridge": "yes"}}, {"type": "Feature", "geometry": {"type": "LineString", "coordinates": [[-84.4036902, 33.7633285], [-84.403869, 33.7635296]]}, "properties": {"name": "Westside Beltline Connector", "highway": "cycleway", "surface": "concrete", "bridge": "yes"}}, {"type": "Feature", "geometry": {"type": "LineString", "coordinates": [[-84.4065147, 33.7675464], [-84.4065621, 33.7676542]]}, "properties": {"name": "Westside Beltline Connector", "highway": "cycleway", "surface": "concrete", "bridge": "yes"}}, {"type": "Feature", "geometry": {"type": "LineString", "coordinates": [[-84.4046391, 33.7641902], [-84.4047824, 33.7643413]]}, "properties": {"name": "Westside Beltline Connector", "highway": "cycleway", "surface": "concrete", "bridge": "yes"}}, {"type": "Feature", "geometry": {"type": "LineString", "coordinates": [[-84.4067656, 33.768106], [-84.4068654, 33.7683178]]}, "properties": {"name": "Westside Beltline Connector", "highway": "cycleway", "surface": "concrete", "bridge": "yes"}}, {"type": "Feature", "geometry": {"type": "LineString", "coordinates": [[-84.3986106, 33.7638465], [-84.3984397, 33.7638586], [-84.3982931, 33.763876], [-84.3981907, 33.7638892], [-84.3980354, 33.7639165], [-84.3978985, 33.7639443], [-84.3977547, 33.7639811]]}, "properties": {"highway": "footway", "bridge": "yes"}}, {"type": "Feature", "geometry": {"type": "LineString", "coordinates": [[-84.4071286, 33.7615612], [-84.407058, 33.7616137], [-84.4068881, 33.7618179], [-84.4068192, 33.7619392], [-84.4067744, 33.7620652], [-84.4067457, 33.7622026], [-84.4067388, 33.7623076], [-84.4067491, 33.7624241], [-84.4067813, 33.7625606], [-84.4068272, 33.7626838], [-84.4068743, 33.7627725], [-84.4069282, 33.7628527], [-84.4069879, 33.7629224], [-84.4070477, 33.7629778], [-84.4070936, 33.7630236], [-84.4071315, 33.7630517]]}, "properties": {"highway": "footway", "layer": "1", "bridge": "yes"}}, {"type": "Feature", "geometry": {"type": "LineString", "coordinates": [[-84.4070554, 33.7627963], [-84.4070235, 33.7627408], [-84.4069956, 33.762682], [-84.4069906, 33.7626439], [-84.4069916, 33.7626107], [-84.4070035, 33.7625767], [-84.4070235, 33.7625394], [-84.4070454, 33.7625055], [-84.4070743, 33.7624748], [-84.4071092, 33.7624458], [-84.4071401, 33.7624251], [-84.407175, 33.7624027], [-84.4072069, 33.7623787], [-84.4072398, 33.7623463]]}, "properties": {"highway": "footway", "layer": "1", "bridge": "yes"}}, {"type": "Feature", "geometry": {"type": "LineString", "coordinates": [[-84.4067388, 33.7623076], [-84.406538, 33.7623066]]}, "properties": {"highway": "footway", "layer": "1", "bridge": "yes"}}, {"type": "Feature", "geometry": {"type": "LineString", "coordinates": [[-84.4045726, 33.764191], [-84.4047201, 33.764343]]}, "properties": {"name": "Westside Beltline Connector", "highway": "cycleway", "surface": "concrete", "layer": "1", "bridge": "yes"}}, {"type": "Feature", "geometry": {"type": "Polygon", "coordinates": [[[-84.3986199, 33.7640745], [-84.3986192, 33.7640566], [-84.3986149, 33.7639521], [-84.3986106, 33.7638465], [-84.3986099, 33.7638286], [-84.398489, 33.7638388], [-84.3983141, 33.7638555], [-84.3981755, 33.7638728], [-84.3980676, 33.7638933], [-84.3979444, 33.7639189], [-84.3978165, 33.7639483], [-84.397748, 33.7639643], [-84.3977547, 33.7639811], [-84.3977665, 33.7640104], [-84.397782, 33.7640823], [-84.3978046, 33.7641871], [-84.3978081, 33.7642032], [-84.3979328, 33.7641725], [-84.3980476, 33.7641475], [-84.3981762, 33.7641225], [-84.3983064, 33.7641033], [-84.3984643, 33.764086], [-84.3986199, 33.7640745]]]}, "properties": {"name": "The Ivan Allen Junior Legacy Bridge", "layer": "1", "man_made": "bridge"}}, {"type": "Feature", "geometry": {"type": "LineString", "coordinates": [[-84.3889388, 33.7679894], [-84.3889002, 33.7678857], [-84.3888832, 33.7675983], [-84.3888717, 33.7672463], [-84.3888807, 33.7670636], [-84.3888825, 33.7668762]]}, "properties": {"highway": "motorway_link", "layer": "1", "bridge": "yes"}}, {"type": "Feature", "geometry": {"type": "LineString", "coordinates": [[-84.38894, 33.7680375], [-84.3889388, 33.7679894]]}, "properties": {"name": "Spring Techwood Connector", "highway": "primary", "layer": "1", "bridge": "yes"}}, {"type": "Feature", "geometry": {"type": "LineString", "coordinates": [[-84.3841329, 33.7647847], [-84.3842696, 33.7646136], [-84.3843037, 33.7645776], [-84.3843467, 33.7645412], [-84.3844071, 33.7645024], [-84.3844716, 33.7644719], [-84.3845776, 33.7644411], [-84.3847388, 33.7644004]]}, "properties": {"highway": "secondary_link", "layer": "1", "bridge": "yes"}}, {"type": "Feature", "geometry": {"type": "LineString", "coordinates": [[-84.3847388, 33.7644004], [-84.3845102, 33.7643191], [-84.3843993, 33.7642649], [-84.384353, 33.7642293], [-84.3843147, 33.764189], [-84.3842758, 33.7641302], [-84.3842063, 33.7640027], [-84.3841405, 33.7638951]]}, "properties": {"highway": "secondary_link", "layer": "1", "bridge": "yes"}}, {"type": "Feature", "geometry": {"type": "LineString", "coordinates": [[-84.3855647, 33.7650042], [-84.3855464, 33.7650692], [-84.3855189, 33.7651821], [-84.3854949, 33.7652955], [-84.385477, 33.7654004], [-84.3854581, 33.7656404], [-84.3854563, 33.7657818]]}, "properties": {"name": "Peachtree Street Northeast", "highway": "secondary", "surface": "concrete:plates", "layer": "1", "bridge": "yes"}}, {"type": "Feature", "geometry": {"type": "LineString", "coordinates": [[-84.3847388, 33.7644004], [-84.3851175, 33.7644294]]}, "properties": {"name": "Ralph McGill Boulevard", "highway": "secondary", "layer": "1", "bridge": "yes"}}, {"type": "Feature", "geometry": {"type": "LineString", "coordinates": [[-84.3841329, 33.7647847], [-84.3841375, 33.7644548], [-84.3841386, 33.7643537]]}, "properties": {"name": "Courtland Street Northeast", "highway": "secondary", "layer": "1", "bridge": "yes"}}, {"type": "Feature", "geometry": {"type": "LineString", "coordinates": [[-84.3899725, 33.7674085], [-84.3898837, 33.7678432], [-84.3898709, 33.7680631], [-84.3898895, 33.7682912], [-84.3899192, 33.7684192]]}, "properties": {"highway": "motorway_link", "surface": "concrete", "layer": "1", "bridge": "yes"}}, {"type": "Feature", "geometry": {"type": "LineString", "coordinates": [[-84.3900823, 33.7686427], [-84.3900539, 33.7685458], [-84.390015, 33.7683764], [-84.3899916, 33.7681978], [-84.3899855, 33.768053], [-84.3899908, 33.7679186], [-84.3900016, 33.7678055], [-84.3900217, 33.7676851], [-84.3900718, 33.7674229]]}, "properties": {"highway": "motorway_link", "surface": "concrete", "layer": "1", "bridge": "yes"}}, {"type": "Feature", "geometry": {"type": "LineString", "coordinates": [[-84.3874984, 33.7658894], [-84.3874927, 33.7665004], [-84.3874794, 33.7670698]]}, "properties": {"name": "West Peachtree Street Northwest", "highway": "tertiary", "layer": "2", "bridge": "yes"}}, {"type": "Feature", "geometry": {"type": "LineString", "coordinates": [[-84.3889388, 33.7679894], [-84.3889643, 33.7678856], [-84.3889745, 33.7674018], [-84.388986, 33.767198], [-84.3890264, 33.7670059], [-84.3890614, 33.7668887]]}, "properties": {"name": "Spring Techwood Connector", "highway": "primary", "layer": "1", "bridge": "yes"}}, {"type": "Feature", "geometry": {"type": "LineString", "coordinates": [[-84.3897541, 33.7673724], [-84.3895811, 33.767918], [-84.3895304, 33.7681021], [-84.3894985, 33.7682794], [-84.3894908, 33.7684027], [-84.3894937, 33.7685238], [-84.3895008, 33.7686488], [-84.3895214, 33.7687715], [-84.3895646, 33.7689466], [-84.3895983, 33.7690458]]}, "properties": {"highway": "motorway_link", "layer": "1", "bridge": "yes"}}, {"type": "Feature", "geometry": {"type": "LineString", "coordinates": [[-84.3882845, 33.766595], [-84.3879938, 33.7671632]]}, "properties": {"name": "Ted Turner Drive Northwest", "highway": "tertiary", "surface": "concrete", "layer": "1", "bridge": "yes"}}, {"type": "Feature", "geometry": {"type": "LineString", "coordinates": [[-84.3906471, 33.761315], [-84.3904577, 33.7613105]]}, "properties": {"highway": "pedestrian", "bridge": "yes"}}, {"type": "Feature", "geometry": {"type": "LineString", "coordinates": [[-84.387615, 33.7669337], [-84.3876269, 33.7660359]]}, "properties": {"highway": "footway", "bridge": "yes"}}, {"type": "Feature", "geometry": {"type": "LineString", "coordinates": [[-84.3840584, 33.7644477], [-84.3841375, 33.7644548], [-84.384264, 33.7644662]]}, "properties": {"highway": "footway", "layer": "1", "bridge": "yes"}}, {"type": "Feature", "geometry": {"type": "LineString", "coordinates": [[-84.3843652, 33.7642877], [-84.3843993, 33.7642649], [-84.3844217, 33.7642499]]}, "properties": {"highway": "footway", "layer": "1", "bridge": "yes"}}, {"type": "Feature", "geometry": {"type": "LineString", "coordinates": [[-84.3842739, 33.7645538], [-84.3842838, 33.7644678], [-84.3843746, 33.7644762]]}, "properties": {"highway": "footway", "bridge": "yes"}}, {"type": "Feature", "geometry": {"type": "LineString", "coordinates": [[-84.3904119, 33.765485], [-84.3904146, 33.7651941]]}, "properties": {"highway": "motorway_link", "surface": "asphalt", "layer": "1", "bridge": "yes"}}, {"type": "Feature", "geometry": {"type": "LineString", "coordinates": [[-84.3847388, 33.7644004], [-84.3842829, 33.7643648], [-84.3841386, 33.7643537]]}, "properties": {"name": "Ralph McGill Boulevard", "highway": "secondary", "layer": "1", "bridge": "yes"}}, {"type": "Feature", "geometry": {"type": "LineString", "coordinates": [[-84.3841386, 33.7643537], [-84.3841394, 33.7642729], [-84.3841405, 33.7638951], [-84.384135, 33.7636727]]}, "properties": {"name": "Courtland Street Northeast", "highway": "secondary", "layer": "1", "bridge": "yes"}}, {"type": "Feature", "geometry": {"type": "LineString", "coordinates": [[-84.3841386, 33.7643537], [-84.38403, 33.7643461], [-84.3836739, 33.7643191]]}, "properties": {"name": "Ralph McGill Boulevard", "highway": "secondary", "layer": "1", "bridge": "yes"}}, {"type": "Feature", "geometry": {"type": "LineString", "coordinates": [[-84.3882014, 33.7665513], [-84.387919, 33.7671094]]}, "properties": {"highway": "footway", "layer": "1", "bridge": "yes"}}, {"type": "Feature", "geometry": {"type": "LineString", "coordinates": [[-84.385672, 33.7650969], [-84.3856414, 33.7652171], [-84.3856104, 33.7653645], [-84.3855953, 33.765487], [-84.3855831, 33.7657109], [-84.3855784, 33.7658622]]}, "properties": {"highway": "footway", "layer": "1", "bridge": "yes"}}, {"type": "Feature", "geometry": {"type": "LineString", "coordinates": [[-84.3854678, 33.7649204], [-84.3854218, 33.7650784], [-84.3853865, 33.7652227], [-84.3853591, 33.7653956], [-84.3853434, 33.765581], [-84.3853349, 33.7657093]]}, "properties": {"highway": "footway", "surface": "concrete", "layer": "1", "bridge": "yes"}}, {"type": "Feature", "geometry": {"type": "LineString", "coordinates": [[-84.3840462, 33.7635831], [-84.3840326, 33.7642667]]}, "properties": {"highway": "footway", "layer": "1", "bridge": "yes"}}, {"type": "Feature", "geometry": {"type": "LineString", "coordinates": [[-84.385061, 33.76436], [-84.3849148, 33.76435], [-84.3847679, 33.7643394], [-84.3846637, 33.7643302], [-84.3845909, 33.7643149], [-84.3845208, 33.7642923], [-84.3844736, 33.7642719], [-84.3844298, 33.7642446]]}, "properties": {"highway": "footway", "surface": "concrete", "layer": "1", "bridge": "yes"}}, {"type": "Feature", "geometry": {"type": "LineString", "coordinates": [[-84.3890207, 33.7681516], [-84.3890227, 33.7677366], [-84.3890268, 33.767384], [-84.389032, 33.7673128], [-84.3890454, 33.767215], [-84.389096, 33.7670031], [-84.389132, 33.7668937]]}, "properties": {"highway": "footway", "layer": "1", "bridge": "yes"}}, {"type": "Feature", "geometry": {"type": "LineString", "coordinates": [[-84.3880756, 33.7672219], [-84.3883753, 33.7666427]]}, "properties": {"highway": "footway", "layer": "1", "bridge": "yes"}}, {"type": "Feature", "geometry": {"type": "LineString", "coordinates": [[-84.3874683, 33.7658869], [-84.3874613, 33.7665042], [-84.3874515, 33.7670641]]}, "properties": {"name": "MARTA North Line", "layer": "1", "bridge": "yes"}}, {"type": "Feature", "geometry": {"type": "LineString", "coordinates": [[-84.3875018, 33.767065], [-84.3875144, 33.7665134], [-84.3875262, 33.7658936]]}, "properties": {"name": "MARTA North Line", "layer": "1", "bridge": "yes"}}, {"type": "Feature", "geometry": {"type": "LineString", "coordinates": [[-84.3835938, 33.7642386], [-84.3840326, 33.7642667]]}, "properties": {"highway": "footway", "layer": "1", "bridge": "yes"}}, {"type": "Feature", "geometry": {"type": "Polygon", "coordinates": [[[-84.3851997, 33.764544], [-84.3848667, 33.7645207], [-84.3845892, 33.7647083], [-84.3845447, 33.7646651], [-84.3842461, 33.764867], [-84.3842296, 33.7648782], [-84.3841329, 33.7647847], [-84.3840196, 33.7646693], [-84.3837735, 33.7644194], [-84.3836739, 33.7643191], [-84.3835938, 33.7642386], [-84.3835827, 33.7642284], [-84.3836819, 33.764235], [-84.3839499, 33.7640549], [-84.3837489, 33.7638446], [-84.3840264, 33.7636547], [-84.3840237, 33.7635604], [-84.3840462, 33.7635831], [-84.384135, 33.7636727], [-84.3842579, 33.7637961], [-84.3842773, 33.7638156], [-84.3842746, 33.7639077], [-84.384657, 33.7643036], [-84.3846616, 33.7643084], [-84.3850478, 33.7643436], [-84.385061, 33.76436], [-84.3851175, 33.7644294], [-84.3851911, 33.7645325], [-84.3851997, 33.764544]]]}, "properties": {"layer": "1", "man_made": "bridge"}}, {"type": "Feature", "geometry": {"type": "LineString", "coordinates": [[-84.3842522, 33.7642795], [-84.3841394, 33.7642729], [-84.3840589, 33.7642682]]}, "properties": {"highway": "footway", "layer": "1", "bridge": "yes"}}, {"type": "Feature", "geometry": {"type": "LineString", "coordinates": [[-84.3840319, 33.7642887], [-84.38403, 33.7643461], [-84.3840275, 33.7644233]]}, "properties": {"highway": "footway", "layer": "1", "bridge": "yes"}}, {"type": "Feature", "geometry": {"type": "LineString", "coordinates": [[-84.3842853, 33.7644509], [-84.3842829, 33.7643648], [-84.3842812, 33.7643023]]}, "properties": {"highway": "footway", "layer": "1", "bridge": "yes"}}, {"type": "Feature", "geometry": {"type": "LineString", "coordinates": [[-84.3851911, 33.7645325], [-84.3848645, 33.7645049], [-84.3846439, 33.7644888], [-84.3845748, 33.7644932], [-84.3845091, 33.7645055], [-84.3844417, 33.7645303]]}, "properties": {"highway": "footway", "surface": "concrete", "layer": "1", "bridge": "yes"}}, {"type": "Feature", "geometry": {"type": "LineString", "coordinates": [[-84.3840269, 33.7644449], [-84.3840196, 33.7646693]]}, "properties": {"highway": "footway", "surface": "concrete", "bridge": "yes"}}, {"type": "Feature", "geometry": {"type": "LineString", "coordinates": [[-84.3837735, 33.7644194], [-84.3840269, 33.7644449]]}, "properties": {"highway": "footway", "bridge": "yes"}}, {"type": "Feature", "geometry": {"type": "LineString", "coordinates": [[-84.3856977, 33.7618675], [-84.3856979, 33.7618476], [-84.3856982, 33.7618255]]}, "properties": {"highway": "footway", "layer": "1", "bridge": "yes"}}, {"type": "Feature", "geometry": {"type": "LineString", "coordinates": [[-84.3899322, 33.7609137], [-84.3899325, 33.7610875]]}, "properties": {"highway": "pedestrian", "bridge": "yes"}}, {"type": "Feature", "geometry": {"type": "LineString", "coordinates": [[-84.3895575, 33.760909], [-84.3895482, 33.7610832]]}, "properties": {"highway": "pedestrian", "layer": "1", "bridge": "yes"}}, {"type": "Feature", "geometry": {"type": "LineString", "coordinates": [[-84.3902656, 33.7610915], [-84.3902642, 33.7609165]]}, "properties": {"highway": "pedestrian", "bridge": "yes"}}, {"type": "Feature", "geometry": {"type": "LineString", "coordinates": [[-84.3925573, 33.7607069], [-84.3924998, 33.7607064]]}, "properties": {"highway": "footway", "surface": "paving_stones", "layer": "1", "bridge": "yes"}}, {"type": "Feature", "geometry": {"type": "LineString", "coordinates": [[-84.3925532, 33.761001], [-84.392497, 33.7610008]]}, "properties": {"highway": "footway", "surface": "paving_stones", "layer": "1", "bridge": "yes"}}, {"type": "Feature", "geometry": {"type": "LineString", "coordinates": [[-84.39255, 33.7612823], [-84.3924954, 33.7612816]]}, "properties": {"highway": "footway", "surface": "paving_stones", "layer": "1", "bridge": "yes"}}, {"type": "Feature", "geometry": {"type": "LineString", "coordinates": [[-84.3865964, 33.7610602], [-84.3866002, 33.7608941]]}, "properties": {"highway": "footway", "layer": "1", "bridge": "yes"}}, {"type": "Feature", "geometry": {"type": "LineString", "coordinates": [[-84.3910852, 33.7645807], [-84.3914451, 33.7645801]]}, "properties": {"highway": "footway", "bridge": "yes"}}, {"type": "Feature", "geometry": {"type": "LineString", "coordinates": [[-84.3888433, 33.7668734], [-84.388827, 33.7678849]]}, "properties": {"highway": "footway", "layer": "1", "bridge": "yes"}}, {"type": "Feature", "geometry": {"type": "LineString", "coordinates": [[-84.3912755, 33.7647333], [-84.3909151, 33.7647345]]}, "properties": {"highway": "footway", "bridge": "yes"}}, {"type": "Feature", "geometry": {"type": "LineString", "coordinates": [[-84.3843746, 33.7644762], [-84.3844071, 33.7645024], [-84.3844284, 33.7645196]]}, "properties": {"highway": "footway", "layer": "1", "bridge": "yes"}}, {"type": "Feature", "geometry": {"type": "LineString", "coordinates": [[-84.3843232, 33.7645931], [-84.3843037, 33.7645776], [-84.3842739, 33.7645538]]}, "properties": {"highway": "footway", "layer": "1", "bridge": "yes"}}, {"type": "Feature", "geometry": {"type": "LineString", "coordinates": [[-84.3843361, 33.7641724], [-84.3843147, 33.764189], [-84.3842791, 33.7642171]]}, "properties": {"highway": "footway", "layer": "1", "bridge": "yes"}}, {"type": "Feature", "geometry": {"type": "LineString", "coordinates": [[-84.3842816, 33.7642813], [-84.3843652, 33.7642877]]}, "properties": {"highway": "footway", "bridge": "yes"}}, {"type": "Feature", "geometry": {"type": "LineString", "coordinates": [[-84.3842791, 33.7642171], [-84.3842816, 33.7642813]]}, "properties": {"highway": "footway", "bridge": "yes"}}, {"type": "Feature", "geometry": {"type": "LineString", "coordinates": [[-84.3843434, 33.7641668], [-84.3843167, 33.7641273], [-84.3842845, 33.7640732], [-84.384263, 33.7640016], [-84.3842553, 33.7639472], [-84.3842553, 33.7638979], [-84.3842579, 33.7637961]]}, "properties": {"highway": "footway", "surface": "concrete", "bridge": "yes"}}, {"type": "Feature", "geometry": {"type": "LineString", "coordinates": [[-84.3844298, 33.7642446], [-84.3843871, 33.7642084], [-84.3843434, 33.7641668]]}, "properties": {"highway": "footway", "surface": "concrete", "bridge": "yes"}}, {"type": "Feature", "geometry": {"type": "LineString", "coordinates": [[-84.3843334, 33.7646012], [-84.3842826, 33.7646679], [-84.3842677, 33.7647129], [-84.3842516, 33.7647681], [-84.3842461, 33.764867]]}, "properties": {"highway": "footway", "surface": "concrete", "layer": "1", "bridge": "yes"}}, {"type": "Feature", "geometry": {"type": "LineString", "coordinates": [[-84.3844417, 33.7645303], [-84.3843783, 33.7645657], [-84.3843334, 33.7646012]]}, "properties": {"highway": "footway", "surface": "concrete", "bridge": "yes"}}, {"type": "Feature", "geometry": {"type": "Polygon", "coordinates": [[[-84.3891513, 33.7668951], [-84.389132, 33.7668937], [-84.3890614, 33.7668887], [-84.3888825, 33.7668762], [-84.3888433, 33.7668734], [-84.3888262, 33.7668722], [-84.3888166, 33.7674243], [-84.3888106, 33.7678454], [-84.3888104, 33.7678564], [-84.38894, 33.7680375], [-84.3890207, 33.7681516], [-84.3890401, 33.7681791], [-84.389043, 33.7679349], [-84.3890479, 33.7675472], [-84.3890488, 33.7674775], [-84.3890515, 33.7674209], [-84.3890567, 33.7673135], [-84.3890733, 33.767183], [-84.3890835, 33.7671374], [-84.3891042, 33.7670447], [-84.3891267, 33.7669732], [-84.3891513, 33.7668951]]]}, "properties": {"layer": "1", "man_made": "bridge"}}, {"type": "Feature", "geometry": {"type": "Polygon", "coordinates": [[[-84.3905015, 33.7654014], [-84.3904119, 33.765485], [-84.390295, 33.7655939], [-84.3901711, 33.7657096], [-84.3900952, 33.7657803], [-84.3901169, 33.7657054], [-84.3901363, 33.7656384], [-84.3901053, 33.765481], [-84.3902417, 33.7653544], [-84.39031, 33.7652911], [-84.3904146, 33.7651941], [-84.3904985, 33.7651164], [-84.3905015, 33.7654014]]]}, "properties": {"layer": "1", "man_made": "bridge"}}, {"type": "Feature", "geometry": {"type": "LineString", "coordinates": [[-84.39031, 33.7652911], [-84.390295, 33.7655939]]}, "properties": {"highway": "motorway_link", "layer": "1", "bridge": "yes"}}, {"type": "Feature", "geometry": {"type": "Polygon", "coordinates": [[[-84.3899792, 33.765871], [-84.3898098, 33.7657441], [-84.3899455, 33.7656289], [-84.3899805, 33.7655991], [-84.3901169, 33.7657054], [-84.3900952, 33.7657803], [-84.3900311, 33.7658304], [-84.3899792, 33.765871]]]}, "properties": {"layer": "1", "man_made": "bridge"}}, {"type": "Feature", "geometry": {"type": "LineString", "coordinates": [[-84.3902417, 33.7653544], [-84.3902208, 33.7654759], [-84.3901711, 33.7657096]]}, "properties": {"highway": "motorway_link", "layer": "1", "bridge": "yes"}}, {"type": "Feature", "geometry": {"type": "Polygon", "coordinates": [[[-84.3914634, 33.7645636], [-84.3912689, 33.7644148], [-84.3910852, 33.7645807], [-84.3910001, 33.7646576], [-84.3909151, 33.7647345], [-84.3909043, 33.7647443], [-84.3910988, 33.764893], [-84.3912755, 33.7647333], [-84.3913608, 33.7646562], [-84.3914451, 33.7645801], [-84.3914634, 33.7645636]]]}, "properties": {"layer": "1", "man_made": "bridge"}}, {"type": "Feature", "geometry": {"type": "LineString", "coordinates": [[-84.3910001, 33.7646576], [-84.3913608, 33.7646562]]}, "properties": {"name": "Ivan Allen Junior Boulevard", "highway": "secondary", "layer": "1", "bridge": "yes"}}, {"type": "Feature", "geometry": {"type": "LineString", "coordinates": [[-84.3899455, 33.7656289], [-84.3899814, 33.7656839], [-84.3900135, 33.7657534], [-84.3900311, 33.7658304]]}, "properties": {"highway": "motorway_link", "layer": "1", "bridge": "yes"}}, {"type": "Feature", "geometry": {"type": "Polygon", "coordinates": [[[-84.390141, 33.7686317], [-84.3900823, 33.7686427], [-84.3900346, 33.7686516], [-84.3899918, 33.7684973], [-84.3899701, 33.7684106], [-84.3899192, 33.7684192], [-84.3898653, 33.7684282], [-84.3898421, 33.7683107], [-84.3898269, 33.768161], [-84.389824, 33.7680371], [-84.3898334, 33.7678737], [-84.3898464, 33.7677629], [-84.3898673, 33.7676557], [-84.3898824, 33.7675785], [-84.3899184, 33.7674007], [-84.3899725, 33.7674085], [-84.3900718, 33.7674229], [-84.3901301, 33.7674313], [-84.3900793, 33.7676828], [-84.3900624, 33.7677665], [-84.3900544, 33.7678248], [-84.3900415, 33.7679185], [-84.3900343, 33.7680616], [-84.3900401, 33.7681879], [-84.3900588, 33.7683334], [-84.3900948, 33.7684908], [-84.390141, 33.7686317]]]}, "properties": {"layer": "1", "man_made": "bridge"}}, {"type": "Feature", "geometry": {"type": "Polygon", "coordinates": [[[-84.3898059, 33.7673838], [-84.3897541, 33.7673724], [-84.3896993, 33.7673604], [-84.3895884, 33.7677064], [-84.3895598, 33.7677976], [-84.3894942, 33.7680066], [-84.3894939, 33.7680079], [-84.3894827, 33.7680574], [-84.389454, 33.7681837], [-84.3894321, 33.7683934], [-84.3894347, 33.7685009], [-84.3894359, 33.7685507], [-84.3894502, 33.7686865], [-84.3894627, 33.7687631], [-84.3894693, 33.768804], [-84.3894999, 33.7689184], [-84.3895477, 33.7690606], [-84.3895983, 33.7690458], [-84.389648, 33.7690312], [-84.3895897, 33.7688493], [-84.3895611, 33.7687151], [-84.3895467, 33.768592], [-84.389541, 33.7684625], [-84.3895458, 33.7683306], [-84.3895649, 33.7681797], [-84.3895676, 33.7681686], [-84.3896031, 33.7680217], [-84.3896481, 33.7678738], [-84.3896623, 33.7678271], [-84.3897478, 33.7675632], [-84.3898059, 33.7673838]]]}, "properties": {"layer": "1", "man_made": "bridge"}}, {"type": "Feature", "geometry": {"type": "Polygon", "coordinates": [[[-84.3883876, 33.7666491], [-84.3883753, 33.7666427], [-84.3882845, 33.766595], [-84.3882014, 33.7665513], [-84.3881874, 33.766544], [-84.3879069, 33.7671008], [-84.387919, 33.7671094], [-84.3879938, 33.7671632], [-84.3880756, 33.7672219], [-84.3880889, 33.7672315], [-84.3883876, 33.7666491]]]}, "properties": {"layer": "1", "man_made": "bridge", "bridge": "yes"}}, {"type": "Feature", "geometry": {"type": "Polygon", "coordinates": [[[-84.3856014, 33.7658773], [-84.3855784, 33.7658622], [-84.3854563, 33.7657818], [-84.3853164, 33.7656897], [-84.3853177, 33.7655682], [-84.3853281, 33.7654376], [-84.3853457, 33.7653194], [-84.3853731, 33.7651714], [-84.3854064, 33.7650494], [-84.3854514, 33.7649062], [-84.3854678, 33.7649204], [-84.3855647, 33.7650042], [-84.385672, 33.7650969], [-84.3856842, 33.7651074], [-84.3856425, 33.7652955], [-84.3856196, 33.7654528], [-84.3856098, 33.7656122], [-84.3856014, 33.7658773]]]}, "properties": {"layer": "1", "man_made": "bridge"}}, {"type": "Feature", "geometry": {"type": "LineString", "coordinates": [[-84.3842812, 33.7643023], [-84.3842816, 33.7642813]]}, "properties": {"highway": "footway", "surface": "concrete", "bridge": "yes"}}, {"type": "Feature", "geometry": {"type": "LineString", "coordinates": [[-84.3842816, 33.7642813], [-84.3842522, 33.7642795]]}, "properties": {"highway": "footway", "surface": "concrete", "bridge": "yes"}}, {"type": "Feature", "geometry": {"type": "LineString", "coordinates": [[-84.3840589, 33.7642682], [-84.3840326, 33.7642667]]}, "properties": {"highway": "footway", "surface": "concrete", "layer": "1", "bridge": "yes"}}, {"type": "Feature", "geometry": {"type": "LineString", "coordinates": [[-84.3840326, 33.7642667], [-84.3840319, 33.7642887]]}, "properties": {"highway": "footway", "surface": "concrete", "layer": "1", "bridge": "yes"}}, {"type": "Feature", "geometry": {"type": "LineString", "coordinates": [[-84.3840275, 33.7644233], [-84.3840269, 33.7644449]]}, "properties": {"highway": "footway", "surface": "concrete", "bridge": "yes"}}, {"type": "Feature", "geometry": {"type": "LineString", "coordinates": [[-84.3840269, 33.7644449], [-84.3840584, 33.7644477]]}, "properties": {"highway": "footway", "surface": "concrete", "bridge": "yes"}}, {"type": "Feature", "geometry": {"type": "LineString", "coordinates": [[-84.384264, 33.7644662], [-84.3842838, 33.7644678]]}, "properties": {"highway": "footway", "surface": "concrete", "bridge": "yes"}}, {"type": "Feature", "geometry": {"type": "LineString", "coordinates": [[-84.3842838, 33.7644678], [-84.3842853, 33.7644509]]}, "properties": {"highway": "footway", "surface": "concrete", "bridge": "yes"}}, {"type": "Feature", "geometry": {"type": "LineString", "coordinates": [[-84.3844217, 33.7642499], [-84.3844298, 33.7642446]]}, "properties": {"highway": "footway", "surface": "concrete", "bridge": "yes"}}, {"type": "Feature", "geometry": {"type": "LineString", "coordinates": [[-84.3843434, 33.7641668], [-84.3843361, 33.7641724]]}, "properties": {"highway": "footway", "surface": "concrete", "bridge": "yes"}}, {"type": "Feature", "geometry": {"type": "LineString", "coordinates": [[-84.3844284, 33.7645196], [-84.3844417, 33.7645303]]}, "properties": {"highway": "footway", "surface": "concrete", "bridge": "yes"}}, {"type": "Feature", "geometry": {"type": "LineString", "coordinates": [[-84.3843334, 33.7646012], [-84.3843232, 33.7645931]]}, "properties": {"highway": "footway", "surface": "concrete", "bridge": "yes"}}, {"type": "Feature", "geometry": {"type": "LineString", "coordinates": [[-84.3859229, 33.7610623], [-84.3861729, 33.7608707]]}, "properties": {"highway": "path", "layer": "2", "bridge": "yes"}}, {"type": "Feature", "geometry": {"type": "LineString", "coordinates": [[-84.385487, 33.7618246], [-84.3854859, 33.7618466], [-84.3861311, 33.7618515]]}, "properties": {"highway": "path", "layer": "2", "bridge": "yes"}}, {"type": "Feature", "geometry": {"type": "LineString", "coordinates": [[-84.3836804, 33.7615598], [-84.3843033, 33.7615686]]}, "properties": {"highway": "path", "layer": "2", "bridge": "yes"}}, {"type": "Feature", "geometry": {"type": "LineString", "coordinates": [[-84.3781991, 33.7602014], [-84.3783479, 33.7601781], [-84.3784751, 33.7601473], [-84.3785972, 33.7601101], [-84.378715, 33.7600623], [-84.3788297, 33.7600055], [-84.3789475, 33.7599395], [-84.379042, 33.7598747], [-84.3791394, 33.7597972], [-84.3792023, 33.7597393], [-84.3792746, 33.759663], [-84.3793434, 33.7595785], [-84.3793997, 33.7595006], [-84.3794529, 33.759407], [-84.3794963, 33.7593158], [-84.3795275, 33.7592265], [-84.3795608, 33.7591117], [-84.379582, 33.7589714], [-84.3795923, 33.7588222], [-84.3795858, 33.7586975], [-84.3795792, 33.7586125], [-84.3795651, 33.7585275], [-84.3795137, 33.7582963], [-84.3792549, 33.7572749]]}, "properties": {"highway": "motorway_link", "layer": "2", "bridge": "yes"}}, {"type": "Feature", "geometry": {"type": "LineString", "coordinates": [[-84.380275, 33.7609159], [-84.380325, 33.760949], [-84.3805148, 33.761039], [-84.3806853, 33.761094], [-84.3808211, 33.761124], [-84.3809456, 33.7611378], [-84.3810906, 33.7611329], [-84.3812067, 33.7611185], [-84.3813146, 33.7611028], [-84.3814903, 33.7610637], [-84.3815798, 33.7610479]]}, "properties": {"highway": "motorway_link", "surface": "concrete", "layer": "1", "bridge": "yes"}}, {"type": "Feature", "geometry": {"type": "LineString", "coordinates": [[-84.381553, 33.7609697], [-84.3814125, 33.7610002], [-84.3812811, 33.7610258], [-84.381183, 33.761042], [-84.3810866, 33.7610526], [-84.3809592, 33.7610571], [-84.380824, 33.761048], [-84.3807138, 33.761027], [-84.380596, 33.760991], [-84.3804952, 33.7609444], [-84.380396, 33.760888], [-84.380339, 33.7608522]]}, "properties": {"highway": "motorway_link", "surface": "concrete", "layer": "1", "bridge": "yes"}}, {"type": "Feature", "geometry": {"type": "LineString", "coordinates": [[-84.3791075, 33.7602447], [-84.3791885, 33.7602085]]}, "properties": {"name": "Andrew Young International Boulevard Northeast", "highway": "secondary", "layer": "2", "bridge": "yes"}}, {"type": "Feature", "geometry": {"type": "LineString", "coordinates": [[-84.3790678, 33.7601915], [-84.3791885, 33.7602085]]}, "properties": {"highway": "secondary_link", "layer": "2", "bridge": "yes"}}, {"type": "Feature", "geometry": {"type": "LineString", "coordinates": [[-84.3801808, 33.7593333], [-84.3800638, 33.7592823], [-84.379916, 33.7592411], [-84.379758, 33.7592141], [-84.3796215, 33.7592077], [-84.3795416, 33.7592129], [-84.3794622, 33.7592251], [-84.3793406, 33.7592594], [-84.379252, 33.7592925], [-84.3791715, 33.7593274], [-84.3789971, 33.7594158], [-84.3786907, 33.7595805], [-84.3784711, 33.7596949], [-84.3782971, 33.7597753]]}, "properties": {"highway": "motorway_link", "layer": "1", "bridge": "yes"}}, {"type": "Feature", "geometry": {"type": "LineString", "coordinates": [[-84.3821311, 33.7618307], [-84.3821216, 33.762086], [-84.3821169, 33.7621979]]}, "properties": {"name": "Piedmont Avenue Northeast", "highway": "secondary", "layer": "1", "bridge": "yes"}}, {"type": "Feature", "geometry": {"type": "LineString", "coordinates": [[-84.3821169, 33.7621979], [-84.382249, 33.7621989], [-84.3825319, 33.7622012]]}, "properties": {"name": "Baker Street Northeast", "highway": "secondary", "layer": "1", "bridge": "yes"}}, {"type": "Feature", "geometry": {"type": "LineString", "coordinates": [[-84.3743171, 33.7598666], [-84.3743036, 33.7604696]]}, "properties": {"name": "Jackson Street Northeast", "highway": "tertiary", "surface": "asphalt", "layer": "1", "bridge": "yes"}}, {"type": "Feature", "geometry": {"type": "LineString", "coordinates": [[-84.38192, 33.7619664], [-84.381883, 33.7619983], [-84.3818607, 33.7620133], [-84.3818274, 33.7620334], [-84.3817895, 33.7620507], [-84.3817386, 33.7620676], [-84.3816725, 33.7620801], [-84.3816093, 33.7620831], [-84.381126, 33.7620872]]}, "properties": {"name": "Stone Mountain Trail", "highway": "path", "surface": "concrete", "bridge": "yes"}}, {"type": "Feature", "geometry": {"type": "LineString", "coordinates": [[-84.3797197, 33.7587743], [-84.3794596, 33.7588613], [-84.3785616, 33.7592677]]}, "properties": {"name": "Ellis Street Northeast", "highway": "secondary", "layer": "1", "bridge": "yes"}}, {"type": "Feature", "geometry": {"type": "LineString", "coordinates": [[-84.3797197, 33.7587743], [-84.3795052, 33.7588982], [-84.3786166, 33.7594141]]}, "properties": {"highway": "secondary_link", "layer": "1", "bridge": "yes"}}, {"type": "Feature", "geometry": {"type": "LineString", "coordinates": [[-84.3715209, 33.7627126], [-84.3715173, 33.762881]]}, "properties": {"highway": "footway", "layer": "1", "bridge": "yes"}}, {"type": "Feature", "geometry": {"type": "LineString", "coordinates": [[-84.3717204, 33.7630795], [-84.3723414, 33.7630919]]}, "properties": {"highway": "footway", "layer": "1", "bridge": "yes"}}, {"type": "Feature", "geometry": {"type": "LineString", "coordinates": [[-84.3821169, 33.7621979], [-84.3821129, 33.7622927], [-84.3821031, 33.7627026], [-84.3821005, 33.7628162]]}, "properties": {"name": "Piedmont Avenue Northeast", "highway": "secondary", "layer": "1", "bridge": "yes"}}, {"type": "Feature", "geometry": {"type": "LineString", "coordinates": [[-84.3814031, 33.762192], [-84.3819783, 33.7621967], [-84.3821169, 33.7621979]]}, "properties": {"name": "Baker Street Northeast", "highway": "secondary", "layer": "1", "bridge": "yes"}}, {"type": "Feature", "geometry": {"type": "Polygon", "coordinates": [[[-84.3796595, 33.7586052], [-84.3795792, 33.7586125], [-84.379514, 33.7586185], [-84.379525, 33.7587493], [-84.3795304, 33.7588301], [-84.3795237, 33.7589404], [-84.3795103, 33.7590377], [-84.3794884, 33.759133], [-84.3794608, 33.7592137], [-84.3794218, 33.7593079], [-84.3793695, 33.7594043], [-84.3793369, 33.7594596], [-84.3793024, 33.7595093], [-84.3792524, 33.7595782], [-84.3791853, 33.7596583], [-84.379109, 33.7597302], [-84.3790249, 33.7598008], [-84.3789237, 33.7598737], [-84.3788505, 33.7599214], [-84.3787681, 33.759968], [-84.3786672, 33.760015], [-84.3785488, 33.7600619], [-84.3784376, 33.7600972], [-84.3783151, 33.7601277], [-84.3781883, 33.7601508], [-84.3781991, 33.7602014], [-84.3782138, 33.7602706], [-84.3783518, 33.7602455], [-84.3784847, 33.7602124], [-84.3786065, 33.7601738], [-84.3787345, 33.760123], [-84.3788451, 33.7600715], [-84.3789369, 33.7600196], [-84.3790168, 33.7599676], [-84.3791248, 33.7598896], [-84.3792159, 33.7598133], [-84.3793006, 33.7597335], [-84.3793752, 33.7596444], [-84.3794283, 33.7595711], [-84.3794661, 33.7595168], [-84.3795018, 33.759456], [-84.3795579, 33.7593529], [-84.3796005, 33.7592501], [-84.3796309, 33.7591611], [-84.379655, 33.7590561], [-84.3796696, 33.7589504], [-84.3796769, 33.7588297], [-84.3796709, 33.7587417], [-84.3796595, 33.7586052]]]}, "properties": {"layer": "2", "man_made": "bridge"}}, {"type": "Feature", "geometry": {"type": "Polygon", "coordinates": [[[-84.3803616, 33.7633384], [-84.38036, 33.7632289], [-84.3803233, 33.7632292], [-84.3803249, 33.7633388], [-84.3803616, 33.7633384]]]}, "properties": {"bridge": "yes"}}, {"type": "Feature", "geometry": {"type": "LineString", "coordinates": [[-84.3814031, 33.762192], [-84.3815493, 33.7622389], [-84.3816217, 33.7622668], [-84.3816834, 33.7622935], [-84.3817473, 33.7623268], [-84.3818038, 33.762361], [-84.381847, 33.7623916], [-84.3818906, 33.762432], [-84.3819251, 33.7624711], [-84.3819471, 33.7625008], [-84.3819808, 33.7625433], [-84.382026, 33.7626012], [-84.3821031, 33.7627026]]}, "properties": {"highway": "secondary_link", "surface": "concrete", "layer": "1", "bridge": "yes"}}, {"type": "Feature", "geometry": {"type": "LineString", "coordinates": [[-84.3821311, 33.7618307], [-84.3820648, 33.7619016], [-84.3820324, 33.7619348], [-84.3820022, 33.7619638], [-84.3819587, 33.7619966], [-84.381913, 33.7620334], [-84.3818614, 33.7620609], [-84.3818114, 33.7620847], [-84.3817681, 33.7621049], [-84.3817008, 33.7621268], [-84.3816228, 33.7621506], [-84.3814031, 33.762192]]}, "properties": {"highway": "secondary_link", "surface": "concrete", "layer": "1", "bridge": "yes"}}, {"type": "Feature", "geometry": {"type": "LineString", "coordinates": [[-84.3822218, 33.7619072], [-84.3822202, 33.7619496], [-84.3822279, 33.7619805], [-84.3822376, 33.7620061], [-84.3822493, 33.7620254], [-84.3822672, 33.7620486], [-84.3822902, 33.7620736]]}, "properties": {"highway": "footway", "bridge": "yes"}}, {"type": "Feature", "geometry": {"type": "LineString", "coordinates": [[-84.3822052, 33.7628949], [-84.3822202, 33.762302], [-84.3822318, 33.7622928]]}, "properties": {"highway": "footway", "bridge": "yes"}}, {"type": "Feature", "geometry": {"type": "LineString", "coordinates": [[-84.3819047, 33.7625235], [-84.3819767, 33.7626685], [-84.3819881, 33.7627325], [-84.3819872, 33.7628644]]}, "properties": {"highway": "footway", "bridge": "yes"}}, {"type": "Feature", "geometry": {"type": "LineString", "coordinates": [[-84.3817201, 33.7623577], [-84.3817733, 33.7623911], [-84.3818262, 33.7624335], [-84.381871, 33.7624794], [-84.3819047, 33.7625235]]}, "properties": {"highway": "footway", "bridge": "yes"}}, {"type": "Feature", "geometry": {"type": "LineString", "coordinates": [[-84.3743891, 33.7604706], [-84.3744004, 33.7598676]]}, "properties": {"highway": "footway", "surface": "concrete", "layer": "1", "bridge": "yes"}}, {"type": "Feature", "geometry": {"type": "LineString", "coordinates": [[-84.3814031, 33.762192], [-84.3812582, 33.7621889]]}, "properties": {"name": "Baker Street Northeast", "highway": "secondary", "layer": "1", "bridge": "yes"}}, {"type": "Feature", "geometry": {"type": "Polygon", "coordinates": [[[-84.3822299, 33.7629134], [-84.3822052, 33.7628949], [-84.3821005, 33.7628162], [-84.3819881, 33.7627325], [-84.3812582, 33.7621889], [-84.381126, 33.7620872], [-84.3810846, 33.7620527], [-84.3811299, 33.7620101], [-84.381248, 33.7618991], [-84.3813515, 33.7618018], [-84.3816412, 33.7620237], [-84.3817645, 33.7619133], [-84.3819484, 33.7617486], [-84.3819898, 33.7617115], [-84.3821311, 33.7618307], [-84.3822218, 33.7619072], [-84.3824514, 33.7621264], [-84.3825319, 33.7622012], [-84.3826301, 33.7622977], [-84.3825814, 33.7623417], [-84.3824275, 33.7624806], [-84.3823332, 33.7625656], [-84.382482, 33.762686], [-84.3823801, 33.7627779], [-84.382271, 33.7628763], [-84.3822299, 33.7629134]]]}, "properties": {"layer": "1", "man_made": "bridge"}}, {"type": "Feature", "geometry": {"type": "LineString", "coordinates": [[-84.3819768, 33.7622924], [-84.3817774, 33.7622924]]}, "properties": {"highway": "footway", "surface": "concrete", "bridge": "yes"}}, {"type": "Feature", "geometry": {"type": "LineString", "coordinates": [[-84.3819827, 33.7620902], [-84.3819858, 33.7620178]]}, "properties": {"highway": "footway", "surface": "concrete", "bridge": "yes"}}, {"type": "Feature", "geometry": {"type": "LineString", "coordinates": [[-84.3742181, 33.7604686], [-84.3742294, 33.7598656]]}, "properties": {"highway": "footway", "layer": "1", "bridge": "yes"}}, {"type": "Feature", "geometry": {"type": "LineString", "coordinates": [[-84.3822318, 33.7622928], [-84.3822534, 33.762286], [-84.3826072, 33.762285]]}, "properties": {"highway": "footway", "bridge": "yes"}}, {"type": "Feature", "geometry": {"type": "LineString", "coordinates": [[-84.3822902, 33.7620736], [-84.382324, 33.7620978], [-84.3823562, 33.7621127], [-84.3824012, 33.7621242], [-84.3824514, 33.7621264]]}, "properties": {"highway": "footway", "bridge": "yes"}}, {"type": "Feature", "geometry": {"type": "LineString", "coordinates": [[-84.3819768, 33.7622924], [-84.3819819, 33.7624822]]}, "properties": {"highway": "footway", "surface": "concrete", "bridge": "yes"}}, {"type": "Feature", "geometry": {"type": "LineString", "coordinates": [[-84.3814738, 33.7622799], [-84.3815651, 33.7622965], [-84.3816601, 33.7623285], [-84.3817201, 33.7623577]]}, "properties": {"highway": "footway", "bridge": "yes"}}, {"type": "Feature", "geometry": {"type": "LineString", "coordinates": [[-84.3820125, 33.7617325], [-84.3820123, 33.7617617], [-84.3820093, 33.7617862], [-84.3820064, 33.7618132], [-84.3819996, 33.7618389], [-84.3819871, 33.7618712], [-84.3819703, 33.7619031], [-84.3819548, 33.7619263], [-84.381939, 33.7619461], [-84.38192, 33.7619664]]}, "properties": {"name": "Stone Mountain Trail", "highway": "path", "surface": "concrete", "bridge": "yes"}}, {"type": "Feature", "geometry": {"type": "Polygon", "coordinates": [[[-84.3807899, 33.759572], [-84.3808026, 33.7596619], [-84.3808157, 33.7597606], [-84.3806422, 33.7597861], [-84.3805163, 33.7598105], [-84.3803363, 33.7598582], [-84.3801648, 33.7599184], [-84.3797891, 33.7600719], [-84.3791727, 33.7603322], [-84.3791075, 33.7602447], [-84.3790678, 33.7601915], [-84.3790266, 33.7601364], [-84.3790449, 33.7601283], [-84.3790762, 33.7601342], [-84.3791069, 33.7601364], [-84.379133, 33.7601326], [-84.3791682, 33.7601218], [-84.3799381, 33.759799], [-84.3800583, 33.7597494], [-84.3801449, 33.7597177], [-84.3802851, 33.7596717], [-84.380401, 33.7596393], [-84.3805636, 33.7596062], [-84.3807471, 33.7595762], [-84.3807899, 33.759572]]]}, "properties": {"layer": "1", "man_made": "bridge"}}, {"type": "Feature", "geometry": {"type": "Polygon", "coordinates": [[[-84.3802422, 33.7609486], [-84.380275, 33.7609159], [-84.380339, 33.7608522], [-84.3803728, 33.7608185], [-84.3805223, 33.7609055], [-84.3806388, 33.7609568], [-84.3807552, 33.7609905], [-84.3808589, 33.761008], [-84.3809971, 33.7610136], [-84.3811519, 33.7610024], [-84.3813142, 33.7609736], [-84.3815373, 33.7609237], [-84.381553, 33.7609697], [-84.3815798, 33.7610479], [-84.3815937, 33.7610886], [-84.381369, 33.761141], [-84.381215, 33.7611679], [-84.3810858, 33.7611829], [-84.3809829, 33.7611879], [-84.3808259, 33.7611791], [-84.3807064, 33.7611604], [-84.3806215, 33.7611398], [-84.3805268, 33.7611067], [-84.3804157, 33.7610555], [-84.3803217, 33.761003], [-84.3802422, 33.7609486]]]}, "properties": {"layer": "1", "man_made": "bridge"}}, {"type": "Feature", "geometry": {"type": "LineString", "coordinates": [[-84.3791885, 33.7602085], [-84.3801661, 33.7598112], [-84.3802986, 33.7597633], [-84.3804311, 33.7597299], [-84.3805634, 33.7596992], [-84.3807191, 33.759673], [-84.3808026, 33.7596619]]}, "properties": {"name": "Andrew Young International Boulevard Northeast", "highway": "secondary", "layer": "2", "bridge": "yes"}}, {"type": "Feature", "geometry": {"type": "Polygon", "coordinates": [[[-84.3801575, 33.7593862], [-84.3801808, 33.7593333], [-84.3802077, 33.759272], [-84.3801029, 33.7592171], [-84.3799678, 33.7591751], [-84.3798755, 33.7591553], [-84.3797566, 33.7591388], [-84.3796417, 33.7591388], [-84.3795483, 33.7591459], [-84.3794594, 33.7591586], [-84.379298, 33.7592019], [-84.3791553, 33.7592555], [-84.3790102, 33.759327], [-84.3788176, 33.7594311], [-84.3785215, 33.7595851], [-84.378258, 33.7597142], [-84.3782971, 33.7597753], [-84.3783278, 33.7598232], [-84.378495, 33.7597446], [-84.3786689, 33.7596573], [-84.3790282, 33.7594642], [-84.3792402, 33.7593596], [-84.3793393, 33.7593211], [-84.3794196, 33.759295], [-84.379518, 33.7592771], [-84.379612, 33.7592658], [-84.3796948, 33.7592636], [-84.379807, 33.7592706], [-84.3798989, 33.7592869], [-84.3799768, 33.759313], [-84.3800706, 33.7593434], [-84.3801317, 33.7593718], [-84.3801575, 33.7593862]]]}, "properties": {"layer": "1", "man_made": "bridge"}}, {"type": "Feature", "geometry": {"type": "Polygon", "coordinates": [[[-84.3785361, 33.7591997], [-84.3785616, 33.7592677], [-84.3786166, 33.7594141], [-84.3786391, 33.7594738], [-84.3788424, 33.7593501], [-84.3790796, 33.7592119], [-84.3793123, 33.7590875], [-84.3794716, 33.759004], [-84.3797321, 33.7588767], [-84.3799622, 33.7587687], [-84.3801189, 33.7587061], [-84.3803573, 33.7586209], [-84.3803179, 33.7585455], [-84.3802693, 33.7584528], [-84.3799967, 33.7585433], [-84.3797319, 33.758655], [-84.3794625, 33.7587814], [-84.3791593, 33.758918], [-84.3788425, 33.7590633], [-84.3785361, 33.7591997]]]}, "properties": {"layer": "1", "man_made": "bridge"}}, {"type": "Feature", "geometry": {"type": "Polygon", "coordinates": [[[-84.3744095, 33.7604708], [-84.3743891, 33.7604706], [-84.3743036, 33.7604696], [-84.3742181, 33.7604686], [-84.3742068, 33.7604685], [-84.374217, 33.7598654], [-84.3742294, 33.7598656], [-84.3743171, 33.7598666], [-84.3744004, 33.7598676], [-84.3744196, 33.7598678], [-84.3744095, 33.7604708]]]}, "properties": {"layer": "1", "man_made": "bridge"}}, {"type": "Feature", "geometry": {"type": "LineString", "coordinates": [[-84.3822902, 33.7620736], [-84.3822812, 33.7620825]]}, "properties": {"highway": "footway", "bridge": "yes"}}, {"type": "Feature", "geometry": {"type": "LineString", "coordinates": [[-84.3822318, 33.7622928], [-84.3822037, 33.7622928]]}, "properties": {"highway": "footway", "bridge": "yes"}}, {"type": "Feature", "geometry": {"type": "LineString", "coordinates": [[-84.3822256, 33.7622767], [-84.3822318, 33.7622928]]}, "properties": {"highway": "footway", "bridge": "yes"}}, {"type": "Feature", "geometry": {"type": "LineString", "coordinates": [[-84.3819149, 33.7625181], [-84.3819047, 33.7625235]]}, "properties": {"highway": "footway", "bridge": "yes"}}, {"type": "Feature", "geometry": {"type": "LineString", "coordinates": [[-84.3817277, 33.7623493], [-84.3817201, 33.7623577]]}, "properties": {"highway": "footway", "bridge": "yes"}}, {"type": "Feature", "geometry": {"type": "LineString", "coordinates": [[-84.3817774, 33.7622924], [-84.3817692, 33.7623018]]}, "properties": {"highway": "footway", "surface": "concrete", "bridge": "yes"}}, {"type": "Feature", "geometry": {"type": "LineString", "coordinates": [[-84.38192, 33.7619664], [-84.3819327, 33.7619764]]}, "properties": {"highway": "footway", "bridge": "yes"}}, {"type": "Feature", "geometry": {"type": "LineString", "coordinates": [[-84.3817895, 33.7620507], [-84.3817979, 33.7620637]]}, "properties": {"highway": "footway", "bridge": "yes"}}, {"type": "Feature", "geometry": {"type": "LineString", "coordinates": [[-84.3820032, 33.7622925], [-84.3819768, 33.7622924]]}, "properties": {"highway": "footway", "surface": "concrete", "bridge": "yes"}}, {"type": "Feature", "geometry": {"type": "LineString", "coordinates": [[-84.3819758, 33.7622562], [-84.3819768, 33.7622924]]}, "properties": {"highway": "footway", "surface": "concrete", "bridge": "yes"}}, {"type": "Feature", "geometry": {"type": "LineString", "coordinates": [[-84.3820119, 33.7620883], [-84.3819827, 33.7620902]]}, "properties": {"highway": "footway", "surface": "concrete", "bridge": "yes"}}, {"type": "Feature", "geometry": {"type": "LineString", "coordinates": [[-84.3818309, 33.7621151], [-84.3819817, 33.762116], [-84.3819827, 33.7620902]]}, "properties": {"highway": "footway", "surface": "concrete", "bridge": "yes"}}, {"type": "Feature", "geometry": {"type": "LineString", "coordinates": [[-84.3819817, 33.762116], [-84.3819801, 33.7621539]]}, "properties": {"highway": "footway", "surface": "concrete", "bridge": "yes"}}, {"type": "Feature", "geometry": {"type": "LineString", "coordinates": [[-84.3966517, 33.7770826], [-84.3973606, 33.7770903]]}, "properties": {"name": "Binary Bridge", "highway": "footway", "layer": "1", "bridge": "yes"}}, {"type": "Feature", "geometry": {"type": "LineString", "coordinates": [[-84.398807, 33.7764001], [-84.3988072, 33.7762909]]}, "properties": {"highway": "footway", "layer": "1", "bridge": "yes"}}, {"type": "Feature", "geometry": {"type": "LineString", "coordinates": [[-84.4064998, 33.7763271], [-84.4063224, 33.7765729], [-84.4061816, 33.7768752]]}, "properties": {"name": "Northside Drive Northwest", "highway": "trunk", "surface": "asphalt", "layer": "1", "bridge": "yes"}}, {"type": "Feature", "geometry": {"type": "LineString", "coordinates": [[-84.4084329, 33.7743869], [-84.4081013, 33.7747312]]}, "properties": {"name": "Northside Drive Northwest", "highway": "trunk", "surface": "asphalt", "layer": "1", "bridge": "yes"}}, {"type": "Feature", "geometry": {"type": "LineString", "coordinates": [[-84.4019704, 33.7776803], [-84.4017016, 33.7776742], [-84.4015798, 33.7776714]]}, "properties": {"highway": "footway", "layer": "1", "bridge": "yes"}}, {"type": "Feature", "geometry": {"type": "LineString", "coordinates": [[-84.4011039, 33.7776895], [-84.4008837, 33.7774402]]}, "properties": {"highway": "footway", "layer": "1", "bridge": "yes"}}, {"type": "Feature", "geometry": {"type": "LineString", "coordinates": [[-84.4085113, 33.7744601], [-84.4081499, 33.7748145]]}, "properties": {"highway": "footway", "layer": "1", "bridge": "yes"}}, {"type": "Feature", "geometry": {"type": "LineString", "coordinates": [[-84.4080443, 33.7746319], [-84.4083622, 33.7743069]]}, "properties": {"highway": "footway", "layer": "1", "bridge": "yes"}}, {"type": "Feature", "geometry": {"type": "Polygon", "coordinates": [[[-84.4009928, 33.7704796], [-84.4008866, 33.770274], [-84.4010127, 33.770229], [-84.4011189, 33.7704346], [-84.4009928, 33.7704796]]]}, "properties": {"layer": "1", "man_made": "bridge"}}, {"type": "Feature", "geometry": {"type": "Polygon", "coordinates": [[[-84.4012017, 33.7703831], [-84.401137, 33.7701774], [-84.4012516, 33.7701355], [-84.4012698, 33.7703618], [-84.4012017, 33.7703831]]]}, "properties": {"layer": "1", "man_made": "bridge"}}, {"type": "Feature", "geometry": {"type": "Polygon", "coordinates": [[[-84.4008986, 33.7705085], [-84.4007918, 33.7703124], [-84.4007254, 33.7703373], [-84.4008321, 33.7705335], [-84.4008986, 33.7705085]]]}, "properties": {"layer": "1", "man_made": "bridge"}}, {"type": "Feature", "geometry": {"type": "LineString", "coordinates": [[-84.3970254, 33.7769358], [-84.3969579, 33.7769331], [-84.3969642, 33.776795]]}, "properties": {"highway": "footway", "layer": "1", "bridge": "yes"}}, {"type": "Feature", "geometry": {"type": "Polygon", "coordinates": [[[-84.4085242, 33.7744695], [-84.4085113, 33.7744601], [-84.4084329, 33.7743869], [-84.4083622, 33.7743069], [-84.4083497, 33.7742915], [-84.4080373, 33.774618], [-84.4080443, 33.7746319], [-84.4081013, 33.7747312], [-84.4081499, 33.7748145], [-84.4081645, 33.7748424], [-84.4085242, 33.7744695]]]}, "properties": {"layer": "1", "man_made": "bridge"}}, {"type": "Feature", "geometry": {"type": "LineString", "coordinates": [[-84.3986387, 33.7715773], [-84.3986176, 33.7713575], [-84.398568, 33.7711692], [-84.3984874, 33.7709981]]}, "properties": {"highway": "footway", "layer": "1", "bridge": "yes"}}, {"type": "Feature", "geometry": {"type": "LineString", "coordinates": [[-84.3939144, 33.771216], [-84.3939109, 33.7714821]]}, "properties": {"highway": "footway", "surface": "concrete", "layer": "1", "bridge": "yes"}}, {"type": "Feature", "geometry": {"type": "LineString", "coordinates": [[-84.39064, 33.7712985], [-84.3898207, 33.7712788]]}, "properties": {"name": "North Avenue Northwest", "highway": "trunk", "layer": "1", "bridge": "yes"}}, {"type": "Feature", "geometry": {"type": "LineString", "coordinates": [[-84.3890057, 33.7703348], [-84.3887451, 33.7703349]]}, "properties": {"highway": "footway", "layer": "2", "bridge": "yes"}}, {"type": "Feature", "geometry": {"type": "LineString", "coordinates": [[-84.3938744, 33.7715192], [-84.3939109, 33.7714821]]}, "properties": {"highway": "footway", "layer": "1", "bridge": "yes"}}, {"type": "Feature", "geometry": {"type": "LineString", "coordinates": [[-84.3940553, 33.7716436], [-84.3938744, 33.7715192]]}, "properties": {"highway": "footway", "layer": "1", "bridge": "yes"}}, {"type": "Feature", "geometry": {"type": "LineString", "coordinates": [[-84.3880093, 33.7703502], [-84.3880069, 33.7706314]]}, "properties": {"highway": "footway", "layer": "2", "bridge": "yes"}}, {"type": "Feature", "geometry": {"type": "LineString", "coordinates": [[-84.3867679, 33.7698925], [-84.3867621, 33.7695982]]}, "properties": {"highway": "footway", "layer": "2", "bridge": "yes"}}, {"type": "Feature", "geometry": {"type": "LineString", "coordinates": [[-84.3865359, 33.7730504], [-84.3865248, 33.7731614]]}, "properties": {"highway": "footway", "layer": "1", "bridge": "yes"}}, {"type": "Feature", "geometry": {"type": "LineString", "coordinates": [[-84.3928272, 33.7714809], [-84.3928248, 33.7715401]]}, "properties": {"highway": "path", "surface": "concrete", "layer": "1", "bridge": "yes"}}, {"type": "Feature", "geometry": {"type": "LineString", "coordinates": [[-84.3906495, 33.7711727], [-84.3898159, 33.7711485]]}, "properties": {"highway": "footway", "layer": "1", "bridge": "yes"}}, {"type": "Feature", "geometry": {"type": "LineString", "coordinates": [[-84.3906321, 33.7714025], [-84.3898244, 33.7713719]]}, "properties": {"highway": "footway", "layer": "1", "bridge": "yes"}}, {"type": "Feature", "geometry": {"type": "LineString", "coordinates": [[-84.3898171, 33.777743], [-84.3898164, 33.7778962]]}, "properties": {"highway": "footway", "surface": "asphalt", "layer": "1", "bridge": "yes"}}, {"type": "Feature", "geometry": {"type": "LineString", "coordinates": [[-84.3857332, 33.7698936], [-84.385732, 33.769403]]}, "properties": {"highway": "footway", "layer": "2", "bridge": "yes"}}, {"type": "Feature", "geometry": {"type": "LineString", "coordinates": [[-84.3875851, 33.7707184], [-84.387696, 33.7707186]]}, "properties": {"highway": "footway", "surface": "concrete", "layer": "1", "bridge": "yes"}}, {"type": "Feature", "geometry": {"type": "LineString", "coordinates": [[-84.3842353, 33.773478], [-84.384188, 33.7734752]]}, "properties": {"highway": "footway", "layer": "1", "bridge": "yes"}}, {"type": "Feature", "geometry": {"type": "LineString", "coordinates": [[-84.3878256, 33.7745086], [-84.3878257, 33.7743636]]}, "properties": {"highway": "footway", "layer": "1", "bridge": "yes"}}, {"type": "Feature", "geometry": {"type": "Polygon", "coordinates": [[[-84.3906308, 33.7714195], [-84.3906321, 33.7714025], [-84.39064, 33.7712985], [-84.3906495, 33.7711727], [-84.3906508, 33.7711556], [-84.3898152, 33.7711319], [-84.3898159, 33.7711485], [-84.3898207, 33.7712788], [-84.3898244, 33.7713719], [-84.3898253, 33.7713941], [-84.3906308, 33.7714195]]]}, "properties": {"layer": "1", "man_made": "bridge"}}, {"type": "Feature", "geometry": {"type": "Polygon", "coordinates": [[[-84.3830356, 33.7776718], [-84.3830449, 33.777587], [-84.3829722, 33.7775815], [-84.3829629, 33.7776663], [-84.3830356, 33.7776718]]]}, "properties": {"bridge": "yes"}}, {"type": "Feature", "geometry": {"type": "LineString", "coordinates": [[-84.3832354, 33.7745844], [-84.3829893, 33.7745698]]}, "properties": {"highway": "footway", "layer": "1", "bridge": "yes"}}, {"type": "Feature", "geometry": {"type": "LineString", "coordinates": [[-84.4127248, 33.7798874], [-84.4134525, 33.77997]]}, "properties": {"name": "Marietta Street", "highway": "tertiary", "layer": "1", "bridge": "yes"}}, {"type": "Feature", "geometry": {"type": "LineString", "coordinates": [[-84.4116757, 33.786302], [-84.4117051, 33.7866978]]}, "properties": {"name": "Howell Mill Road Northwest", "highway": "secondary", "surface": "concrete", "layer": "1", "bridge": "yes"}}, {"type": "Feature", "geometry": {"type": "LineString", "coordinates": [[-84.4121661, 33.7865069], [-84.4121647, 33.7863585], [-84.412169, 33.7861793], [-84.4122057, 33.7860907]]}, "properties": {"highway": "path", "layer": "1", "bridge": "yes"}}, {"type": "Feature", "geometry": {"type": "LineString", "coordinates": [[-84.4126794, 33.7798153], [-84.4134444, 33.7799019]]}, "properties": {"highway": "footway", "layer": "1", "bridge": "yes"}}, {"type": "Feature", "geometry": {"type": "LineString", "coordinates": [[-84.4115906, 33.7862907], [-84.4116308, 33.7866958]]}, "properties": {"highway": "footway", "layer": "1", "bridge": "yes"}}, {"type": "Feature", "geometry": {"type": "LineString", "coordinates": [[-84.4117582, 33.7862506], [-84.4117921, 33.7866545]]}, "properties": {"highway": "footway", "layer": "1", "bridge": "yes"}}, {"type": "Feature", "geometry": {"type": "LineString", "coordinates": [[-84.4126407, 33.7799738], [-84.4135501, 33.7800751]]}, "properties": {"highway": "footway", "surface": "concrete", "layer": "1", "bridge": "yes"}}, {"type": "Feature", "geometry": {"type": "LineString", "coordinates": [[-84.4189186, 33.7799168], [-84.4190081, 33.7799827], [-84.4190984, 33.7800499]]}, "properties": {"name": "Westside Spur Trail", "highway": "cycleway", "width": "3", "surface": "concrete", "layer": "1", "bridge": "yes"}}, {"type": "Feature", "geometry": {"type": "LineString", "coordinates": [[-84.3965977, 33.7798167], [-84.3965777, 33.7797427], [-84.3965491, 33.7796554], [-84.3965205, 33.7795933]]}, "properties": {"highway": "footway", "bridge": "yes"}}, {"type": "Feature", "geometry": {"type": "LineString", "coordinates": [[-84.4046262, 33.7792153], [-84.4046154, 33.7792152]]}, "properties": {"highway": "footway", "bridge": "yes"}}, {"type": "Feature", "geometry": {"type": "LineString", "coordinates": [[-84.4046498, 33.7789578], [-84.404667, 33.7791329], [-84.4046292, 33.7791352], [-84.4046262, 33.7792153], [-84.4046498, 33.7792153]]}, "properties": {"highway": "footway", "layer": "1", "bridge": "yes"}}, {"type": "Feature", "geometry": {"type": "LineString", "coordinates": [[-84.405138, 33.7794965], [-84.4050531, 33.7794948]]}, "properties": {"highway": "footway", "layer": "1", "bridge": "yes"}}, {"type": "Feature", "geometry": {"type": "LineString", "coordinates": [[-84.3963731, 33.7793485], [-84.3965205, 33.7795933]]}, "properties": {"highway": "footway", "layer": "1", "bridge": "yes"}}, {"type": "Feature", "geometry": {"type": "LineString", "coordinates": [[-84.3905451, 33.7867045], [-84.3917536, 33.7867116]]}, "properties": {"name": "14th Street Northwest", "highway": "primary", "surface": "concrete", "layer": "1", "bridge": "yes"}}, {"type": "Feature", "geometry": {"type": "LineString", "coordinates": [[-84.3907002, 33.7815306], [-84.3913926, 33.7815371]]}, "properties": {"name": "10th Street Northwest", "highway": "secondary", "surface": "asphalt", "layer": "1", "bridge": "yes"}}, {"type": "Feature", "geometry": {"type": "LineString", "coordinates": [[-84.3917415, 33.7865712], [-84.3906215, 33.7865587], [-84.3905457, 33.7865578]]}, "properties": {"name": "14th Street Northwest", "highway": "primary", "surface": "concrete", "layer": "1", "bridge": "yes"}}, {"type": "Feature", "geometry": {"type": "LineString", "coordinates": [[-84.3913919, 33.7816684], [-84.3906995, 33.7816632]]}, "properties": {"highway": "footway", "layer": "1", "bridge": "yes"}}, {"type": "Feature", "geometry": {"type": "LineString", "coordinates": [[-84.390701, 33.7814033], [-84.3913934, 33.7814101]]}, "properties": {"highway": "footway", "layer": "1", "bridge": "yes"}}, {"type": "Feature", "geometry": {"type": "LineString", "coordinates": [[-84.3947391, 33.7831155], [-84.3943817, 33.7827608]]}, "properties": {"highway": "footway", "layer": "1", "bridge": "yes"}}, {"type": "Feature", "geometry": {"type": "Polygon", "coordinates": [[[-84.390544, 33.7867845], [-84.3905447, 33.7867323], [-84.3905451, 33.7867045], [-84.3905457, 33.7865578], [-84.3905483, 33.7864649], [-84.3917848, 33.7864715], [-84.3917873, 33.7867931], [-84.390544, 33.7867845]]]}, "properties": {"layer": "1", "man_made": "bridge"}}, {"type": "Feature", "geometry": {"type": "LineString", "coordinates": [[-84.3918148, 33.7867823], [-84.3905428, 33.7867729]]}, "properties": {"highway": "footway", "surface": "concrete", "layer": "1", "bridge": "yes"}}, {"type": "Feature", "geometry": {"type": "LineString", "coordinates": [[-84.3918178, 33.7864904], [-84.3905458, 33.786481]]}, "properties": {"highway": "footway", "surface": "concrete", "layer": "1", "bridge": "yes"}}, {"type": "Feature", "geometry": {"type": "Polygon", "coordinates": [[[-84.3913918, 33.7816808], [-84.3913919, 33.7816684], [-84.3913926, 33.7815371], [-84.3913934, 33.7814101], [-84.3913937, 33.7813566], [-84.3907012, 33.7813538], [-84.390701, 33.7814033], [-84.3907002, 33.7815306], [-84.3906995, 33.7816632], [-84.3906994, 33.7816781], [-84.3913918, 33.7816808]]]}, "properties": {"layer": "1", "man_made": "bridge"}}, {"type": "Feature", "geometry": {"type": "LineString", "coordinates": [[-84.3917132, 33.7867393], [-84.3912376, 33.7867359]]}, "properties": {"highway": "cycleway", "layer": "1", "bridge": "yes"}}, {"type": "Feature", "geometry": {"type": "LineString", "coordinates": [[-84.3917715, 33.7867397], [-84.3917132, 33.7867393]]}, "properties": {"highway": "cycleway", "layer": "1", "bridge": "yes"}}, {"type": "Feature", "geometry": {"type": "LineString", "coordinates": [[-84.3912376, 33.7867359], [-84.3908313, 33.786733], [-84.3906057, 33.7867314], [-84.3905447, 33.7867323]]}, "properties": {"highway": "cycleway", "layer": "1", "bridge": "yes"}}, {"type": "Feature", "geometry": {"type": "LineString", "coordinates": [[-84.3714676, 33.7863448], [-84.371025, 33.786272], [-84.3705627, 33.786195]]}, "properties": {"name": "Park Drive Northeast", "highway": "pedestrian", "layer": "1", "bridge": "yes"}}, {"type": "Feature", "geometry": {"type": "LineString", "coordinates": [[-84.3733605, 33.7850057], [-84.3735646, 33.7851182], [-84.3736089, 33.7851404], [-84.3736398, 33.7851521], [-84.3736716, 33.7851623], [-84.3737086, 33.7851715], [-84.3737505, 33.7851776], [-84.3737954, 33.7851787], [-84.3738721, 33.7851752]]}, "properties": {"highway": "footway", "surface": "concrete", "layer": "1", "bridge": "yes"}}, {"type": "Feature", "geometry": {"type": "LineString", "coordinates": [[-84.3710723, 33.7848654], [-84.3709185, 33.7847155]]}, "properties": {"highway": "footway", "layer": "1", "bridge": "yes"}}, {"type": "Feature", "geometry": {"type": "LineString", "coordinates": [[-84.3736089, 33.7851404], [-84.373636, 33.7850924]]}, "properties": {"highway": "footway", "surface": "wood", "layer": "1", "bridge": "yes"}}, {"type": "Feature", "geometry": {"type": "LineString", "coordinates": [[-84.3719703, 33.7871944], [-84.372056, 33.7872203]]}, "properties": {"highway": "path", "surface": "unpaved", "layer": "1", "bridge": "yes"}}, {"type": "Feature", "geometry": {"type": "LineString", "coordinates": [[-84.3705725, 33.7861546], [-84.3715056, 33.7863076]]}, "properties": {"highway": "footway", "layer": "1", "bridge": "yes"}}, {"type": "Feature", "geometry": {"type": "LineString", "coordinates": [[-84.3705665, 33.7862504], [-84.3714517, 33.786392]]}, "properties": {"highway": "footway", "layer": "1", "bridge": "yes"}}, {"type": "Feature", "geometry": {"type": "LineString", "coordinates": [[-84.4151483, 33.7948472], [-84.4153849, 33.7952159]]}, "properties": {"name": "Howell Mill Road Northwest", "highway": "secondary", "surface": "concrete", "layer": "1", "bridge": "yes"}}, {"type": "Feature", "geometry": {"type": "LineString", "coordinates": [[-84.4183582, 33.7890945], [-84.418439, 33.789141], [-84.4186403, 33.789248]]}, "properties": {"name": "Huff Road Northwest", "highway": "residential", "layer": "1", "bridge": "yes"}}, {"type": "Feature", "geometry": {"type": "LineString", "coordinates": [[-84.4089573, 33.7875882], [-84.4086187, 33.7877914]]}, "properties": {"layer": "1", "bridge": "yes"}}, {"type": "Feature", "geometry": {"type": "LineString", "coordinates": [[-84.4152456, 33.794801], [-84.4153592, 33.7949814], [-84.4154778, 33.7951795]]}, "properties": {"highway": "footway", "surface": "concrete", "layer": "1", "bridge": "yes"}}, {"type": "Feature", "geometry": {"type": "LineString", "coordinates": [[-84.4152919, 33.7952512], [-84.4151717, 33.7950441], [-84.4150592, 33.7948607]]}, "properties": {"highway": "footway", "layer": "1", "bridge": "yes"}}, {"type": "Feature", "geometry": {"type": "LineString", "coordinates": [[-84.4186625, 33.7892198], [-84.4185922, 33.7891799], [-84.4184634, 33.7891095], [-84.4183799, 33.7890614]]}, "properties": {"highway": "footway", "layer": "1", "bridge": "yes"}}, {"type": "Feature", "geometry": {"type": "LineString", "coordinates": [[-84.4030251, 33.7896906], [-84.4033092, 33.7897042], [-84.4035393, 33.7897532], [-84.4038325, 33.789868], [-84.4040345, 33.7899748], [-84.4041169, 33.7900397], [-84.4042107, 33.7901308], [-84.4045851, 33.7906567], [-84.4048979, 33.7911085], [-84.405161, 33.7914217], [-84.4054018, 33.7916119]]}, "properties": {"name": "17th Street Northwest", "highway": "secondary", "layer": "1", "bridge": "yes"}}, {"type": "Feature", "geometry": {"type": "LineString", "coordinates": [[-84.4007404, 33.7902254], [-84.4011238, 33.7906595]]}, "properties": {"highway": "footway", "bridge": "yes"}}, {"type": "Feature", "geometry": {"type": "LineString", "coordinates": [[-84.4054594, 33.7914909], [-84.4053302, 33.7914039], [-84.4052337, 33.7913014], [-84.4050674, 33.7910874], [-84.4045055, 33.7902207], [-84.4043539, 33.7900397], [-84.4042495, 33.7899435], [-84.4041501, 33.7898703], [-84.4040127, 33.7897826], [-84.4038657, 33.7897131], [-84.4036894, 33.7896517], [-84.4036024, 33.7896224], [-84.4035108, 33.7896006], [-84.4033472, 33.7895707], [-84.4031362, 33.7895493], [-84.4030331, 33.7895458]]}, "properties": {"name": "17th Street Northwest", "highway": "secondary", "layer": "1", "bridge": "yes"}}, {"type": "Feature", "geometry": {"type": "LineString", "coordinates": [[-84.4075621, 33.7886528], [-84.4077788, 33.7885208]]}, "properties": {"name": "NS Norcross District", "layer": "1", "bridge": "yes"}}, {"type": "Feature", "geometry": {"type": "LineString", "coordinates": [[-84.4053241, 33.7916751], [-84.405163, 33.7915657], [-84.4050841, 33.7914992]]}, "properties": {"highway": "footway", "layer": "1", "bridge": "yes"}}, {"type": "Feature", "geometry": {"type": "LineString", "coordinates": [[-84.40303, 33.7897946], [-84.4030919, 33.7897933], [-84.4033925, 33.7898136], [-84.4035898, 33.7898641], [-84.4038087, 33.7899529], [-84.4039687, 33.7900499], [-84.4040907, 33.7901401], [-84.4050112, 33.791419], [-84.4050841, 33.7914992]]}, "properties": {"highway": "footway", "layer": "1", "bridge": "yes"}}, {"type": "Feature", "geometry": {"type": "LineString", "coordinates": [[-84.4082521, 33.7882227], [-84.4083248, 33.7881761]]}, "properties": {"name": "NS Norcross District", "layer": "1", "bridge": "yes"}}, {"type": "Feature", "geometry": {"type": "LineString", "coordinates": [[-84.4082809, 33.7882504], [-84.408353, 33.7882052]]}, "properties": {"name": "NS Norcross District", "layer": "1", "bridge": "yes"}}, {"type": "Feature", "geometry": {"type": "LineString", "coordinates": [[-84.4075872, 33.7886813], [-84.407804, 33.7885494]]}, "properties": {"name": "NS Norcross District", "layer": "1", "bridge": "yes"}}, {"type": "Feature", "geometry": {"type": "LineString", "coordinates": [[-84.4054464, 33.7913526], [-84.4053606, 33.7912832], [-84.4049308, 33.7907007], [-84.4045272, 33.7901681], [-84.4043161, 33.7899338], [-84.4040835, 33.7897328], [-84.4038802, 33.789624], [-84.4036891, 33.789551], [-84.4033518, 33.7894882], [-84.4030467, 33.7894765]]}, "properties": {"highway": "footway", "layer": "1", "bridge": "yes"}}, {"type": "Feature", "geometry": {"type": "LineString", "coordinates": [[-84.3904695, 33.7919396], [-84.3905133, 33.7919303], [-84.3906025, 33.7919088], [-84.3924768, 33.7914068], [-84.3927241, 33.7913397]]}, "properties": {"name": "17th Street Northwest", "highway": "secondary", "surface": "asphalt", "layer": "2", "bridge": "yes"}}, {"type": "Feature", "geometry": {"type": "LineString", "coordinates": [[-84.391237, 33.7920501], [-84.3913329, 33.7922417], [-84.3914604, 33.7924632], [-84.3915769, 33.7926391], [-84.391705, 33.7928239]]}, "properties": {"name": "Northeast Expressway", "highway": "motorway", "layer": "1", "bridge": "yes"}}, {"type": "Feature", "geometry": {"type": "LineString", "coordinates": [[-84.3936935, 33.7964249], [-84.3937004, 33.7962429], [-84.3936888, 33.7959545]]}, "properties": {"name": "Northeast Expressway", "highway": "motorway", "layer": "1", "bridge": "yes"}}, {"type": "Feature", "geometry": {"type": "LineString", "coordinates": [[-84.3938323, 33.7965075], [-84.3938525, 33.7962906], [-84.3938528, 33.796039]]}, "properties": {"highway": "motorway_link", "layer": "1", "bridge": "yes"}}, {"type": "Feature", "geometry": {"type": "LineString", "coordinates": [[-84.389702, 33.7957523], [-84.3899034, 33.7957501]]}, "properties": {"name": "Buford-Spring Connector", "highway": "motorway", "surface": "concrete", "layer": "1", "bridge": "yes"}}, {"type": "Feature", "geometry": {"type": "LineString", "coordinates": [[-84.3905592, 33.7909586], [-84.3905461, 33.7916624], [-84.3905494, 33.7917002], [-84.3905515, 33.7917159], [-84.3905542, 33.7917421], [-84.3905684, 33.7918133]]}, "properties": {"highway": "motorway_link", "surface": "concrete", "layer": "2", "bridge": "yes"}}, {"type": "Feature", "geometry": {"type": "LineString", "coordinates": [[-84.3937735, 33.7948965], [-84.393705, 33.7941826]]}, "properties": {"highway": "motorway_link", "layer": "1", "bridge": "yes"}}, {"type": "Feature", "geometry": {"type": "LineString", "coordinates": [[-84.3930947, 33.7919897], [-84.3927949, 33.791493], [-84.3927718, 33.7914407], [-84.3927241, 33.7913397]]}, "properties": {"highway": "motorway_link", "layer": "2", "bridge": "yes"}}, {"type": "Feature", "geometry": {"type": "LineString", "coordinates": [[-84.3934318, 33.7911289], [-84.3933621, 33.7911313], [-84.3932483, 33.7911522], [-84.3928629, 33.7912425], [-84.3928306, 33.7912514], [-84.3926998, 33.7912848], [-84.3907081, 33.7917774], [-84.3905684, 33.7918133], [-84.3904747, 33.7918335], [-84.3903863, 33.7918534]]}, "properties": {"name": "17th Street Northwest", "highway": "secondary", "surface": "asphalt", "layer": "2", "bridge": "yes"}}, {"type": "Feature", "geometry": {"type": "LineString", "coordinates": [[-84.3905684, 33.7918133], [-84.3906025, 33.7919088]]}, "properties": {"highway": "motorway_link", "surface": "concrete", "layer": "2", "bridge": "yes"}}, {"type": "Feature", "geometry": {"type": "LineString", "coordinates": [[-84.3905812, 33.7893751], [-84.3905769, 33.7903483], [-84.3905592, 33.7909586]]}, "properties": {"highway": "motorway_link", "surface": "concrete", "layer": "2", "bridge": "yes"}}, {"type": "Feature", "geometry": {"type": "LineString", "coordinates": [[-84.3885868, 33.7953369], [-84.3887131, 33.7954188], [-84.3888127, 33.7954763], [-84.3889264, 33.7955318], [-84.3890366, 33.7955747], [-84.3891468, 33.7956137], [-84.3892973, 33.7956614], [-84.3894524, 33.7957014], [-84.389702, 33.7957523]]}, "properties": {"highway": "motorway_link", "surface": "concrete", "layer": "1", "bridge": "yes"}}, {"type": "Feature", "geometry": {"type": "LineString", "coordinates": [[-84.3885182, 33.7954082], [-84.3886223, 33.7954716], [-84.3887736, 33.795548], [-84.3889343, 33.7956185], [-84.389111, 33.7956796], [-84.3893064, 33.7957252], [-84.3895019, 33.7957455], [-84.389702, 33.7957523]]}, "properties": {"highway": "motorway_link", "surface": "concrete", "layer": "1", "bridge": "yes"}}, {"type": "Feature", "geometry": {"type": "LineString", "coordinates": [[-84.3906536, 33.7916722], [-84.3927949, 33.7911439], [-84.3930129, 33.791092], [-84.3932961, 33.7910462], [-84.3933855, 33.7910425], [-84.393432, 33.7910439]]}, "properties": {"highway": "footway", "surface": "concrete", "layer": "2", "bridge": "yes"}}, {"type": "Feature", "geometry": {"type": "LineString", "coordinates": [[-84.392671, 33.7914653], [-84.3926404, 33.7914772], [-84.390538, 33.7919859], [-84.3904437, 33.7920105]]}, "properties": {"highway": "footway", "surface": "concrete", "layer": "2", "bridge": "yes"}}, {"type": "Feature", "geometry": {"type": "LineString", "coordinates": [[-84.3905289, 33.7919694], [-84.3905133, 33.7919303], [-84.3904747, 33.7918335], [-84.3904421, 33.7917517]]}, "properties": {"highway": "footway", "layer": "2", "bridge": "yes"}}, {"type": "Feature", "geometry": {"type": "LineString", "coordinates": [[-84.3928873, 33.7914095], [-84.3928504, 33.7913075], [-84.3928306, 33.7912514], [-84.3928038, 33.7911721]]}, "properties": {"highway": "footway", "layer": "2", "bridge": "yes"}}, {"type": "Feature", "geometry": {"type": "LineString", "coordinates": [[-84.3949516, 33.7963053], [-84.3948765, 33.7964747]]}, "properties": {"layer": "1", "bridge": "yes"}}, {"type": "Feature", "geometry": {"type": "LineString", "coordinates": [[-84.3949785, 33.7964223], [-84.395071, 33.7962775]]}, "properties": {"layer": "1", "bridge": "yes"}}, {"type": "Feature", "geometry": {"type": "LineString", "coordinates": [[-84.3946191, 33.7969094], [-84.3947626, 33.7966341]]}, "properties": {"layer": "1", "bridge": "yes"}}, {"type": "Feature", "geometry": {"type": "LineString", "coordinates": [[-84.3950361, 33.7962541], [-84.3948765, 33.7964747], [-84.3947626, 33.7966341], [-84.3945225, 33.7969729], [-84.3944957, 33.7970097]]}, "properties": {"layer": "1", "bridge": "yes"}}, {"type": "Feature", "geometry": {"type": "LineString", "coordinates": [[-84.3945305, 33.7970331], [-84.3946191, 33.7969094], [-84.3948403, 33.7966085], [-84.3949785, 33.7964223], [-84.3950992, 33.7962919]]}, "properties": {"layer": "1", "bridge": "yes"}}, {"type": "Feature", "geometry": {"type": "LineString", "coordinates": [[-84.3847504, 33.7878272], [-84.3848274, 33.7877614]]}, "properties": {"highway": "footway", "layer": "2", "bridge": "yes"}}, {"type": "Feature", "geometry": {"type": "LineString", "coordinates": [[-84.3927241, 33.7913397], [-84.3928504, 33.7913075], [-84.3931594, 33.7912376], [-84.393219, 33.7912276], [-84.3932854, 33.7912195], [-84.3933803, 33.7912107], [-84.3934316, 33.7912071]]}, "properties": {"name": "17th Street Northwest", "highway": "secondary", "surface": "asphalt", "layer": "2", "bridge": "yes"}}, {"type": "Feature", "geometry": {"type": "LineString", "coordinates": [[-84.3927241, 33.7913397], [-84.3926998, 33.7912848]]}, "properties": {"highway": "motorway_link", "layer": "1", "bridge": "yes"}}, {"type": "Feature", "geometry": {"type": "LineString", "coordinates": [[-84.3933747, 33.7959619], [-84.3933881, 33.7962567]]}, "properties": {"name": "Northeast Expressway", "highway": "motorway", "layer": "1", "bridge": "yes"}}, {"type": "Feature", "geometry": {"type": "Polygon", "coordinates": [[[-84.3945681, 33.7970575], [-84.3944682, 33.7969771], [-84.3948006, 33.7964842], [-84.3949385, 33.7961529], [-84.3951189, 33.7963272], [-84.394907, 33.7965835], [-84.3945681, 33.7970575]]]}, "properties": {"layer": "1", "man_made": "bridge"}}, {"type": "Feature", "geometry": {"type": "LineString", "coordinates": [[-84.3867187, 33.7892666], [-84.387005, 33.789228], [-84.3870195, 33.7892261], [-84.3870354, 33.7892239]]}, "properties": {"highway": "footway", "surface": "paving_stones", "layer": "2", "bridge": "yes"}}, {"type": "Feature", "geometry": {"type": "Polygon", "coordinates": [[[-84.3939095, 33.7965535], [-84.3938323, 33.7965075], [-84.3936935, 33.7964249], [-84.3935546, 33.7963422], [-84.393555, 33.796124], [-84.3935394, 33.7958776], [-84.3936888, 33.7959545], [-84.3938528, 33.796039], [-84.3939349, 33.7960813], [-84.3939347, 33.7962009], [-84.3939226, 33.7964031], [-84.3939095, 33.7965535]]]}, "properties": {"layer": "1", "man_made": "bridge"}}, {"type": "Feature", "geometry": {"type": "Polygon", "coordinates": [[[-84.3935546, 33.7963422], [-84.3933881, 33.7962567], [-84.3932123, 33.7961665], [-84.3932065, 33.796047], [-84.3931948, 33.7959176], [-84.3931594, 33.7957018], [-84.3932674, 33.7957518], [-84.3933739, 33.795801], [-84.3935394, 33.7958776], [-84.393555, 33.796124], [-84.3935546, 33.7963422]]]}, "properties": {"layer": "1", "man_made": "bridge"}}, {"type": "Feature", "geometry": {"type": "LineString", "coordinates": [[-84.3928038, 33.7911721], [-84.3927949, 33.7911439]]}, "properties": {"highway": "footway", "surface": "concrete", "layer": "2", "bridge": "yes"}}, {"type": "Feature", "geometry": {"type": "LineString", "coordinates": [[-84.3934314, 33.7913062], [-84.3932504, 33.7913217], [-84.3929951, 33.7913707], [-84.3929146, 33.7914029], [-84.3928873, 33.7914095]]}, "properties": {"highway": "footway", "surface": "concrete", "layer": "2", "bridge": "yes"}}, {"type": "Feature", "geometry": {"type": "LineString", "coordinates": [[-84.3928873, 33.7914095], [-84.3927718, 33.7914407], [-84.392671, 33.7914653]]}, "properties": {"highway": "footway", "surface": "concrete", "layer": "2", "bridge": "yes"}}, {"type": "Feature", "geometry": {"type": "LineString", "coordinates": [[-84.390349, 33.7917514], [-84.3904353, 33.7917309], [-84.3904572, 33.7917241]]}, "properties": {"highway": "footway", "surface": "concrete", "layer": "2", "bridge": "yes"}}, {"type": "Feature", "geometry": {"type": "LineString", "coordinates": [[-84.3904572, 33.7917241], [-84.3905494, 33.7917002], [-84.3906536, 33.7916722]]}, "properties": {"highway": "footway", "surface": "concrete", "layer": "2", "bridge": "yes"}}, {"type": "Feature", "geometry": {"type": "LineString", "coordinates": [[-84.3904421, 33.7917517], [-84.3904353, 33.7917309]]}, "properties": {"highway": "footway", "layer": "2", "bridge": "yes"}}, {"type": "Feature", "geometry": {"type": "LineString", "coordinates": [[-84.390538, 33.7919859], [-84.3905289, 33.7919694]]}, "properties": {"highway": "footway", "layer": "1", "bridge": "yes"}}, {"type": "Feature", "geometry": {"type": "Polygon", "coordinates": [[[-84.3899039, 33.7958437], [-84.3897358, 33.7958388], [-84.3896308, 33.7958281], [-84.3894661, 33.7958075], [-84.3893517, 33.7957898], [-84.3892246, 33.79576], [-84.3891111, 33.7957309], [-84.3890206, 33.7957004], [-84.3889148, 33.7956621], [-84.3888175, 33.795621], [-84.3887031, 33.7955628], [-84.388558, 33.7954749], [-84.388488, 33.7954394], [-84.3885182, 33.7954082], [-84.3885868, 33.7953369], [-84.3886323, 33.7952898], [-84.3887517, 33.7953685], [-84.3889156, 33.7954536], [-84.3890855, 33.7955345], [-84.3893048, 33.7956019], [-84.3895284, 33.7956529], [-84.3896837, 33.7956735], [-84.3898399, 33.7956834], [-84.3899031, 33.7956863], [-84.3899034, 33.7957501], [-84.3899039, 33.7958437]]]}, "properties": {"layer": "1", "man_made": "bridge"}}, {"type": "Feature", "geometry": {"type": "LineString", "coordinates": [[-84.3932674, 33.7957518], [-84.3933747, 33.7959619]]}, "properties": {"highway": "motorway_link", "surface": "asphalt", "layer": "1", "bridge": "yes"}}, {"type": "Feature", "geometry": {"type": "LineString", "coordinates": [[-84.3933739, 33.795801], [-84.3933747, 33.7959619]]}, "properties": {"name": "Northeast Expressway", "highway": "motorway", "layer": "1", "bridge": "yes"}}, {"type": "Feature", "geometry": {"type": "Polygon", "coordinates": [[[-84.3904676, 33.7920761], [-84.3904437, 33.7920105], [-84.3904214, 33.7919496], [-84.3903863, 33.7918534], [-84.390349, 33.7917514], [-84.3903354, 33.7917141], [-84.3904526, 33.7916892], [-84.3906471, 33.7916407], [-84.3930896, 33.7910308], [-84.3931225, 33.7910222], [-84.3931534, 33.7910195], [-84.3934321, 33.7910137], [-84.393432, 33.7910439], [-84.3934318, 33.7911289], [-84.3934316, 33.7912071], [-84.3934314, 33.7913062], [-84.3934312, 33.791369], [-84.3931413, 33.7914122], [-84.3928933, 33.7914738], [-84.392703, 33.791521], [-84.3904676, 33.7920761]]]}, "properties": {"layer": "2", "man_made": "bridge"}}, {"type": "Feature", "geometry": {"type": "Polygon", "coordinates": [[[-84.392703, 33.791521], [-84.3928908, 33.7918283], [-84.3930015, 33.7920132], [-84.3930947, 33.7919897], [-84.3931928, 33.791965], [-84.3930933, 33.7917967], [-84.3929834, 33.7916169], [-84.3928933, 33.7914738], [-84.392703, 33.791521]]]}, "properties": {"layer": "2", "man_made": "bridge"}}, {"type": "Feature", "geometry": {"type": "LineString", "coordinates": [[-84.3904214, 33.7919496], [-84.3904695, 33.7919396]]}, "properties": {"name": "17th Street Northwest", "highway": "secondary", "layer": "2", "bridge": "yes"}}, {"type": "Feature", "geometry": {"type": "Polygon", "coordinates": [[[-84.3912033, 33.7922212], [-84.3912751, 33.7923506], [-84.3913547, 33.7924815], [-84.3914586, 33.7926477], [-84.391565, 33.7927994], [-84.3916836, 33.7929584], [-84.391705, 33.7928239], [-84.3917381, 33.792616], [-84.3916472, 33.7924815], [-84.391539, 33.7923061], [-84.3914655, 33.7921802], [-84.3913928, 33.7920392], [-84.3912829, 33.7918177], [-84.391237, 33.7920501], [-84.3912033, 33.7922212]]]}, "properties": {"layer": "1", "man_made": "bridge"}}, {"type": "Feature", "geometry": {"type": "Polygon", "coordinates": [[[-84.3906545, 33.7893756], [-84.3905812, 33.7893751], [-84.3905061, 33.7893747], [-84.3904965, 33.7907236], [-84.3904567, 33.79099], [-84.3904526, 33.7916892], [-84.3906471, 33.7916407], [-84.3906503, 33.790989], [-84.3906464, 33.7907175], [-84.3906545, 33.7893756]]]}, "properties": {"layer": "2", "man_made": "bridge"}}, {"type": "Feature", "geometry": {"type": "LineString", "coordinates": [[-84.371143, 33.7894897], [-84.3713102, 33.7895413]]}, "properties": {"name": "Worcester Drive Northeast", "highway": "service", "surface": "paved", "layer": "1", "bridge": "yes"}}, {"type": "Feature", "geometry": {"type": "LineString", "coordinates": [[-84.3715941, 33.7880328], [-84.3716859, 33.788101], [-84.3717955, 33.7881246]]}, "properties": {"highway": "footway", "surface": "wood", "bridge": "yes"}}, {"type": "Feature", "geometry": {"type": "LineString", "coordinates": [[-84.371597, 33.7881766], [-84.3717282, 33.7881332], [-84.3717955, 33.7881246], [-84.3719246, 33.7881569], [-84.3720246, 33.7882312], [-84.3720728, 33.7883189], [-84.3720608, 33.7883996], [-84.3720415, 33.7884669], [-84.3720196, 33.7884953], [-84.3719621, 33.7886104], [-84.3719582, 33.7887201], [-84.3718348, 33.788947]]}, "properties": {"highway": "footway", "surface": "wood", "layer": "1", "bridge": "yes"}}, {"type": "Feature", "geometry": {"type": "LineString", "coordinates": [[-84.3730527, 33.7906445], [-84.373074, 33.7907084], [-84.3730789, 33.7907532], [-84.3730772, 33.7908021], [-84.3730642, 33.7908564], [-84.3730543, 33.7908876], [-84.3730364, 33.7909352], [-84.373007, 33.790965], [-84.3729739, 33.7909882], [-84.3729449, 33.7910085], [-84.3729024, 33.7910356], [-84.3728632, 33.7910533], [-84.3728174, 33.7910737], [-84.3727716, 33.7910954], [-84.372721, 33.7911212], [-84.3726703, 33.7911497], [-84.3726295, 33.791185], [-84.3726001, 33.791219], [-84.3725805, 33.7912597], [-84.3725641, 33.7912978], [-84.3725527, 33.7913358], [-84.3725527, 33.7913752], [-84.3725527, 33.7914186], [-84.3725576, 33.7914594], [-84.372569, 33.7914974], [-84.372587, 33.7915381], [-84.3726246, 33.7915789], [-84.372654, 33.7916074], [-84.372703, 33.7916386], [-84.3727537, 33.7916604], [-84.3728125, 33.7916794], [-84.3728697, 33.7916916], [-84.3729302, 33.7916957], [-84.3730151, 33.7916902], [-84.3730707, 33.7916739], [-84.3731328, 33.7916522]]}, "properties": {"name": "Kendeda Canopy Walk", "highway": "footway", "layer": "1", "bridge": "yes"}}, {"type": "Feature", "geometry": {"type": "LineString", "coordinates": [[-84.3709766, 33.7950579], [-84.370836, 33.795201], [-84.3707, 33.7953393]]}, "properties": {"name": "Piedmont Avenue Northeast", "highway": "secondary", "layer": "1", "bridge": "yes"}}, {"type": "Feature", "geometry": {"type": "Polygon", "coordinates": [[[-84.3741799, 33.7907546], [-84.373972, 33.790579], [-84.3739553, 33.7905918], [-84.3741625, 33.7907702], [-84.3741719, 33.7907629], [-84.3741799, 33.7907546]]]}, "properties": {"layer": "1", "man_made": "bridge"}}, {"type": "Feature", "geometry": {"type": "LineString", "coordinates": [[-84.3739298, 33.790564], [-84.3739667, 33.7905874], [-84.3740679, 33.7906743], [-84.3741719, 33.7907629]]}, "properties": {"highway": "footway", "layer": "1", "bridge": "yes"}}, {"type": "Feature", "geometry": {"type": "LineString", "coordinates": [[-84.3725123, 33.7918596], [-84.3725196, 33.7919115], [-84.372519, 33.7919538], [-84.3725062, 33.792004], [-84.3724901, 33.7920502], [-84.3724492, 33.7920993], [-84.3723889, 33.7921377], [-84.3723225, 33.7921695], [-84.3722715, 33.7921823]]}, "properties": {"name": "John Imlay Bridge", "highway": "footway", "surface": "concrete", "layer": "1", "bridge": "yes"}}, {"type": "Feature", "geometry": {"type": "LineString", "coordinates": [[-84.3720824, 33.7921539], [-84.3721099, 33.7921645], [-84.3721306, 33.7921847]]}, "properties": {"highway": "footway", "surface": "concrete", "layer": "1", "bridge": "yes"}}, {"type": "Feature", "geometry": {"type": "LineString", "coordinates": [[-84.3729292, 33.7923457], [-84.3730271, 33.7923089], [-84.3730941, 33.7922733], [-84.3731491, 33.7922387], [-84.3732094, 33.7921852], [-84.3732438, 33.7921341], [-84.3732671, 33.7920693]]}, "properties": {"name": "Woodland Ramble", "highway": "footway", "layer": "1", "bridge": "yes"}}, {"type": "Feature", "geometry": {"type": "LineString", "coordinates": [[-84.3732146, 33.791628], [-84.3731718, 33.791614]]}, "properties": {"highway": "footway", "layer": "1", "bridge": "yes"}}, {"type": "Feature", "geometry": {"type": "Polygon", "coordinates": [[[-84.3730976, 33.7916224], [-84.3731121, 33.7916296], [-84.3731287, 33.7916324], [-84.3731455, 33.7916304], [-84.3731605, 33.7916239], [-84.3731718, 33.791614], [-84.3731784, 33.7916019], [-84.3731802, 33.7915888], [-84.3731769, 33.7915758], [-84.3731689, 33.7915644], [-84.3731569, 33.7915556], [-84.3731423, 33.7915504], [-84.3731264, 33.7915493], [-84.3731109, 33.7915524], [-84.3730966, 33.7915599], [-84.3730862, 33.791571], [-84.3730807, 33.7915843], [-84.3730809, 33.7915984], [-84.3730868, 33.7916116], [-84.3730976, 33.7916224]]]}, "properties": {"highway": "footway", "layer": "1", "bridge": "yes"}}, {"type": "Feature", "geometry": {"type": "LineString", "coordinates": [[-84.3731328, 33.7916522], [-84.3731605, 33.7916239]]}, "properties": {"highway": "footway", "layer": "1", "bridge": "yes"}}, {"type": "Feature", "geometry": {"type": "LineString", "coordinates": [[-84.370658, 33.7952647], [-84.3709579, 33.7949684]]}, "properties": {"highway": "footway", "layer": "1", "bridge": "yes"}}, {"type": "Feature", "geometry": {"type": "LineString", "coordinates": [[-84.3707879, 33.7953802], [-84.3707981, 33.7953701], [-84.3711042, 33.7950651]]}, "properties": {"highway": "footway", "layer": "1", "bridge": "yes"}}]}