{"type": "FeatureCollection", "features": [{"type": "Feature", "geometry": {"type": "Polygon", "coordinates": [[[-84.4162929, 33.7644719], [-84.4162277, 33.7644552], [-84.416169, 33.7644284], [-84.4161331, 33.7644036], [-84.416125, 33.7643938], [-84.4161159, 33.7643829], [-84.4160962, 33.7643407], [-84.4160941, 33.7643051], [-84.4161136, 33.7642784], [-84.4161633, 33.7642553], [-84.4162014, 33.7642462], [-84.4162452, 33.7642434], [-84.4162706, 33.7642457], [-84.4162993, 33.7642484], [-84.4163522, 33.7642623], [-84.4164057, 33.7642864], [-84.4164458, 33.7643124], [-84.4164813, 33.7643453], [-84.4164942, 33.7643704], [-84.4164941, 33.7643992], [-84.4164848, 33.764424], [-84.4164659, 33.7644494], [-84.416433, 33.7644661], [-84.4163892, 33.7644758], [-84.4163398, 33.764477], [-84.4162929, 33.7644719]]]}, "properties": {}}, {"type": "Feature", "geometry": {"type": "Polygon", "coordinates": [[[-84.4124007, 33.7619935], [-84.4124302, 33.7619759], [-84.4124532, 33.7619551], [-84.4124672, 33.7619277], [-84.4124736, 33.7618986], [-84.4124644, 33.7618613], [-84.4124436, 33.7618346], [-84.4124164, 33.7618163], [-84.4123789, 33.7618049], [-84.4123517, 33.7618052], [-84.4123263, 33.7618055], [-84.4122925, 33.7618099], [-84.4122519, 33.761833], [-84.4121851, 33.7618561], [-84.4120528, 33.7618661], [-84.4120288, 33.7619036], [-84.4120739, 33.761996], [-84.4124007, 33.7619935]]]}, "properties": {}}, {"type": "Feature", "geometry": {"type": "Polygon", "coordinates": [[[-84.41178, 33.7619952], [-84.4114773, 33.7619942], [-84.411478, 33.7618396], [-84.4114956, 33.7618288], [-84.4117808, 33.7618297], [-84.41178, 33.7619952]]]}, "properties": {}}, {"type": "Feature", "geometry": {"type": "Polygon", "coordinates": [[[-84.4124372, 33.7624337], [-84.4124571, 33.7624229], [-84.4124623, 33.7620193], [-84.4120264, 33.7620171], [-84.4117944, 33.7620159], [-84.411481, 33.7620143], [-84.4114754, 33.7624104], [-84.4114774, 33.7624172], [-84.4114807, 33.7624207], [-84.4114849, 33.7624243], [-84.4114888, 33.7624266], [-84.4114937, 33.7624274], [-84.4124372, 33.7624337]]]}, "properties": {}}, {"type": "Feature", "geometry": {"type": "Polygon", "coordinates": [[[-84.4080888, 33.7612545], [-84.4079274, 33.7612512], [-84.4079235, 33.7610203], [-84.4080901, 33.7610236], [-84.4080888, 33.7612545]]]}, "properties": {}}, {"type": "Feature", "geometry": {"type": "Polygon", "coordinates": [[[-84.4080875, 33.7609922], [-84.4079261, 33.7609889], [-84.4079221, 33.760758], [-84.4080888, 33.7607613], [-84.4080875, 33.7609922]]]}, "properties": {}}, {"type": "Feature", "geometry": {"type": "Polygon", "coordinates": [[[-84.4085264, 33.7628912], [-84.4084883, 33.7628999], [-84.4084606, 33.7628941], [-84.4084122, 33.7629035], [-84.4083853, 33.7629236], [-84.4083637, 33.7629517], [-84.4083637, 33.7629768], [-84.408349, 33.7630078], [-84.4083395, 33.763025], [-84.4082884, 33.7630445], [-84.4082278, 33.7630301], [-84.4081993, 33.763002], [-84.4081924, 33.7629718], [-84.4081872, 33.7629437], [-84.4081759, 33.7629214], [-84.408143, 33.7629107], [-84.408111, 33.7629063], [-84.4080799, 33.7629085], [-84.4080591, 33.7629171], [-84.4080418, 33.7629035], [-84.4080461, 33.7628934], [-84.4080747, 33.7628876], [-84.4081162, 33.7628761], [-84.4081439, 33.7628596], [-84.4081647, 33.762843], [-84.4081716, 33.7628186], [-84.4081664, 33.7627984], [-84.4081612, 33.762774], [-84.4081621, 33.7627545], [-84.4081648, 33.7627469], [-84.408169, 33.7627351], [-84.408182, 33.7627214], [-84.4081958, 33.7627135], [-84.4082062, 33.762702], [-84.4082131, 33.7626833], [-84.4082971, 33.7626675], [-84.4083144, 33.7626747], [-84.4083386, 33.7626898], [-84.4083654, 33.7626999], [-84.408375, 33.7627107], [-84.4083845, 33.7627265], [-84.4084122, 33.7627308], [-84.408439, 33.7627308], [-84.4084771, 33.7627222], [-84.4084978, 33.76272], [-84.4085446, 33.7627301], [-84.4085723, 33.7627502], [-84.4085896, 33.7627804], [-84.4085878, 33.7628143], [-84.4085826, 33.7628481], [-84.4085576, 33.7628747], [-84.4085264, 33.7628912]]]}, "properties": {}}, {"type": "Feature", "geometry": {"type": "Polygon", "coordinates": [[[-84.3937202, 33.7618819], [-84.3938655, 33.762005], [-84.3937131, 33.7621294], [-84.3935678, 33.7620063], [-84.3937202, 33.7618819]]]}, "properties": {}}, {"type": "Feature", "geometry": {"type": "Polygon", "coordinates": [[[-84.3931613, 33.7619019], [-84.3928833, 33.7618987], [-84.3928793, 33.7621329], [-84.3931573, 33.7621362], [-84.3931613, 33.7619019]]]}, "properties": {"name": "All Children's Playground"}}, {"type": "Feature", "geometry": {"type": "Polygon", "coordinates": [[[-84.3843732, 33.7663113], [-84.384269, 33.7663146], [-84.3842639, 33.7662017], [-84.3844659, 33.7661953], [-84.3844698, 33.7662795], [-84.3843719, 33.7662826], [-84.3843732, 33.7663113]]]}, "properties": {"name": "St. Lukes Episcopal Church Playground"}}, {"type": "Feature", "geometry": {"type": "Polygon", "coordinates": [[[-84.3861023, 33.7643884], [-84.3860792, 33.7643812], [-84.3860138, 33.7643611], [-84.3859649, 33.7644236], [-84.3859474, 33.7644615], [-84.385985, 33.7644726], [-84.3859702, 33.7645139], [-84.3863265, 33.7646201], [-84.3863336, 33.7646049], [-84.3863898, 33.7644728], [-84.3863383, 33.7644576], [-84.3862461, 33.7644306], [-84.3861851, 33.7644127], [-84.3861023, 33.7643884]]]}, "properties": {"name": "First United Methodist Church of Atlanta Playground"}}, {"type": "Feature", "geometry": {"type": "Polygon", "coordinates": [[[-84.3774906, 33.7685197], [-84.3773747, 33.7685175], [-84.3773805, 33.7683053], [-84.3774963, 33.7683074], [-84.3774906, 33.7685197]]]}, "properties": {"name": "Central Park Tennis Courts", "surface": "paved"}}, {"type": "Feature", "geometry": {"type": "Polygon", "coordinates": [[[-84.3774984, 33.7680725], [-84.3773786, 33.7680711], [-84.3773821, 33.7678569], [-84.377502, 33.7678583], [-84.3774984, 33.7680725]]]}, "properties": {"name": "Central Park Tennis Courts", "surface": "paved"}}, {"type": "Feature", "geometry": {"type": "Polygon", "coordinates": [[[-84.3833397, 33.7620043], [-84.3833409, 33.7617889], [-84.3832009, 33.7617884], [-84.3831997, 33.7620038], [-84.3833397, 33.7620043]]]}, "properties": {}}, {"type": "Feature", "geometry": {"type": "Polygon", "coordinates": [[[-84.3830477, 33.7617883], [-84.3830443, 33.7620037], [-84.3831665, 33.762005], [-84.3831699, 33.7617896], [-84.3830477, 33.7617883]]]}, "properties": {}}, {"type": "Feature", "geometry": {"type": "Polygon", "coordinates": [[[-84.3765647, 33.7589247], [-84.3766279, 33.7588491], [-84.3777509, 33.7588465], [-84.3777525, 33.7589759], [-84.3777371, 33.7590707], [-84.3777001, 33.7592], [-84.3776708, 33.7592807], [-84.3776017, 33.7593723], [-84.3775802, 33.7594046], [-84.3774977, 33.7594776], [-84.37743, 33.75952], [-84.3773509, 33.7595651], [-84.377253, 33.7596153], [-84.3771095, 33.7596655], [-84.3770015, 33.7597034], [-84.3768895, 33.7597307], [-84.3768165, 33.759748], [-84.3767045, 33.7597692], [-84.3765647, 33.7589247]]]}, "properties": {}}, {"type": "Feature", "geometry": {"type": "Polygon", "coordinates": [[[-84.3773402, 33.7680717], [-84.3772204, 33.7680704], [-84.3772239, 33.7678562], [-84.3773438, 33.7678575], [-84.3773402, 33.7680717]]]}, "properties": {"name": "Central Park Tennis Courts", "surface": "concrete"}}, {"type": "Feature", "geometry": {"type": "Polygon", "coordinates": [[[-84.3773357, 33.7685199], [-84.3772158, 33.7685185], [-84.3772194, 33.7683043], [-84.3773392, 33.7683057], [-84.3773357, 33.7685199]]]}, "properties": {"name": "Central Park Tennis Courts", "surface": "paved"}}, {"type": "Feature", "geometry": {"type": "Polygon", "coordinates": [[[-84.4125163, 33.773696], [-84.413316, 33.7736934], [-84.4133171, 33.7739444], [-84.4125175, 33.7739468], [-84.4125163, 33.773696]]]}, "properties": {}}, {"type": "Feature", "geometry": {"type": "Polygon", "coordinates": [[[-84.4134322, 33.778437], [-84.4126693, 33.7782259], [-84.4126288, 33.778205], [-84.4126047, 33.7781758], [-84.4125127, 33.7780257], [-84.4124832, 33.7780021], [-84.4122205, 33.7779311], [-84.4121745, 33.7779047], [-84.412157, 33.7778656], [-84.4121603, 33.7778274], [-84.4121767, 33.7777937], [-84.4122194, 33.7777746], [-84.4122752, 33.7777728], [-84.4124668, 33.7778228], [-84.4134924, 33.778103], [-84.4135395, 33.7781267], [-84.4135614, 33.7781622], [-84.4135669, 33.7782195], [-84.4135647, 33.7783851], [-84.4135515, 33.7784133], [-84.4135242, 33.7784324], [-84.413476, 33.7784461], [-84.4134322, 33.778437]]]}, "properties": {}}, {"type": "Feature", "geometry": {"type": "Polygon", "coordinates": [[[-84.4158392, 33.7693066], [-84.4158115, 33.7693242], [-84.4157786, 33.7693337], [-84.4157438, 33.7693343], [-84.4157078, 33.7693247], [-84.4156778, 33.7693056], [-84.4156573, 33.7692792], [-84.4156487, 33.7692486], [-84.415653, 33.7692174], [-84.4156696, 33.7691892], [-84.4156968, 33.7691673], [-84.4157312, 33.7691543], [-84.4157688, 33.7691517], [-84.4158053, 33.7691598], [-84.4158343, 33.7691759], [-84.4158558, 33.7691987], [-84.4158676, 33.769226], [-84.4158687, 33.7692549], [-84.4158589, 33.7692827], [-84.4158392, 33.7693066]]]}, "properties": {}}, {"type": "Feature", "geometry": {"type": "Polygon", "coordinates": [[[-84.4108503, 33.7712838], [-84.410778, 33.7712863], [-84.4107525, 33.771303], [-84.4107402, 33.7713259], [-84.4107416, 33.7713508], [-84.4107008, 33.7713676], [-84.4106669, 33.771388], [-84.4106581, 33.771413], [-84.4106587, 33.7714314], [-84.4106596, 33.7714538], [-84.4106758, 33.7714763], [-84.4107075, 33.7714898], [-84.4107551, 33.7714849], [-84.4107852, 33.7714743], [-84.4108202, 33.7714716], [-84.4108561, 33.771476], [-84.4108971, 33.7714837], [-84.4109362, 33.7714759], [-84.4109612, 33.7714502], [-84.4109659, 33.7714226], [-84.4109503, 33.7713941], [-84.4109217, 33.7713776], [-84.4108966, 33.7713741], [-84.4108743, 33.7713634], [-84.4108849, 33.77134], [-84.41088, 33.7713036], [-84.4108503, 33.7712838]]]}, "properties": {"surface": "woodchips"}}, {"type": "Feature", "geometry": {"type": "Polygon", "coordinates": [[[-84.402719, 33.7764103], [-84.4027562, 33.776408], [-84.4046909, 33.7765152], [-84.4047228, 33.7765215], [-84.4047473, 33.7765416], [-84.4047602, 33.7765557], [-84.404768, 33.7765838], [-84.4046722, 33.7772033], [-84.4026626, 33.7770929], [-84.4026377, 33.7770511], [-84.4026684, 33.7764624], [-84.4026896, 33.7764287], [-84.402719, 33.7764103]]]}, "properties": {"name": "Roe Stamps Field", "surface": "artificial_turf"}}, {"type": "Feature", "geometry": {"type": "Polygon", "coordinates": [[[-84.4048687, 33.7770696], [-84.404878, 33.7769193], [-84.4049712, 33.7769214], [-84.4049635, 33.7770728], [-84.4048687, 33.7770696]]]}, "properties": {"surface": "sand"}}, {"type": "Feature", "geometry": {"type": "Polygon", "coordinates": [[[-84.404883, 33.7767797], [-84.4048885, 33.7766238], [-84.4049938, 33.7766246], [-84.4049833, 33.7767833], [-84.404883, 33.7767797]]]}, "properties": {"surface": "sand"}}, {"type": "Feature", "geometry": {"type": "Polygon", "coordinates": [[[-84.4026035, 33.7769899], [-84.4026128, 33.7770673], [-84.4026717, 33.7771189], [-84.4046486, 33.7772324], [-84.4047045, 33.7772195], [-84.4047448, 33.7771628], [-84.4047852, 33.7765951], [-84.4047804, 33.7765672], [-84.4047685, 33.7765413], [-84.4047434, 33.7765172], [-84.4047238, 33.7765068], [-84.4046926, 33.7764998], [-84.4028858, 33.7764026], [-84.4027584, 33.7763945], [-84.4027224, 33.7763969], [-84.4026805, 33.7764144], [-84.402656, 33.7764495], [-84.4026531, 33.7764727], [-84.402613, 33.7768773], [-84.4026035, 33.7769899]]]}, "properties": {}}, {"type": "Feature", "geometry": {"type": "Polygon", "coordinates": [[[-84.4078025, 33.7715662], [-84.4077958, 33.7716648], [-84.4078776, 33.7717285], [-84.407955, 33.7717179], [-84.4079627, 33.771542], [-84.4078898, 33.7715409], [-84.4078898, 33.7714969], [-84.4078025, 33.7715662]]]}, "properties": {"surface": "rubber"}}, {"type": "Feature", "geometry": {"type": "Polygon", "coordinates": [[[-84.3985933, 33.7743391], [-84.3985844, 33.7743389], [-84.3985851, 33.7743187], [-84.3985941, 33.7743189], [-84.3985933, 33.7743391]]]}, "properties": {}}, {"type": "Feature", "geometry": {"type": "Polygon", "coordinates": [[[-84.3925813, 33.7730021], [-84.3925849, 33.7719963], [-84.3931311, 33.7719977], [-84.3931275, 33.7730035], [-84.3925813, 33.7730021]]]}, "properties": {"name": "Hyundai Field (Historic Grant Field)"}}, {"type": "Feature", "geometry": {"type": "Polygon", "coordinates": [[[-84.3949659, 33.7767823], [-84.3949706, 33.7765856], [-84.3950692, 33.7765878], [-84.3950641, 33.7767839], [-84.3949659, 33.7767823]]]}, "properties": {"name": "The Court at Pi Kappa Alpha"}}, {"type": "Feature", "geometry": {"type": "Polygon", "coordinates": [[[-84.3944928, 33.7767468], [-84.3944977, 33.7766644], [-84.3945927, 33.7766674], [-84.3945911, 33.7768341], [-84.3944923, 33.7768285], [-84.3944928, 33.7767468]]]}, "properties": {}}, {"type": "Feature", "geometry": {"type": "Polygon", "coordinates": [[[-84.3951087, 33.7774306], [-84.394773, 33.7781311], [-84.394748, 33.778225], [-84.3943844, 33.77822], [-84.3943202, 33.7782176], [-84.3942639, 33.7782112], [-84.3942026, 33.7781923], [-84.3941542, 33.7781651], [-84.3940989, 33.7781241], [-84.3940345, 33.7780648], [-84.3939731, 33.778004], [-84.3939433, 33.7779592], [-84.3939305, 33.7779019], [-84.3939273, 33.7778243], [-84.3939299, 33.777676], [-84.3939288, 33.7776373], [-84.3939321, 33.7773784], [-84.3939357, 33.7772531], [-84.3940838, 33.7772718], [-84.3944984, 33.7772727], [-84.3949771, 33.7772702], [-84.3951087, 33.7774306]]]}, "properties": {}}, {"type": "Feature", "geometry": {"type": "Polygon", "coordinates": [[[-84.3936086, 33.7746339], [-84.3933134, 33.7747029], [-84.3932723, 33.7745813], [-84.3935675, 33.7745124], [-84.3936086, 33.7746339]]]}, "properties": {"surface": "concrete", "layer": "1"}}, {"type": "Feature", "geometry": {"type": "Polygon", "coordinates": [[[-84.3937171, 33.775013], [-84.3936083, 33.7750381], [-84.3936772, 33.7752441], [-84.3937861, 33.775219], [-84.3937171, 33.775013]]]}, "properties": {"surface": "concrete", "layer": "1"}}, {"type": "Feature", "geometry": {"type": "Polygon", "coordinates": [[[-84.3926893, 33.7770506], [-84.3926888, 33.7770752], [-84.3926857, 33.7772178], [-84.392572, 33.7772144], [-84.3925753, 33.777048], [-84.3926893, 33.7770506]]]}, "properties": {"name": "TKE Volleyball Court", "surface": "sand"}}, {"type": "Feature", "geometry": {"type": "Polygon", "coordinates": [[[-84.393645, 33.7752564], [-84.3935269, 33.7752851], [-84.3934541, 33.7750778], [-84.3935722, 33.7750492], [-84.393645, 33.7752564]]]}, "properties": {"surface": "concrete"}}, {"type": "Feature", "geometry": {"type": "Polygon", "coordinates": [[[-84.3939054, 33.775538], [-84.3937878, 33.7755667], [-84.3937135, 33.7753562], [-84.3938312, 33.7753275], [-84.3939054, 33.775538]]]}, "properties": {"surface": "concrete"}}, {"type": "Feature", "geometry": {"type": "Polygon", "coordinates": [[[-84.3937557, 33.7755742], [-84.3936391, 33.7756019], [-84.3935678, 33.7753949], [-84.3936844, 33.7753672], [-84.3937557, 33.7755742]]]}, "properties": {"surface": "concrete"}}, {"type": "Feature", "geometry": {"type": "Polygon", "coordinates": [[[-84.3935029, 33.7743369], [-84.393208, 33.7744081], [-84.3931672, 33.7742912], [-84.3934621, 33.7742201], [-84.3935029, 33.7743369]]]}, "properties": {"surface": "concrete"}}, {"type": "Feature", "geometry": {"type": "Polygon", "coordinates": [[[-84.3841329, 33.7709588], [-84.3841302, 33.7710714], [-84.3840142, 33.7710999], [-84.383962, 33.771081], [-84.3839804, 33.7710468], [-84.384027, 33.7709594], [-84.3841329, 33.7709588]]]}, "properties": {"name": "North Avenue Presbyterian Church Playground"}}, {"type": "Feature", "geometry": {"type": "Polygon", "coordinates": [[[-84.383518, 33.7688967], [-84.3834989, 33.7688961], [-84.3834986, 33.768703], [-84.3836562, 33.7687013], [-84.3836773, 33.7687197], [-84.383679, 33.7687554], [-84.383518, 33.7688967]]]}, "properties": {"name": "Premier Academy Campus Playground"}}, {"type": "Feature", "geometry": {"type": "Polygon", "coordinates": [[[-84.3839525, 33.7690675], [-84.3837078, 33.7690703], [-84.3836994, 33.7690648], [-84.3837049, 33.769056], [-84.383909, 33.7688819], [-84.3839515, 33.7688825], [-84.3839525, 33.7690675]]]}, "properties": {"name": "Premier Academy Campus Playground"}}, {"type": "Feature", "geometry": {"type": "Polygon", "coordinates": [[[-84.3834479, 33.7743936], [-84.3834596, 33.7742763], [-84.383676, 33.7742913], [-84.3836642, 33.7744086], [-84.3834479, 33.7743936]]]}, "properties": {}}, {"type": "Feature", "geometry": {"type": "Polygon", "coordinates": [[[-84.3882193, 33.7720625], [-84.3882203, 33.7719243], [-84.3882219, 33.7719036], [-84.3882119, 33.7718839], [-84.3881985, 33.7718618], [-84.3881841, 33.7718446], [-84.3881717, 33.7718317], [-84.3881737, 33.7718145], [-84.388177, 33.7717922], [-84.3881901, 33.7717771], [-84.3882002, 33.7717679], [-84.3882062, 33.7717587], [-84.3883058, 33.7717598], [-84.3883353, 33.7717654], [-84.3883621, 33.7717766], [-84.3883789, 33.7717938], [-84.3883816, 33.7718318], [-84.3883352, 33.7718322], [-84.3883355, 33.7718513], [-84.3883357, 33.7718716], [-84.3883366, 33.7719486], [-84.3883815, 33.7719485], [-84.3884992, 33.7719479], [-84.3884992, 33.7720626], [-84.3882193, 33.7720625]]]}, "properties": {"name": "All Saints' Episcopal Church Playground"}}, {"type": "Feature", "geometry": {"type": "Polygon", "coordinates": [[[-84.3914042, 33.7699615], [-84.3913079, 33.7699615], [-84.3913091, 33.7697998], [-84.3914092, 33.7698014], [-84.3914042, 33.7699615]]]}, "properties": {"surface": "sand"}}, {"type": "Feature", "geometry": {"type": "Polygon", "coordinates": [[[-84.3762718, 33.7692611], [-84.3762567, 33.7694806], [-84.376094, 33.7694728], [-84.3761091, 33.7692533], [-84.3762718, 33.7692611]]]}, "properties": {"surface": "plastic"}}, {"type": "Feature", "geometry": {"type": "Polygon", "coordinates": [[[-84.375903, 33.7695307], [-84.3758931, 33.7696681], [-84.3756286, 33.7696549], [-84.3756365, 33.7695464], [-84.3756386, 33.7695174], [-84.375903, 33.7695307]]]}, "properties": {"surface": "plastic"}}, {"type": "Feature", "geometry": {"type": "Polygon", "coordinates": [[[-84.3765167, 33.7688683], [-84.3765245, 33.7688454], [-84.3765727, 33.7688081], [-84.3766029, 33.7688041], [-84.3771656, 33.7688532], [-84.3771334, 33.7689709], [-84.3770552, 33.7690768], [-84.376977, 33.7691742], [-84.3768422, 33.7692539], [-84.3767151, 33.7693097], [-84.3765668, 33.7693391], [-84.3765167, 33.7688683]]]}, "properties": {}}, {"type": "Feature", "geometry": {"type": "Polygon", "coordinates": [[[-84.3763485, 33.7689363], [-84.376338, 33.7690741], [-84.3760678, 33.7690599], [-84.3760783, 33.768922], [-84.3763485, 33.7689363]]]}, "properties": {"surface": "plastic"}}, {"type": "Feature", "geometry": {"type": "Polygon", "coordinates": [[[-84.3759158, 33.7693682], [-84.3759058, 33.7695056], [-84.3756414, 33.7694924], [-84.3756514, 33.7693549], [-84.3759158, 33.7693682]]]}, "properties": {"surface": "plastic"}}, {"type": "Feature", "geometry": {"type": "Polygon", "coordinates": [[[-84.3753296, 33.7693125], [-84.3752194, 33.7693044], [-84.3751544, 33.7692571], [-84.3751162, 33.7690815], [-84.3752242, 33.7691021], [-84.3753441, 33.7690909], [-84.3753296, 33.7693125]]]}, "properties": {}}, {"type": "Feature", "geometry": {"type": "Polygon", "coordinates": [[[-84.4169661, 33.787637], [-84.4159164, 33.7876471], [-84.4159088, 33.7871031], [-84.4169584, 33.7870928], [-84.4169661, 33.787637]]]}, "properties": {}}, {"type": "Feature", "geometry": {"type": "Polygon", "coordinates": [[[-84.3984343, 33.7844331], [-84.3984178, 33.7844501], [-84.3983072, 33.7844453], [-84.3982929, 33.7844327], [-84.3982962, 33.7842619], [-84.3983112, 33.7842512], [-84.3984279, 33.7842578], [-84.3984407, 33.7842698], [-84.3984343, 33.7844331]]]}, "properties": {"surface": "sand"}}, {"type": "Feature", "geometry": {"type": "Polygon", "coordinates": [[[-84.3999122, 33.7822361], [-84.3999068, 33.7821448], [-84.3997782, 33.7821425], [-84.3997755, 33.7822339], [-84.3999122, 33.7822361]]]}, "properties": {"name": "Home Park Park Playground"}}, {"type": "Feature", "geometry": {"type": "Polygon", "coordinates": [[[-84.405905, 33.7789444], [-84.4058464, 33.7789926], [-84.4057279, 33.7788874], [-84.4057915, 33.7788361], [-84.405905, 33.7789444]]]}, "properties": {"surface": "sand"}}, {"type": "Feature", "geometry": {"type": "Polygon", "coordinates": [[[-84.4004985, 33.7822186], [-84.4005021, 33.7820592], [-84.4001381, 33.7820536], [-84.4001345, 33.782213], [-84.4004985, 33.7822186]]]}, "properties": {}}, {"type": "Feature", "geometry": {"type": "Polygon", "coordinates": [[[-84.3929608, 33.7785985], [-84.3929988, 33.7785961], [-84.3930371, 33.7785966], [-84.3930535, 33.7785976], [-84.3930908, 33.7786047], [-84.3933338, 33.7786513], [-84.3932866, 33.7789843], [-84.3932345, 33.7791655], [-84.3932063, 33.7792056], [-84.3931694, 33.7792316], [-84.3930856, 33.7792172], [-84.3928929, 33.7791817], [-84.3928211, 33.7791609], [-84.3925427, 33.7790801], [-84.3925965, 33.778841], [-84.3926264, 33.7787879], [-84.3926419, 33.778766], [-84.3926602, 33.7787454], [-84.3926831, 33.7787178], [-84.392704, 33.7787015], [-84.3927207, 33.7786884], [-84.3927542, 33.7786659], [-84.3927885, 33.7786471], [-84.3928084, 33.7786378], [-84.392836, 33.7786267], [-84.3928643, 33.7786173], [-84.3928982, 33.7786086], [-84.3929306, 33.7786023], [-84.3929608, 33.7785985]]]}, "properties": {}}, {"type": "Feature", "geometry": {"type": "Polygon", "coordinates": [[[-84.3938284, 33.7792744], [-84.3938564, 33.7783443], [-84.3944689, 33.7783571], [-84.3944408, 33.7792872], [-84.3938284, 33.7792744]]]}, "properties": {"name": "Rose Bowl Field"}}, {"type": "Feature", "geometry": {"type": "Polygon", "coordinates": [[[-84.3945212, 33.7793076], [-84.3945609, 33.7783442], [-84.3953439, 33.7783665], [-84.3953043, 33.7793298], [-84.3945212, 33.7793076]]]}, "properties": {"name": "Brock Football Practice Facility"}}, {"type": "Feature", "geometry": {"type": "Polygon", "coordinates": [[[-84.3947066, 33.7799823], [-84.3942375, 33.779971], [-84.3942371, 33.7799838], [-84.3947061, 33.779995], [-84.3947066, 33.7799823]]]}, "properties": {}}, {"type": "Feature", "geometry": {"type": "Polygon", "coordinates": [[[-84.3943807, 33.7800449], [-84.3951676, 33.7800627], [-84.3951679, 33.7800494], [-84.3943811, 33.7800316], [-84.3943807, 33.7800449]]]}, "properties": {}}, {"type": "Feature", "geometry": {"type": "Polygon", "coordinates": [[[-84.3944341, 33.7794468], [-84.3950705, 33.7794625], [-84.3950709, 33.7794512], [-84.3944345, 33.7794356], [-84.3944341, 33.7794468]]]}, "properties": {}}, {"type": "Feature", "geometry": {"type": "Polygon", "coordinates": [[[-84.3953221, 33.7823903], [-84.3953034, 33.7822935], [-84.3953936, 33.7821941], [-84.3954542, 33.7820911], [-84.3954659, 33.781963], [-84.3955325, 33.7819028], [-84.3956072, 33.7818902], [-84.3956819, 33.7819048], [-84.3957391, 33.7819474], [-84.3957682, 33.7820165], [-84.3957491, 33.7821018], [-84.3956043, 33.7822652], [-84.3955923, 33.7822805], [-84.3954824, 33.7824166], [-84.3953975, 33.7824224], [-84.3953221, 33.7823903]]]}, "properties": {"surface": "unpaved"}}, {"type": "Feature", "geometry": {"type": "Polygon", "coordinates": [[[-84.3953153, 33.7799964], [-84.3948455, 33.7799851], [-84.394845, 33.7799979], [-84.3953149, 33.7800091], [-84.3953153, 33.7799964]]]}, "properties": {}}, {"type": "Feature", "geometry": {"type": "Polygon", "coordinates": [[[-84.394845, 33.7799979], [-84.3948442, 33.7800195], [-84.3947053, 33.780016], [-84.3947061, 33.779995], [-84.3947066, 33.7799823], [-84.3947074, 33.779958], [-84.3948464, 33.7799616], [-84.3948455, 33.7799851], [-84.394845, 33.7799979]]]}, "properties": {}}, {"type": "Feature", "geometry": {"type": "Polygon", "coordinates": [[[-84.3951676, 33.7800627], [-84.3951673, 33.7800701], [-84.3952662, 33.7800721], [-84.395267, 33.7800434], [-84.3951682, 33.7800413], [-84.3951679, 33.7800494], [-84.3951676, 33.7800627]]]}, "properties": {"surface": "sand"}}, {"type": "Feature", "geometry": {"type": "Polygon", "coordinates": [[[-84.3943811, 33.7800316], [-84.3943813, 33.7800242], [-84.3942824, 33.7800222], [-84.3942816, 33.7800509], [-84.3943804, 33.7800529], [-84.3943807, 33.7800449], [-84.3943811, 33.7800316]]]}, "properties": {"surface": "sand"}}, {"type": "Feature", "geometry": {"type": "Polygon", "coordinates": [[[-84.3950705, 33.7794625], [-84.3950702, 33.779472], [-84.3951733, 33.7794742], [-84.3951741, 33.7794454], [-84.3950711, 33.7794433], [-84.3950709, 33.7794512], [-84.3950705, 33.7794625]]]}, "properties": {"surface": "sand"}}, {"type": "Feature", "geometry": {"type": "Polygon", "coordinates": [[[-84.3944341, 33.7794468], [-84.3944337, 33.779457], [-84.3943304, 33.7794543], [-84.3943315, 33.7794246], [-84.3944349, 33.7794273], [-84.3944345, 33.7794356], [-84.3944341, 33.7794468]]]}, "properties": {"surface": "sand"}}, {"type": "Feature", "geometry": {"type": "Polygon", "coordinates": [[[-84.3953338, 33.7795943], [-84.395105, 33.7796701], [-84.3950969, 33.7796492], [-84.3950924, 33.7796283], [-84.3950887, 33.7796066], [-84.3950877, 33.779585], [-84.3950887, 33.7795633], [-84.3950924, 33.7795424], [-84.3951018, 33.7795215], [-84.3951138, 33.7795028], [-84.3953339, 33.779587], [-84.3953338, 33.7795943]]]}, "properties": {}}, {"type": "Feature", "geometry": {"type": "Polygon", "coordinates": [[[-84.395334, 33.7795788], [-84.3953339, 33.779587], [-84.3953338, 33.7795943], [-84.3953336, 33.7796098], [-84.3953708, 33.7796101], [-84.3953711, 33.779579], [-84.395334, 33.7795788]]]}, "properties": {}}, {"type": "Feature", "geometry": {"type": "Polygon", "coordinates": [[[-84.3956304, 33.7797872], [-84.3952383, 33.7797776], [-84.3952344, 33.7797679], [-84.3952341, 33.7797575], [-84.3952346, 33.7797478], [-84.3952369, 33.7797381], [-84.3956319, 33.7797492], [-84.3956324, 33.7797694], [-84.3956304, 33.7797872]]]}, "properties": {}}, {"type": "Feature", "geometry": {"type": "Polygon", "coordinates": [[[-84.3952383, 33.7797776], [-84.3944027, 33.7799324], [-84.3943854, 33.779835], [-84.3943803, 33.7797359], [-84.3943935, 33.7796344], [-84.394419, 33.7795395], [-84.3952369, 33.7797381], [-84.3952346, 33.7797478], [-84.3952341, 33.7797575], [-84.3952344, 33.7797679], [-84.3952383, 33.7797776]]]}, "properties": {}}, {"type": "Feature", "geometry": {"type": "Polygon", "coordinates": [[[-84.3942698, 33.7799493], [-84.394241, 33.7799588], [-84.3941384, 33.7799724], [-84.3941043, 33.7799614], [-84.3940817, 33.7799173], [-84.3940937, 33.7798912], [-84.3941654, 33.779843], [-84.3942047, 33.779825], [-84.394226, 33.779864], [-84.3948108, 33.7794375], [-84.3948537, 33.7794831], [-84.3948919, 33.7795287], [-84.3949263, 33.7795794], [-84.394956, 33.7796302], [-84.3949796, 33.7796819], [-84.3949986, 33.7797336], [-84.3950129, 33.7797872], [-84.3950226, 33.7798408], [-84.3942493, 33.7799119], [-84.3942698, 33.7799493]]]}, "properties": {}}, {"type": "Feature", "geometry": {"type": "Polygon", "coordinates": [[[-84.3946491, 33.7809341], [-84.3946552, 33.78072], [-84.3947738, 33.7807223], [-84.3947677, 33.7809365], [-84.3946491, 33.7809341]]]}, "properties": {}}, {"type": "Feature", "geometry": {"type": "Polygon", "coordinates": [[[-84.3944926, 33.7809314], [-84.3944987, 33.7807173], [-84.3946173, 33.7807196], [-84.3946112, 33.7809338], [-84.3944926, 33.7809314]]]}, "properties": {}}, {"type": "Feature", "geometry": {"type": "Polygon", "coordinates": [[[-84.3941778, 33.7809237], [-84.3941839, 33.7807095], [-84.3943025, 33.7807118], [-84.3942964, 33.780926], [-84.3941778, 33.7809237]]]}, "properties": {}}, {"type": "Feature", "geometry": {"type": "Polygon", "coordinates": [[[-84.3943344, 33.7809264], [-84.3943405, 33.7807122], [-84.3944591, 33.7807145], [-84.394453, 33.7809287], [-84.3943344, 33.7809264]]]}, "properties": {}}, {"type": "Feature", "geometry": {"type": "Polygon", "coordinates": [[[-84.3945075, 33.7805927], [-84.3945136, 33.7803785], [-84.3946322, 33.7803808], [-84.3946261, 33.780595], [-84.3945075, 33.7805927]]]}, "properties": {}}, {"type": "Feature", "geometry": {"type": "Polygon", "coordinates": [[[-84.3946641, 33.7805954], [-84.3946701, 33.7803812], [-84.3947887, 33.7803835], [-84.3947827, 33.7805977], [-84.3946641, 33.7805954]]]}, "properties": {}}, {"type": "Feature", "geometry": {"type": "Polygon", "coordinates": [[[-84.3941886, 33.780585], [-84.3941947, 33.7803708], [-84.3943133, 33.7803731], [-84.3943072, 33.7805873], [-84.3941886, 33.780585]]]}, "properties": {}}, {"type": "Feature", "geometry": {"type": "Polygon", "coordinates": [[[-84.3943452, 33.7805877], [-84.3943512, 33.7803735], [-84.3944698, 33.7803759], [-84.3944638, 33.78059], [-84.3943452, 33.7805877]]]}, "properties": {}}, {"type": "Feature", "geometry": {"type": "Polygon", "coordinates": [[[-84.3938736, 33.780576], [-84.3938797, 33.7803619], [-84.3939983, 33.7803642], [-84.3939922, 33.7805784], [-84.3938736, 33.780576]]]}, "properties": {}}, {"type": "Feature", "geometry": {"type": "Polygon", "coordinates": [[[-84.3940301, 33.7805787], [-84.3940362, 33.7803646], [-84.3941548, 33.7803669], [-84.3941487, 33.7805811], [-84.3940301, 33.7805787]]]}, "properties": {}}, {"type": "Feature", "geometry": {"type": "Polygon", "coordinates": [[[-84.3955462, 33.7799498], [-84.3953224, 33.779946], [-84.3953332, 33.7795776], [-84.3955659, 33.7795822], [-84.3955916, 33.7796168], [-84.3956135, 33.779664], [-84.3956284, 33.7797111], [-84.3956319, 33.7797492], [-84.3956324, 33.7797694], [-84.3956304, 33.7797872], [-84.3956281, 33.7798095], [-84.395615, 33.7798575], [-84.3955917, 33.7799004], [-84.3955522, 33.7799433], [-84.3955462, 33.7799498]]]}, "properties": {}}, {"type": "Feature", "geometry": {"type": "Polygon", "coordinates": [[[-84.3875066, 33.7863788], [-84.3873878, 33.786378], [-84.3873898, 33.786163], [-84.3875087, 33.7861638], [-84.3875066, 33.7863788]]]}, "properties": {}}, {"type": "Feature", "geometry": {"type": "Polygon", "coordinates": [[[-84.3873905, 33.7840201], [-84.3871082, 33.7840194], [-84.3870608, 33.7840193], [-84.3870611, 33.7840625], [-84.3870605, 33.7841373], [-84.38706, 33.7842012], [-84.387102, 33.7842014], [-84.3873885, 33.7842031], [-84.3873888, 33.7841617], [-84.3873905, 33.7840201]]]}, "properties": {"name": "The Children's Campus at Alston & Bird Playground"}}, {"type": "Feature", "geometry": {"type": "Polygon", "coordinates": [[[-84.3898042, 33.7837164], [-84.3897496, 33.7837162], [-84.3897497, 33.7837017], [-84.389682, 33.7837014], [-84.3896816, 33.7837777], [-84.3897022, 33.7837778], [-84.389702, 33.7838198], [-84.3896842, 33.7838198], [-84.389684, 33.7838682], [-84.3897494, 33.7838685], [-84.3897495, 33.7838525], [-84.389801, 33.7838527], [-84.3898009, 33.7838651], [-84.3898815, 33.7838653], [-84.3898815, 33.783873], [-84.3898983, 33.7838727], [-84.3899001, 33.7837097], [-84.3898769, 33.7836969], [-84.3898772, 33.7836874], [-84.3898427, 33.7836869], [-84.3898427, 33.7836991], [-84.3898043, 33.7836989], [-84.3898042, 33.7837164]]]}, "properties": {}}, {"type": "Feature", "geometry": {"type": "Polygon", "coordinates": [[[-84.3896817, 33.7842494], [-84.3897797, 33.7842501], [-84.3897799, 33.7842315], [-84.389831, 33.7842318], [-84.3898306, 33.7842666], [-84.3898822, 33.7842669], [-84.3898846, 33.7840378], [-84.389684, 33.7840363], [-84.3896817, 33.7842494]]]}, "properties": {}}, {"type": "Feature", "geometry": {"type": "Polygon", "coordinates": [[[-84.3761843, 33.7863818], [-84.3760405, 33.7864522], [-84.3758727, 33.7869516], [-84.3760213, 33.7869874], [-84.3762147, 33.7870047], [-84.3763904, 33.7870007], [-84.3765151, 33.7869303], [-84.3766142, 33.786844], [-84.3766829, 33.7867205], [-84.3767244, 33.7866222], [-84.376742, 33.7864974], [-84.3761843, 33.7863818]]]}, "properties": {"surface": "grass"}}, {"type": "Feature", "geometry": {"type": "Polygon", "coordinates": [[[-84.3762529, 33.7861562], [-84.3761858, 33.7860872], [-84.3763808, 33.7855134], [-84.3765454, 33.7855546], [-84.3767275, 33.7856369], [-84.3768538, 33.7857578], [-84.3768953, 33.7859464], [-84.3768777, 33.786127], [-84.3768122, 33.7862811], [-84.3762529, 33.7861562]]]}, "properties": {"surface": "grass"}}, {"type": "Feature", "geometry": {"type": "Polygon", "coordinates": [[[-84.3761299, 33.7874804], [-84.3761901, 33.7872661], [-84.3758671, 33.7872035], [-84.3758069, 33.7874178], [-84.3761299, 33.7874804]]]}, "properties": {"surface": "sand"}}, {"type": "Feature", "geometry": {"type": "Polygon", "coordinates": [[[-84.375189, 33.7862185], [-84.3749444, 33.7871566], [-84.375623, 33.7872788], [-84.3758675, 33.7863407], [-84.375189, 33.7862185]]]}, "properties": {"surface": "grass"}}, {"type": "Feature", "geometry": {"type": "Polygon", "coordinates": [[[-84.3752658, 33.7859911], [-84.3755348, 33.7850536], [-84.3761694, 33.7851794], [-84.3759004, 33.7861169], [-84.3752658, 33.7859911]]]}, "properties": {"surface": "grass"}}, {"type": "Feature", "geometry": {"type": "Polygon", "coordinates": [[[-84.3741758, 33.7852762], [-84.3742056, 33.7852146], [-84.3742658, 33.7851807], [-84.3743376, 33.7851871], [-84.3743804, 33.7852226], [-84.3744172, 33.7852065], [-84.3744677, 33.7852081], [-84.3745221, 33.7852323], [-84.3745551, 33.7852646], [-84.3745687, 33.7852969], [-84.3745726, 33.785334], [-84.3745473, 33.7853582], [-84.3745447, 33.785378], [-84.3745338, 33.7853985], [-84.3745119, 33.785425], [-84.3744607, 33.7854421], [-84.3744414, 33.7854478], [-84.3744273, 33.7854507], [-84.3744037, 33.7854679], [-84.3743862, 33.7854873], [-84.3743629, 33.7854921], [-84.3743454, 33.7854566], [-84.3743303, 33.7854028], [-84.374321, 33.785373], [-84.3743016, 33.7853439], [-84.3742767, 33.785322], [-84.3742426, 33.7853054], [-84.3741758, 33.7852762]]]}, "properties": {"name": "Mayor\u2019s Grove Playground"}}, {"type": "Feature", "geometry": {"type": "Polygon", "coordinates": [[[-84.377417, 33.7846601], [-84.3776471, 33.7845967], [-84.3777389, 33.7845714], [-84.3779494, 33.7850992], [-84.3776275, 33.7851879], [-84.377417, 33.7846601]]]}, "properties": {"name": "Noguchi Playscape"}}, {"type": "Feature", "geometry": {"type": "Polygon", "coordinates": [[[-84.3735385, 33.7875294], [-84.3734198, 33.7875267], [-84.3734268, 33.7873134], [-84.3735456, 33.7873161], [-84.3735385, 33.7875294]]]}, "properties": {"surface": "paved"}}, {"type": "Feature", "geometry": {"type": "Polygon", "coordinates": [[[-84.3740053, 33.7875431], [-84.3738865, 33.7875404], [-84.3738936, 33.7873271], [-84.3740123, 33.7873298], [-84.3740053, 33.7875431]]]}, "properties": {"surface": "paved"}}, {"type": "Feature", "geometry": {"type": "Polygon", "coordinates": [[[-84.3732614, 33.7870844], [-84.3735847, 33.7870892], [-84.3735816, 33.7872341], [-84.3732583, 33.7872293], [-84.3732614, 33.7870844]]]}, "properties": {"surface": "asphalt"}}, {"type": "Feature", "geometry": {"type": "Polygon", "coordinates": [[[-84.3732306, 33.7873943], [-84.3732328, 33.7872517], [-84.3733364, 33.7872528], [-84.3733343, 33.7873954], [-84.3732306, 33.7873943]]]}, "properties": {"surface": "asphalt"}}, {"type": "Feature", "geometry": {"type": "Polygon", "coordinates": [[[-84.3739147, 33.7872077], [-84.3737959, 33.787205], [-84.373803, 33.7869916], [-84.3739217, 33.7869943], [-84.3739147, 33.7872077]]]}, "properties": {"surface": "paved"}}, {"type": "Feature", "geometry": {"type": "Polygon", "coordinates": [[[-84.3738502, 33.7875385], [-84.3737314, 33.7875358], [-84.3737384, 33.7873225], [-84.3738572, 33.7873252], [-84.3738502, 33.7875385]]]}, "properties": {"surface": "paved"}}, {"type": "Feature", "geometry": {"type": "Polygon", "coordinates": [[[-84.3740616, 33.7872111], [-84.3739428, 33.7872084], [-84.3739499, 33.786995], [-84.3740686, 33.7869977], [-84.3740616, 33.7872111]]]}, "properties": {"surface": "paved"}}, {"type": "Feature", "geometry": {"type": "Polygon", "coordinates": [[[-84.3741632, 33.7875454], [-84.3740444, 33.7875427], [-84.3740515, 33.7873293], [-84.3741702, 33.787332], [-84.3741632, 33.7875454]]]}, "properties": {"surface": "paved"}}, {"type": "Feature", "geometry": {"type": "Polygon", "coordinates": [[[-84.3736923, 33.787534], [-84.3735735, 33.7875313], [-84.3735806, 33.7873179], [-84.3736993, 33.7873206], [-84.3736923, 33.787534]]]}, "properties": {"surface": "paved"}}, {"type": "Feature", "geometry": {"type": "Polygon", "coordinates": [[[-84.3737705, 33.787202], [-84.3736518, 33.7871992], [-84.3736588, 33.7869859], [-84.3737776, 33.7869886], [-84.3737705, 33.787202]]]}, "properties": {"surface": "paved"}}, {"type": "Feature", "geometry": {"type": "Polygon", "coordinates": [[[-84.372874, 33.7873773], [-84.3728451, 33.7873304], [-84.3728243, 33.7872835], [-84.372784, 33.7872004], [-84.3728003, 33.7871179], [-84.3728266, 33.7870057], [-84.3728151, 33.7869576], [-84.372744, 33.7869341], [-84.3726086, 33.7868961], [-84.3725379, 33.7868883], [-84.3725013, 33.786918], [-84.3724794, 33.7869627], [-84.3724926, 33.7870174], [-84.3725435, 33.7871796], [-84.3725717, 33.7872906], [-84.3726016, 33.7873944], [-84.3726385, 33.7874586], [-84.3726701, 33.7874849], [-84.3727342, 33.7874552], [-84.3727913, 33.787427], [-84.372874, 33.7873773]]]}, "properties": {}}, {"type": "Feature", "geometry": {"type": "Polygon", "coordinates": [[[-84.3709916, 33.7816139], [-84.3708871, 33.7816136], [-84.3708882, 33.7814034], [-84.3709927, 33.7814038], [-84.3709916, 33.7816139]]]}, "properties": {}}, {"type": "Feature", "geometry": {"type": "Polygon", "coordinates": [[[-84.3814956, 33.7875428], [-84.3815888, 33.7874645], [-84.3814448, 33.7873461], [-84.3813516, 33.7874244], [-84.3814956, 33.7875428]]]}, "properties": {}}, {"type": "Feature", "geometry": {"type": "Polygon", "coordinates": [[[-84.3815015, 33.7873366], [-84.3814875, 33.7873483], [-84.3815721, 33.787419], [-84.381724, 33.7872936], [-84.3816552, 33.7872361], [-84.381608, 33.7871967], [-84.3815926, 33.7872094], [-84.3815725, 33.787226], [-84.3816038, 33.7872523], [-84.3815015, 33.7873366]]]}, "properties": {}}, {"type": "Feature", "geometry": {"type": "Polygon", "coordinates": [[[-84.4030024, 33.7909362], [-84.4028778, 33.7910455], [-84.4027073, 33.7911408], [-84.4026316, 33.7910405], [-84.4029655, 33.7908831], [-84.4030024, 33.7909362]]]}, "properties": {"name": "Atlantic Station Playground"}}, {"type": "Feature", "geometry": {"type": "Polygon", "coordinates": [[[-84.3847444, 33.7913787], [-84.3848517, 33.7913288], [-84.3847241, 33.7911393], [-84.3846167, 33.7911893], [-84.3847444, 33.7913787]]]}, "properties": {}}, {"type": "Feature", "geometry": {"type": "Polygon", "coordinates": [[[-84.3890937, 33.7897318], [-84.388976, 33.7897307], [-84.388979, 33.7895164], [-84.3890967, 33.7895175], [-84.3890937, 33.7897318]]]}, "properties": {"layer": "1"}}, {"type": "Feature", "geometry": {"type": "Polygon", "coordinates": [[[-84.3891019, 33.7894534], [-84.3889745, 33.7894532], [-84.3889743, 33.7894339], [-84.3889794, 33.7894191], [-84.3889915, 33.7894046], [-84.389008, 33.7893943], [-84.389025, 33.7893893], [-84.389037, 33.7893881], [-84.3890528, 33.7893895], [-84.3890677, 33.789394], [-84.3890841, 33.7894038], [-84.3890976, 33.7894201], [-84.3891027, 33.7894369], [-84.3891019, 33.7894534]]]}, "properties": {"layer": "1"}}, {"type": "Feature", "geometry": {"type": "Polygon", "coordinates": [[[-84.3895675, 33.7929269], [-84.3894734, 33.7929251], [-84.3894649, 33.7932381], [-84.389773, 33.7932439], [-84.3897745, 33.7931858], [-84.3895939, 33.7931824], [-84.3895946, 33.7931554], [-84.3895614, 33.7931548], [-84.3895675, 33.7929269]]]}, "properties": {}}, {"type": "Feature", "geometry": {"type": "Polygon", "coordinates": [[[-84.3863546, 33.7906616], [-84.386407, 33.7906376], [-84.3864723, 33.7906076], [-84.3866958, 33.7909476], [-84.3865195, 33.7910286], [-84.3864737, 33.7909599], [-84.3865343, 33.790932], [-84.3863546, 33.7906616]]]}, "properties": {}}, {"type": "Feature", "geometry": {"type": "Polygon", "coordinates": [[[-84.3741536, 33.7878729], [-84.3740348, 33.7878702], [-84.3740418, 33.7876568], [-84.3741606, 33.7876595], [-84.3741536, 33.7878729]]]}, "properties": {"surface": "paved"}}, {"type": "Feature", "geometry": {"type": "Polygon", "coordinates": [[[-84.3738378, 33.787866], [-84.373719, 33.7878633], [-84.3737261, 33.78765], [-84.3738449, 33.7876527], [-84.3738378, 33.787866]]]}, "properties": {"surface": "paved"}}, {"type": "Feature", "geometry": {"type": "Polygon", "coordinates": [[[-84.3736657, 33.7878624], [-84.3736129, 33.7878597], [-84.3736199, 33.7876464], [-84.3736728, 33.7876491], [-84.3736657, 33.7878624]]]}, "properties": {"surface": "paved"}}, {"type": "Feature", "geometry": {"type": "Polygon", "coordinates": [[[-84.3743125, 33.787878], [-84.3741937, 33.7878753], [-84.3742008, 33.7876619], [-84.3743195, 33.7876646], [-84.3743125, 33.787878]]]}, "properties": {"surface": "paved"}}, {"type": "Feature", "geometry": {"type": "Polygon", "coordinates": [[[-84.3739971, 33.7878694], [-84.3738783, 33.7878667], [-84.3738853, 33.7876534], [-84.3740041, 33.7876561], [-84.3739971, 33.7878694]]]}, "properties": {"surface": "paved"}}, {"type": "Feature", "geometry": {"type": "Polygon", "coordinates": [[[-84.3713172, 33.7912857], [-84.3713867, 33.7912684], [-84.3714391, 33.7912216], [-84.3714886, 33.7911651], [-84.3715211, 33.7910956], [-84.3715346, 33.7910256], [-84.3715311, 33.7909572], [-84.3715112, 33.7908745], [-84.3714788, 33.7908187], [-84.3714439, 33.7907963], [-84.3713956, 33.7907805], [-84.3713395, 33.7907797], [-84.3712824, 33.7907898], [-84.3712326, 33.790818], [-84.3712029, 33.7908518], [-84.3711493, 33.7909089], [-84.3711134, 33.7909737], [-84.3710711, 33.7910811], [-84.3710647, 33.7911186], [-84.3710723, 33.7911638], [-84.3710846, 33.7911982], [-84.3711134, 33.7912196], [-84.3711656, 33.7912031], [-84.3712476, 33.7912051], [-84.3712949, 33.7912464], [-84.3713172, 33.7912857]]]}, "properties": {}}, {"type": "Feature", "geometry": {"type": "Polygon", "coordinates": [[[-84.3715945, 33.790577], [-84.3716753, 33.7905398], [-84.3717523, 33.7904695], [-84.3718269, 33.7903765], [-84.3718742, 33.7902918], [-84.3719015, 33.7902071], [-84.3719214, 33.79011], [-84.3719264, 33.7900149], [-84.3719311, 33.7899075], [-84.3719303, 33.7898892], [-84.3719292, 33.7898734], [-84.371915, 33.7898574], [-84.3719, 33.789872], [-84.3718806, 33.7898826], [-84.3718585, 33.7898883], [-84.3718354, 33.7898887], [-84.371813, 33.7898837], [-84.3717909, 33.7898722], [-84.3717743, 33.7898556], [-84.3717646, 33.7898356], [-84.371715, 33.78986], [-84.3716504, 33.7899116], [-84.3715882, 33.789984], [-84.3714987, 33.7900935], [-84.371454, 33.7901844], [-84.3714117, 33.7903063], [-84.3714004, 33.7903758], [-84.3714092, 33.7904427], [-84.3714153, 33.7904915], [-84.3714416, 33.7905336], [-84.3715211, 33.790579], [-84.3715945, 33.790577]]]}, "properties": {"name": "The Promenade"}}, {"type": "Feature", "geometry": {"type": "Polygon", "coordinates": [[[-84.3762759, 33.7889357], [-84.376449, 33.7887843], [-84.3763644, 33.7887175], [-84.3761913, 33.7888689], [-84.3762759, 33.7889357]]]}, "properties": {}}, {"type": "Feature", "geometry": {"type": "Polygon", "coordinates": [[[-84.3758708, 33.7886268], [-84.3760549, 33.7884722], [-84.3759701, 33.7884024], [-84.375786, 33.788557], [-84.3758708, 33.7886268]]]}, "properties": {}}, {"type": "Feature", "geometry": {"type": "Polygon", "coordinates": [[[-84.3760183, 33.788736], [-84.3761997, 33.7885837], [-84.3761201, 33.7885183], [-84.3759388, 33.7886705], [-84.3760183, 33.788736]]]}, "properties": {}}, {"type": "Feature", "geometry": {"type": "Polygon", "coordinates": [[[-84.3757681, 33.7885374], [-84.3759476, 33.7883763], [-84.3758628, 33.7883111], [-84.3756833, 33.7884722], [-84.3757681, 33.7885374]]]}, "properties": {}}, {"type": "Feature", "geometry": {"type": "Polygon", "coordinates": [[[-84.3765441, 33.7887312], [-84.376629, 33.788657], [-84.3764449, 33.7885115], [-84.37636, 33.7885857], [-84.3765441, 33.7887312]]]}, "properties": {}}, {"type": "Feature", "geometry": {"type": "Polygon", "coordinates": [[[-84.3761338, 33.7888241], [-84.3763109, 33.7886661], [-84.3762275, 33.7886015], [-84.3760504, 33.7887596], [-84.3761338, 33.7888241]]]}, "properties": {}}, {"type": "Feature", "geometry": {"type": "Polygon", "coordinates": [[[-84.3763831, 33.7890274], [-84.3765665, 33.7888734], [-84.3764823, 33.7888041], [-84.3762989, 33.7889581], [-84.3763831, 33.7890274]]]}, "properties": {}}, {"type": "Feature", "geometry": {"type": "Polygon", "coordinates": [[[-84.3766489, 33.7888218], [-84.3767456, 33.7887352], [-84.3766997, 33.7886998], [-84.376603, 33.7887863], [-84.3766489, 33.7888218]]]}, "properties": {}}, {"type": "Feature", "geometry": {"type": "Polygon", "coordinates": [[[-84.37473, 33.7943355], [-84.3747844, 33.7941293], [-84.3746654, 33.7941076], [-84.374611, 33.7943138], [-84.37473, 33.7943355]]]}, "properties": {}}, {"type": "Feature", "geometry": {"type": "Polygon", "coordinates": [[[-84.3745814, 33.7943102], [-84.3746373, 33.7941044], [-84.3745261, 33.7940836], [-84.3744703, 33.7942893], [-84.3745814, 33.7943102]]]}, "properties": {}}, {"type": "Feature", "geometry": {"type": "Polygon", "coordinates": [[[-84.3744374, 33.7942854], [-84.3744877, 33.7940794], [-84.3743715, 33.7940598], [-84.3743212, 33.7942658], [-84.3744374, 33.7942854]]]}, "properties": {}}, {"type": "Feature", "geometry": {"type": "Polygon", "coordinates": [[[-84.3802141, 33.795936], [-84.3800958, 33.795919], [-84.3800538, 33.7961218], [-84.3801721, 33.7961387], [-84.3802141, 33.795936]]]}, "properties": {}}, {"type": "Feature", "geometry": {"type": "Polygon", "coordinates": [[[-84.3749148, 33.7899153], [-84.3749068, 33.7899498], [-84.374878, 33.789961], [-84.3748578, 33.789971], [-84.3748391, 33.7899889], [-84.3748283, 33.7900078], [-84.3748176, 33.7900373], [-84.374888, 33.7900752], [-84.3749913, 33.7900301], [-84.3750013, 33.7900229], [-84.3750188, 33.7900017], [-84.3750342, 33.789971], [-84.3750389, 33.7899521], [-84.3750409, 33.7899354], [-84.3750382, 33.7899242], [-84.3750288, 33.7898986], [-84.3749946, 33.7899125], [-84.3749484, 33.7899047], [-84.3749148, 33.7899153]]]}, "properties": {}}, {"type": "Feature", "geometry": {"type": "Polygon", "coordinates": [[[-84.3726992, 33.7875292], [-84.3726763, 33.7875036], [-84.3728414, 33.787411], [-84.3728635, 33.7874375], [-84.3726992, 33.7875292]]]}, "properties": {"name": "Bocce Court"}}, {"type": "Feature", "geometry": {"type": "Polygon", "coordinates": [[[-84.3727312, 33.7875702], [-84.3727116, 33.787546], [-84.3728742, 33.7874552], [-84.3728938, 33.7874795], [-84.3727312, 33.7875702]]]}, "properties": {"name": "Bocce Court"}}]}