{"type": "FeatureCollection", "features": [{"type": "Feature", "geometry": {"type": "Point", "coordinates": [-84.3887876, 33.7649562]}, "properties": {"leisure": "outdoor_seating"}}, {"type": "Feature", "geometry": {"type": "Point", "coordinates": [-84.3887862, 33.7649872]}, "properties": {"leisure": "outdoor_seating"}}, {"type": "Feature", "geometry": {"type": "Point", "coordinates": [-84.3888148, 33.7649883]}, "properties": {"leisure": "outdoor_seating"}}, {"type": "Feature", "geometry": {"type": "Point", "coordinates": [-84.3888204, 33.7649027]}, "properties": {"leisure": "outdoor_seating"}}, {"type": "Feature", "geometry": {"type": "Point", "coordinates": [-84.3887866, 33.7649018]}, "properties": {"leisure": "outdoor_seating"}}, {"type": "Feature", "geometry": {"type": "Point", "coordinates": [-84.3887849, 33.7650175]}, "properties": {"leisure": "outdoor_seating"}}, {"type": "Feature", "geometry": {"type": "Point", "coordinates": [-84.3887854, 33.7648745]}, "properties": {"leisure": "outdoor_seating"}}, {"type": "Feature", "geometry": {"type": "Point", "coordinates": [-84.3887842, 33.7648439]}, "properties": {"leisure": "outdoor_seating"}}, {"type": "Feature", "geometry": {"type": "Point", "coordinates": [-84.3888224, 33.7648185]}, "properties": {"leisure": "outdoor_seating"}}, {"type": "Feature", "geometry": {"type": "Point", "coordinates": [-84.3888218, 33.7648453]}, "properties": {"leisure": "outdoor_seating"}}, {"type": "Feature", "geometry": {"type": "Point", "coordinates": [-84.3888211, 33.7648737]}, "properties": {"leisure": "outdoor_seating"}}, {"type": "Feature", "geometry": {"type": "Point", "coordinates": [-84.3888161, 33.7649595]}, "properties": {"leisure": "outdoor_seating"}}, {"type": "Feature", "geometry": {"type": "Point", "coordinates": [-84.3888134, 33.7650192]}, "properties": {"leisure": "outdoor_seating"}}, {"type": "Feature", "geometry": {"type": "Point", "coordinates": [-84.3972461, 33.7701692]}, "properties": {"leisure": "picnic_table"}}, {"type": "Feature", "geometry": {"type": "Point", "coordinates": [-84.3975109, 33.769983]}, "properties": {"leisure": "picnic_table"}}, {"type": "Feature", "geometry": {"type": "Point", "coordinates": [-84.397575, 33.7699842]}, "properties": {"leisure": "picnic_table"}}, {"type": "Feature", "geometry": {"type": "Point", "coordinates": [-84.3974694, 33.7699315]}, "properties": {"leisure": "picnic_table"}}, {"type": "Feature", "geometry": {"type": "Point", "coordinates": [-84.3974174, 33.7699072]}, "properties": {"leisure": "picnic_table"}}, {"type": "Feature", "geometry": {"type": "Point", "coordinates": [-84.3974174, 33.7699552]}, "properties": {"leisure": "picnic_table"}}, {"type": "Feature", "geometry": {"type": "Point", "coordinates": [-84.3974248, 33.7699808]}, "properties": {"leisure": "picnic_table"}}, {"type": "Feature", "geometry": {"type": "Point", "coordinates": [-84.397413, 33.7699287]}, "properties": {"leisure": "picnic_table"}}, {"type": "Feature", "geometry": {"type": "Point", "coordinates": [-84.397464, 33.7702088]}, "properties": {"leisure": "picnic_table"}}, {"type": "Feature", "geometry": {"type": "Point", "coordinates": [-84.3973057, 33.7701851]}, "properties": {"leisure": "picnic_table"}}, {"type": "Feature", "geometry": {"type": "Point", "coordinates": [-84.3972736, 33.770172]}, "properties": {"leisure": "picnic_table"}}, {"type": "Feature", "geometry": {"type": "Point", "coordinates": [-84.3972219, 33.7701567]}, "properties": {"leisure": "picnic_table"}}, {"type": "Feature", "geometry": {"type": "Point", "coordinates": [-84.3970788, 33.7700243]}, "properties": {"leisure": "picnic_table"}}, {"type": "Feature", "geometry": {"type": "Point", "coordinates": [-84.3970672, 33.7699829]}, "properties": {"leisure": "picnic_table"}}, {"type": "Feature", "geometry": {"type": "Point", "coordinates": [-84.3972174, 33.7698575]}, "properties": {"leisure": "picnic_table"}}, {"type": "Feature", "geometry": {"type": "Point", "coordinates": [-84.3971825, 33.7698453]}, "properties": {"leisure": "picnic_table"}}, {"type": "Feature", "geometry": {"type": "Point", "coordinates": [-84.3972436, 33.7698717]}, "properties": {"leisure": "picnic_table"}}, {"type": "Feature", "geometry": {"type": "Point", "coordinates": [-84.397372, 33.769823]}, "properties": {"leisure": "picnic_table"}}, {"type": "Feature", "geometry": {"type": "Point", "coordinates": [-84.3973311, 33.7698224]}, "properties": {"leisure": "picnic_table"}}, {"type": "Feature", "geometry": {"type": "Point", "coordinates": [-84.3860489, 33.7773261]}, "properties": {"leisure": "picnic_table", "covered": "no"}}, {"type": "Feature", "geometry": {"type": "Point", "coordinates": [-84.3918582, 33.7722162]}, "properties": {"leisure": "picnic_table", "covered": "no"}}, {"type": "Feature", "geometry": {"type": "Point", "coordinates": [-84.3918612, 33.7721856]}, "properties": {"leisure": "picnic_table", "covered": "no"}}, {"type": "Feature", "geometry": {"type": "Point", "coordinates": [-84.3898397, 33.7846045]}, "properties": {"leisure": "outdoor_seating"}}, {"type": "Feature", "geometry": {"type": "Point", "coordinates": [-84.3896499, 33.784602]}, "properties": {"leisure": "outdoor_seating"}}, {"type": "Feature", "geometry": {"type": "Point", "coordinates": [-84.3896973, 33.7846026]}, "properties": {"leisure": "outdoor_seating"}}, {"type": "Feature", "geometry": {"type": "Point", "coordinates": [-84.3897448, 33.7846032]}, "properties": {"leisure": "outdoor_seating"}}, {"type": "Feature", "geometry": {"type": "Point", "coordinates": [-84.3897922, 33.7846039]}, "properties": {"leisure": "outdoor_seating"}}, {"type": "Feature", "geometry": {"type": "Point", "coordinates": [-84.3843264, 33.7808648]}, "properties": {"leisure": "outdoor_seating"}}, {"type": "Feature", "geometry": {"type": "Point", "coordinates": [-84.3844109, 33.7808655]}, "properties": {"leisure": "outdoor_seating"}}, {"type": "Feature", "geometry": {"type": "Point", "coordinates": [-84.3845011, 33.7808663]}, "properties": {"leisure": "outdoor_seating"}}, {"type": "Feature", "geometry": {"type": "Point", "coordinates": [-84.3806167, 33.7844482]}, "properties": {"leisure": "outdoor_seating"}}, {"type": "Feature", "geometry": {"type": "Point", "coordinates": [-84.3805614, 33.7844437]}, "properties": {"leisure": "outdoor_seating"}}, {"type": "Feature", "geometry": {"type": "Point", "coordinates": [-84.3784611, 33.7859701]}, "properties": {"leisure": "outdoor_seating"}}, {"type": "Feature", "geometry": {"type": "Point", "coordinates": [-84.3784086, 33.7859699]}, "properties": {"leisure": "outdoor_seating"}}, {"type": "Feature", "geometry": {"type": "Point", "coordinates": [-84.3783561, 33.7859698]}, "properties": {"leisure": "outdoor_seating"}}, {"type": "Feature", "geometry": {"type": "Point", "coordinates": [-84.3822487, 33.7866771]}, "properties": {"leisure": "outdoor_seating"}}, {"type": "Feature", "geometry": {"type": "Point", "coordinates": [-84.3822762, 33.7866574]}, "properties": {"leisure": "outdoor_seating"}}, {"type": "Feature", "geometry": {"type": "Point", "coordinates": [-84.3823425, 33.7866574]}, "properties": {"leisure": "outdoor_seating"}}, {"type": "Feature", "geometry": {"type": "Point", "coordinates": [-84.3823194, 33.7867206]}, "properties": {"leisure": "outdoor_seating"}}, {"type": "Feature", "geometry": {"type": "Point", "coordinates": [-84.3823466, 33.78672]}, "properties": {"leisure": "outdoor_seating"}}, {"type": "Feature", "geometry": {"type": "Point", "coordinates": [-84.3821826, 33.7866387]}, "properties": {"leisure": "outdoor_seating"}}, {"type": "Feature", "geometry": {"type": "Point", "coordinates": [-84.3821826, 33.7866682]}, "properties": {"leisure": "outdoor_seating"}}, {"type": "Feature", "geometry": {"type": "Point", "coordinates": [-84.3824854, 33.7866565]}, "properties": {"leisure": "outdoor_seating"}}, {"type": "Feature", "geometry": {"type": "Point", "coordinates": [-84.3824857, 33.7866858]}, "properties": {"leisure": "outdoor_seating"}}, {"type": "Feature", "geometry": {"type": "Point", "coordinates": [-84.3852343, 33.787697]}, "properties": {"leisure": "outdoor_seating"}}, {"type": "Feature", "geometry": {"type": "Point", "coordinates": [-84.3855736, 33.7878241]}, "properties": {"leisure": "outdoor_seating"}}, {"type": "Feature", "geometry": {"type": "Point", "coordinates": [-84.3856356, 33.7877781]}, "properties": {"leisure": "outdoor_seating"}}, {"type": "Feature", "geometry": {"type": "Point", "coordinates": [-84.3865007, 33.7930729]}, "properties": {"leisure": "outdoor_seating"}}, {"type": "Feature", "geometry": {"type": "Point", "coordinates": [-84.3864434, 33.792966]}, "properties": {"leisure": "outdoor_seating"}}, {"type": "Feature", "geometry": {"type": "Point", "coordinates": [-84.3863709, 33.7928599]}, "properties": {"leisure": "outdoor_seating"}}, {"type": "Feature", "geometry": {"type": "Point", "coordinates": [-84.3863386, 33.7928044]}, "properties": {"leisure": "outdoor_seating"}}, {"type": "Feature", "geometry": {"type": "Point", "coordinates": [-84.3882779, 33.7965963]}, "properties": {"leisure": "outdoor_seating"}}, {"type": "Feature", "geometry": {"type": "Point", "coordinates": [-84.3885096, 33.7962578]}, "properties": {"leisure": "outdoor_seating"}}, {"type": "Feature", "geometry": {"type": "Point", "coordinates": [-84.3885371, 33.7962583]}, "properties": {"leisure": "outdoor_seating"}}, {"type": "Feature", "geometry": {"type": "Point", "coordinates": [-84.3885647, 33.7962588]}, "properties": {"leisure": "outdoor_seating"}}, {"type": "Feature", "geometry": {"type": "Point", "coordinates": [-84.3885923, 33.7962592]}, "properties": {"leisure": "outdoor_seating"}}, {"type": "Feature", "geometry": {"type": "Point", "coordinates": [-84.3883081, 33.7965698]}, "properties": {"leisure": "outdoor_seating"}}, {"type": "Feature", "geometry": {"type": "Point", "coordinates": [-84.3883433, 33.796579]}, "properties": {"leisure": "outdoor_seating"}}, {"type": "Feature", "geometry": {"type": "Point", "coordinates": [-84.3883121, 33.7966063]}, "properties": {"leisure": "outdoor_seating"}}, {"type": "Feature", "geometry": {"type": "Point", "coordinates": [-84.3883437, 33.7966225]}, "properties": {"leisure": "outdoor_seating"}}, {"type": "Feature", "geometry": {"type": "Point", "coordinates": [-84.3883755, 33.7966144]}, "properties": {"leisure": "outdoor_seating"}}, {"type": "Feature", "geometry": {"type": "Point", "coordinates": [-84.3883872, 33.7966392]}, "properties": {"leisure": "outdoor_seating"}}, {"type": "Feature", "geometry": {"type": "Point", "coordinates": [-84.3883162, 33.7966902]}, "properties": {"leisure": "outdoor_seating"}}, {"type": "Feature", "geometry": {"type": "Point", "coordinates": [-84.3882877, 33.7966713]}, "properties": {"leisure": "outdoor_seating"}}, {"type": "Feature", "geometry": {"type": "Point", "coordinates": [-84.3882675, 33.7966426]}, "properties": {"leisure": "outdoor_seating"}}, {"type": "Feature", "geometry": {"type": "Point", "coordinates": [-84.3882813, 33.7966194]}, "properties": {"leisure": "outdoor_seating"}}, {"type": "Feature", "geometry": {"type": "Point", "coordinates": [-84.3882525, 33.7966063]}, "properties": {"leisure": "outdoor_seating"}}, {"type": "Feature", "geometry": {"type": "Point", "coordinates": [-84.3882538, 33.7965874]}, "properties": {"leisure": "outdoor_seating"}}, {"type": "Feature", "geometry": {"type": "Point", "coordinates": [-84.3882545, 33.7965612]}, "properties": {"leisure": "outdoor_seating"}}, {"type": "Feature", "geometry": {"type": "Point", "coordinates": [-84.3882903, 33.7965562]}, "properties": {"leisure": "outdoor_seating"}}, {"type": "Feature", "geometry": {"type": "Point", "coordinates": [-84.3883121, 33.7966462]}, "properties": {"leisure": "outdoor_seating"}}, {"type": "Feature", "geometry": {"type": "Point", "coordinates": [-84.3883483, 33.7966715]}, "properties": {"leisure": "outdoor_seating"}}, {"type": "Feature", "geometry": {"type": "Point", "coordinates": [-84.3883581, 33.7967008]}, "properties": {"leisure": "outdoor_seating"}}, {"type": "Feature", "geometry": {"type": "Point", "coordinates": [-84.3883876, 33.796678]}, "properties": {"leisure": "outdoor_seating"}}, {"type": "Feature", "geometry": {"type": "Point", "coordinates": [-84.388403, 33.7967094]}, "properties": {"leisure": "outdoor_seating"}}, {"type": "Feature", "geometry": {"type": "Point", "coordinates": [-84.4078137, 33.77136221428571]}, "properties": {"leisure": "outdoor_seating"}}, {"type": "Feature", "geometry": {"type": "Point", "coordinates": [-84.3984816642857, 33.77418681428572]}, "properties": {"leisure": "outdoor_seating"}}, {"type": "Feature", "geometry": {"type": "Point", "coordinates": [-84.39833946666667, 33.77410085]}, "properties": {"leisure": "outdoor_seating"}}, {"type": "Feature", "geometry": {"type": "Point", "coordinates": [-84.39814434000002, 33.77408726]}, "properties": {"leisure": "outdoor_seating"}}, {"type": "Feature", "geometry": {"type": "Point", "coordinates": [-84.39791985999999, 33.77390114000001]}, "properties": {"leisure": "outdoor_seating"}}, {"type": "Feature", "geometry": {"type": "Point", "coordinates": [-84.38566743999999, 33.77097473]}, "properties": {"leisure": "outdoor_seating"}}, {"type": "Feature", "geometry": {"type": "Point", "coordinates": [-84.38535355999998, 33.77094898]}, "properties": {"leisure": "outdoor_seating"}}, {"type": "Feature", "geometry": {"type": "Point", "coordinates": [-84.3854896, 33.770918775]}, "properties": {"leisure": "outdoor_seating"}}, {"type": "Feature", "geometry": {"type": "Point", "coordinates": [-84.38461975, 33.77017516666666]}, "properties": {"leisure": "outdoor_seating"}}, {"type": "Feature", "geometry": {"type": "Point", "coordinates": [-84.38901956, 33.7801188]}, "properties": {"name": "Spring St Parklets", "leisure": "outdoor_seating"}}, {"type": "Feature", "geometry": {"type": "Point", "coordinates": [-84.38761404285715, 33.78557201428571]}, "properties": {"leisure": "outdoor_seating"}}, {"type": "Feature", "geometry": {"type": "Point", "coordinates": [-84.38663865714285, 33.78187125714286]}, "properties": {"leisure": "outdoor_seating"}}, {"type": "Feature", "geometry": {"type": "Point", "coordinates": [-84.38690657142857, 33.781199214285714]}, "properties": {"leisure": "outdoor_seating"}}, {"type": "Feature", "geometry": {"type": "Point", "coordinates": [-84.37884496363637, 33.78399492272727]}, "properties": {"leisure": "outdoor_seating"}}, {"type": "Feature", "geometry": {"type": "Point", "coordinates": [-84.3806916875, 33.7815575625]}, "properties": {"leisure": "outdoor_seating"}}, {"type": "Feature", "geometry": {"type": "Point", "coordinates": [-84.38112118000001, 33.78154384]}, "properties": {"leisure": "outdoor_seating"}}, {"type": "Feature", "geometry": {"type": "Point", "coordinates": [-84.38072340000001, 33.78137647]}, "properties": {"leisure": "outdoor_seating"}}, {"type": "Feature", "geometry": {"type": "Point", "coordinates": [-84.38155014545454, 33.78681360909091]}, "properties": {"leisure": "outdoor_seating"}}, {"type": "Feature", "geometry": {"type": "Point", "coordinates": [-84.38243437999999, 33.787218339999995]}, "properties": {"name": "The Patio", "leisure": "outdoor_seating"}}, {"type": "Feature", "geometry": {"type": "Point", "coordinates": [-84.38285261666667, 33.78666868333334]}, "properties": {"leisure": "outdoor_seating"}}, {"type": "Feature", "geometry": {"type": "Point", "coordinates": [-84.38301615999998, 33.78726196]}, "properties": {"leisure": "outdoor_seating"}}, {"type": "Feature", "geometry": {"type": "Point", "coordinates": [-84.38296433999999, 33.787201820000014]}, "properties": {"name": "Virtue Rooftop Lounge", "leisure": "outdoor_seating"}}, {"type": "Feature", "geometry": {"type": "Point", "coordinates": [-84.38302871666667, 33.78713621666666]}, "properties": {"name": "The Loop Lounge", "leisure": "outdoor_seating"}}, {"type": "Feature", "geometry": {"type": "Point", "coordinates": [-84.3835177888889, 33.78833025555556]}, "properties": {"leisure": "outdoor_seating"}}, {"type": "Feature", "geometry": {"type": "Point", "coordinates": [-84.38500760714285, 33.78818991428572]}, "properties": {"leisure": "outdoor_seating"}}, {"type": "Feature", "geometry": {"type": "Point", "coordinates": [-84.385403444, 33.787606718]}, "properties": {"leisure": "outdoor_seating"}}, {"type": "Feature", "geometry": {"type": "Point", "coordinates": [-84.38306209999999, 33.78802904]}, "properties": {"leisure": "outdoor_seating"}}, {"type": "Feature", "geometry": {"type": "Point", "coordinates": [-84.3828263, 33.78810764]}, "properties": {"leisure": "outdoor_seating"}}, {"type": "Feature", "geometry": {"type": "Point", "coordinates": [-84.38241264, 33.787561919999995]}, "properties": {"leisure": "outdoor_seating"}}]}