{"type": "FeatureCollection", "features": [{"type": "Feature", "geometry": {"type": "Point", "coordinates": [-84.402343, 33.7601727]}, "properties": {"amenity": "bicycle_parking"}}, {"type": "Feature", "geometry": {"type": "Point", "coordinates": [-84.4067489, 33.7683369]}, "properties": {"amenity": "waste_basket"}}, {"type": "Feature", "geometry": {"type": "Point", "coordinates": [-84.3938187, 33.7634734]}, "properties": {"amenity": "bicycle_parking"}}, {"type": "Feature", "geometry": {"type": "Point", "coordinates": [-84.3953236, 33.7621673]}, "properties": {"amenity": "bicycle_parking", "covered": "no", "capacity": "2"}}, {"type": "Feature", "geometry": {"type": "Point", "coordinates": [-84.393069, 33.759215]}, "properties": {"name": "026", "amenity": "bench", "backrest": "yes"}}, {"type": "Feature", "geometry": {"type": "Point", "coordinates": [-84.393038, 33.7592412]}, "properties": {"name": "027", "amenity": "bench", "backrest": "yes"}}, {"type": "Feature", "geometry": {"type": "Point", "coordinates": [-84.3929605, 33.7592344]}, "properties": {"name": "029", "amenity": "waste_basket"}}, {"type": "Feature", "geometry": {"type": "Point", "coordinates": [-84.3929439, 33.7592355]}, "properties": {"name": "028", "amenity": "bench", "backrest": "yes"}}, {"type": "Feature", "geometry": {"type": "Point", "coordinates": [-84.3930571, 33.7591375]}, "properties": {"name": "025", "amenity": "bench", "backrest": "yes"}}, {"type": "Feature", "geometry": {"type": "Point", "coordinates": [-84.3926999, 33.7591518]}, "properties": {"amenity": "bench", "backrest": "yes"}}, {"type": "Feature", "geometry": {"type": "Point", "coordinates": [-84.3926139, 33.7592229]}, "properties": {"name": "036", "amenity": "bench", "backrest": "yes"}}, {"type": "Feature", "geometry": {"type": "Point", "coordinates": [-84.3925794, 33.7592468]}, "properties": {"amenity": "bench", "backrest": "yes"}}, {"type": "Feature", "geometry": {"type": "Point", "coordinates": [-84.3924509, 33.7592448]}, "properties": {"amenity": "bench", "backrest": "yes"}}, {"type": "Feature", "geometry": {"type": "Point", "coordinates": [-84.3923528, 33.7593005]}, "properties": {"amenity": "bench", "backrest": "yes"}}, {"type": "Feature", "geometry": {"type": "Point", "coordinates": [-84.3924342, 33.7593643]}, "properties": {"name": "064", "amenity": "bench", "backrest": "yes"}}, {"type": "Feature", "geometry": {"type": "Point", "coordinates": [-84.3924713, 33.7593914]}, "properties": {"name": "063", "amenity": "bench", "backrest": "yes"}}, {"type": "Feature", "geometry": {"type": "Point", "coordinates": [-84.3925631, 33.7594366]}, "properties": {"amenity": "bench", "backrest": "yes"}}, {"type": "Feature", "geometry": {"type": "Point", "coordinates": [-84.3924698, 33.7594416]}, "properties": {"name": "061", "amenity": "bench", "backrest": "yes"}}, {"type": "Feature", "geometry": {"type": "Point", "coordinates": [-84.3924559, 33.7594301]}, "properties": {"amenity": "waste_basket"}}, {"type": "Feature", "geometry": {"type": "Point", "coordinates": [-84.392579, 33.7595129]}, "properties": {"amenity": "bench", "backrest": "yes"}}, {"type": "Feature", "geometry": {"type": "Point", "coordinates": [-84.3924443, 33.7595583]}, "properties": {"name": "057", "amenity": "bench", "backrest": "yes"}}, {"type": "Feature", "geometry": {"type": "Point", "coordinates": [-84.3924226, 33.7595562]}, "properties": {"name": "058", "amenity": "waste_basket"}}, {"type": "Feature", "geometry": {"type": "Point", "coordinates": [-84.3925626, 33.7596308]}, "properties": {"name": "054", "amenity": "bench", "backrest": "yes"}}, {"type": "Feature", "geometry": {"type": "Point", "coordinates": [-84.3925304, 33.7596314]}, "properties": {"amenity": "drinking_water"}}, {"type": "Feature", "geometry": {"type": "Point", "coordinates": [-84.3924548, 33.7596331]}, "properties": {"name": "056", "amenity": "bench", "backrest": "yes"}}, {"type": "Feature", "geometry": {"type": "Point", "coordinates": [-84.3957115, 33.7591724]}, "properties": {"amenity": "bicycle_parking", "capacity": "5"}}, {"type": "Feature", "geometry": {"type": "Point", "coordinates": [-84.3868548, 33.7603454]}, "properties": {"amenity": "fountain"}}, {"type": "Feature", "geometry": {"type": "Point", "coordinates": [-84.3868213, 33.7603454]}, "properties": {"amenity": "fountain"}}, {"type": "Feature", "geometry": {"type": "Point", "coordinates": [-84.3867881, 33.7603452]}, "properties": {"amenity": "fountain"}}, {"type": "Feature", "geometry": {"type": "Point", "coordinates": [-84.3867558, 33.7603452]}, "properties": {"amenity": "fountain"}}, {"type": "Feature", "geometry": {"type": "Point", "coordinates": [-84.3877763, 33.7602854]}, "properties": {"amenity": "fountain"}}, {"type": "Feature", "geometry": {"type": "Point", "coordinates": [-84.3877761, 33.7602381]}, "properties": {"amenity": "fountain"}}, {"type": "Feature", "geometry": {"type": "Point", "coordinates": [-84.3877754, 33.7600843]}, "properties": {"amenity": "fountain"}}, {"type": "Feature", "geometry": {"type": "Point", "coordinates": [-84.3877752, 33.7600418]}, "properties": {"amenity": "fountain"}}, {"type": "Feature", "geometry": {"type": "Point", "coordinates": [-84.3927814, 33.7642476]}, "properties": {"amenity": "fountain"}}, {"type": "Feature", "geometry": {"type": "Point", "coordinates": [-84.3927318, 33.7643175]}, "properties": {"amenity": "fountain"}}, {"type": "Feature", "geometry": {"type": "Point", "coordinates": [-84.3896395, 33.7595351]}, "properties": {"amenity": "bench", "backrest": "no", "seats": "3"}}, {"type": "Feature", "geometry": {"type": "Point", "coordinates": [-84.3919869, 33.7593927]}, "properties": {"amenity": "bench", "backrest": "no", "seats": "3"}}, {"type": "Feature", "geometry": {"type": "Point", "coordinates": [-84.3888057, 33.7641122]}, "properties": {"amenity": "bicycle_parking", "covered": "no", "capacity": "10"}}, {"type": "Feature", "geometry": {"type": "Point", "coordinates": [-84.393878, 33.7633737]}, "properties": {"amenity": "bench", "material": "metal", "backrest": "yes"}}, {"type": "Feature", "geometry": {"type": "Point", "coordinates": [-84.3938305, 33.7635463]}, "properties": {"amenity": "bench", "material": "metal", "backrest": "yes"}}, {"type": "Feature", "geometry": {"type": "Point", "coordinates": [-84.3939115, 33.7632351]}, "properties": {"amenity": "bench", "material": "metal", "backrest": "yes"}}, {"type": "Feature", "geometry": {"type": "Point", "coordinates": [-84.3942289, 33.763208]}, "properties": {"amenity": "drinking_water"}}, {"type": "Feature", "geometry": {"type": "Point", "coordinates": [-84.3930604, 33.7634028]}, "properties": {"amenity": "bench", "material": "metal", "backrest": "yes"}}, {"type": "Feature", "geometry": {"type": "Point", "coordinates": [-84.3933605, 33.763157]}, "properties": {"amenity": "bench", "material": "metal", "backrest": "yes"}}, {"type": "Feature", "geometry": {"type": "Point", "coordinates": [-84.3933546, 33.7631785]}, "properties": {"amenity": "bench", "material": "metal", "backrest": "yes"}}, {"type": "Feature", "geometry": {"type": "Point", "coordinates": [-84.3930394, 33.7634057]}, "properties": {"amenity": "waste_basket", "material": "metal"}}, {"type": "Feature", "geometry": {"type": "Point", "coordinates": [-84.3933593, 33.7631692]}, "properties": {"amenity": "waste_basket", "material": "metal"}}, {"type": "Feature", "geometry": {"type": "Point", "coordinates": [-84.3937864, 33.7635578]}, "properties": {"amenity": "bench", "material": "metal", "backrest": "yes"}}, {"type": "Feature", "geometry": {"type": "Point", "coordinates": [-84.3927902, 33.7633495]}, "properties": {"amenity": "bench", "material": "metal", "backrest": "yes"}}, {"type": "Feature", "geometry": {"type": "Point", "coordinates": [-84.3927746, 33.763325]}, "properties": {"amenity": "bench", "material": "metal", "backrest": "yes"}}, {"type": "Feature", "geometry": {"type": "Point", "coordinates": [-84.3928043, 33.7633739]}, "properties": {"amenity": "bench", "material": "metal", "backrest": "yes"}}, {"type": "Feature", "geometry": {"type": "Point", "coordinates": [-84.3928731, 33.7633586]}, "properties": {"amenity": "waste_basket", "material": "metal"}}, {"type": "Feature", "geometry": {"type": "Point", "coordinates": [-84.392777, 33.7635864]}, "properties": {"amenity": "waste_basket", "material": "metal"}}, {"type": "Feature", "geometry": {"type": "Point", "coordinates": [-84.3861439, 33.7675263]}, "properties": {"amenity": "fountain"}}, {"type": "Feature", "geometry": {"type": "Point", "coordinates": [-84.3939793, 33.7627506]}, "properties": {"amenity": "bicycle_parking"}}, {"type": "Feature", "geometry": {"type": "Point", "coordinates": [-84.3858631, 33.7610177]}, "properties": {"amenity": "bicycle_parking", "covered": "no", "capacity": "2"}}, {"type": "Feature", "geometry": {"type": "Point", "coordinates": [-84.3948298, 33.7647126]}, "properties": {"amenity": "bicycle_parking"}}, {"type": "Feature", "geometry": {"type": "Point", "coordinates": [-84.3947484, 33.764712]}, "properties": {"amenity": "bicycle_parking"}}, {"type": "Feature", "geometry": {"type": "Point", "coordinates": [-84.3951071, 33.7647115]}, "properties": {"amenity": "bicycle_parking"}}, {"type": "Feature", "geometry": {"type": "Point", "coordinates": [-84.3951943, 33.7647117]}, "properties": {"amenity": "bicycle_parking"}}, {"type": "Feature", "geometry": {"type": "Point", "coordinates": [-84.392263, 33.7606771]}, "properties": {"amenity": "bench", "backrest": "yes"}}, {"type": "Feature", "geometry": {"type": "Point", "coordinates": [-84.3922722, 33.7607523]}, "properties": {"amenity": "bench", "backrest": "yes"}}, {"type": "Feature", "geometry": {"type": "Point", "coordinates": [-84.3926688, 33.7607943]}, "properties": {"amenity": "bench", "backrest": "yes"}}, {"type": "Feature", "geometry": {"type": "Point", "coordinates": [-84.3923101, 33.7607827]}, "properties": {"amenity": "bench", "backrest": "yes"}}, {"type": "Feature", "geometry": {"type": "Point", "coordinates": [-84.3923201, 33.7609164]}, "properties": {"amenity": "waste_basket"}}, {"type": "Feature", "geometry": {"type": "Point", "coordinates": [-84.3922863, 33.761049]}, "properties": {"amenity": "bench", "backrest": "yes"}}, {"type": "Feature", "geometry": {"type": "Point", "coordinates": [-84.392302, 33.7609318]}, "properties": {"amenity": "bench", "backrest": "yes"}}, {"type": "Feature", "geometry": {"type": "Point", "coordinates": [-84.393421, 33.76203]}, "properties": {"amenity": "bench", "backrest": "yes"}}, {"type": "Feature", "geometry": {"type": "Point", "coordinates": [-84.3924276, 33.7606731]}, "properties": {"amenity": "bench", "backrest": "yes"}}, {"type": "Feature", "geometry": {"type": "Point", "coordinates": [-84.3926654, 33.760923]}, "properties": {"amenity": "bench", "backrest": "yes"}}, {"type": "Feature", "geometry": {"type": "Point", "coordinates": [-84.3923026, 33.7606442]}, "properties": {"amenity": "bench", "backrest": "yes"}}, {"type": "Feature", "geometry": {"type": "Point", "coordinates": [-84.3923827, 33.7610667]}, "properties": {"amenity": "bench", "backrest": "yes"}}, {"type": "Feature", "geometry": {"type": "Point", "coordinates": [-84.3922818, 33.760659]}, "properties": {"amenity": "waste_basket"}}, {"type": "Feature", "geometry": {"type": "Point", "coordinates": [-84.3924232, 33.7610348]}, "properties": {"amenity": "bench", "backrest": "yes"}}, {"type": "Feature", "geometry": {"type": "Point", "coordinates": [-84.3923891, 33.7606473]}, "properties": {"amenity": "bench", "backrest": "yes"}}, {"type": "Feature", "geometry": {"type": "Point", "coordinates": [-84.3933277, 33.7620223]}, "properties": {"amenity": "bench", "backrest": "yes"}}, {"type": "Feature", "geometry": {"type": "Point", "coordinates": [-84.3934217, 33.7619448]}, "properties": {"amenity": "bench", "backrest": "yes"}}, {"type": "Feature", "geometry": {"type": "Point", "coordinates": [-84.3933241, 33.7619415]}, "properties": {"amenity": "bench", "backrest": "yes"}}, {"type": "Feature", "geometry": {"type": "Point", "coordinates": [-84.3929369, 33.7599287]}, "properties": {"amenity": "bench", "backrest": "yes"}}, {"type": "Feature", "geometry": {"type": "Point", "coordinates": [-84.3930226, 33.759822]}, "properties": {"amenity": "bench", "backrest": "yes"}}, {"type": "Feature", "geometry": {"type": "Point", "coordinates": [-84.3932252, 33.7599098]}, "properties": {"amenity": "bench", "backrest": "yes"}}, {"type": "Feature", "geometry": {"type": "Point", "coordinates": [-84.3928162, 33.7598247]}, "properties": {"amenity": "bench", "backrest": "yes"}}, {"type": "Feature", "geometry": {"type": "Point", "coordinates": [-84.3933414, 33.75956]}, "properties": {"amenity": "bench", "backrest": "yes"}}, {"type": "Feature", "geometry": {"type": "Point", "coordinates": [-84.3932233, 33.7598277]}, "properties": {"amenity": "bench", "backrest": "yes"}}, {"type": "Feature", "geometry": {"type": "Point", "coordinates": [-84.3930376, 33.7599282]}, "properties": {"amenity": "bench", "backrest": "yes"}}, {"type": "Feature", "geometry": {"type": "Point", "coordinates": [-84.3925489, 33.75982]}, "properties": {"amenity": "bench", "backrest": "yes"}}, {"type": "Feature", "geometry": {"type": "Point", "coordinates": [-84.3932386, 33.7596438]}, "properties": {"amenity": "bench", "backrest": "yes"}}, {"type": "Feature", "geometry": {"type": "Point", "coordinates": [-84.3933295, 33.7599149]}, "properties": {"amenity": "bench", "backrest": "yes"}}, {"type": "Feature", "geometry": {"type": "Point", "coordinates": [-84.3933348, 33.759648]}, "properties": {"amenity": "bench", "backrest": "yes"}}, {"type": "Feature", "geometry": {"type": "Point", "coordinates": [-84.3932383, 33.759473]}, "properties": {"amenity": "bench", "backrest": "yes"}}, {"type": "Feature", "geometry": {"type": "Point", "coordinates": [-84.3928385, 33.7599216]}, "properties": {"amenity": "bench", "backrest": "yes"}}, {"type": "Feature", "geometry": {"type": "Point", "coordinates": [-84.3927429, 33.7591454]}, "properties": {"amenity": "bench", "backrest": "yes"}}, {"type": "Feature", "geometry": {"type": "Point", "coordinates": [-84.3927319, 33.7599263]}, "properties": {"amenity": "bench", "backrest": "yes"}}, {"type": "Feature", "geometry": {"type": "Point", "coordinates": [-84.3927172, 33.7598196]}, "properties": {"amenity": "bench", "backrest": "yes"}}, {"type": "Feature", "geometry": {"type": "Point", "coordinates": [-84.392451, 33.7598214]}, "properties": {"amenity": "bench", "backrest": "yes"}}, {"type": "Feature", "geometry": {"type": "Point", "coordinates": [-84.3932385, 33.7593893]}, "properties": {"amenity": "bench", "backrest": "yes"}}, {"type": "Feature", "geometry": {"type": "Point", "coordinates": [-84.3929222, 33.7598246]}, "properties": {"amenity": "bench", "backrest": "yes"}}, {"type": "Feature", "geometry": {"type": "Point", "coordinates": [-84.393232, 33.7595576]}, "properties": {"amenity": "bench", "backrest": "yes"}}, {"type": "Feature", "geometry": {"type": "Point", "coordinates": [-84.3927405, 33.7592281]}, "properties": {"amenity": "bench", "backrest": "yes"}}, {"type": "Feature", "geometry": {"type": "Point", "coordinates": [-84.3925509, 33.7599056]}, "properties": {"amenity": "bench", "backrest": "yes"}}, {"type": "Feature", "geometry": {"type": "Point", "coordinates": [-84.3876682, 33.7593554]}, "properties": {"amenity": "bicycle_repair_station"}}, {"type": "Feature", "geometry": {"type": "Point", "coordinates": [-84.3929462, 33.7638045]}, "properties": {"amenity": "bicycle_parking"}}, {"type": "Feature", "geometry": {"type": "Point", "coordinates": [-84.3876531, 33.7595884]}, "properties": {"amenity": "bicycle_repair_station"}}, {"type": "Feature", "geometry": {"type": "Point", "coordinates": [-84.388946, 33.7598478]}, "properties": {"amenity": "bicycle_parking", "covered": "yes", "capacity": "8"}}, {"type": "Feature", "geometry": {"type": "Point", "coordinates": [-84.3919798, 33.7598583]}, "properties": {"amenity": "bicycle_parking"}}, {"type": "Feature", "geometry": {"type": "Point", "coordinates": [-84.3876625, 33.7593381]}, "properties": {"amenity": "bicycle_parking", "covered": "yes"}}, {"type": "Feature", "geometry": {"type": "Point", "coordinates": [-84.3876518, 33.7596157]}, "properties": {"amenity": "bicycle_parking", "covered": "yes"}}, {"type": "Feature", "geometry": {"type": "Point", "coordinates": [-84.3769991, 33.7682117]}, "properties": {"amenity": "drinking_water"}}, {"type": "Feature", "geometry": {"type": "Point", "coordinates": [-84.3719767, 33.7595132]}, "properties": {"amenity": "bicycle_parking", "covered": "no", "capacity": "9"}}, {"type": "Feature", "geometry": {"type": "Point", "coordinates": [-84.371978, 33.7597562]}, "properties": {"amenity": "bicycle_parking", "covered": "no", "capacity": "9"}}, {"type": "Feature", "geometry": {"type": "Point", "coordinates": [-84.3816572, 33.7592225]}, "properties": {"amenity": "bicycle_parking"}}, {"type": "Feature", "geometry": {"type": "Point", "coordinates": [-84.4110677, 33.7712086]}, "properties": {"amenity": "bbq", "covered": "no"}}, {"type": "Feature", "geometry": {"type": "Point", "coordinates": [-84.4110342, 33.7713134]}, "properties": {"amenity": "bicycle_parking", "covered": "no"}}, {"type": "Feature", "geometry": {"type": "Point", "coordinates": [-84.4110077, 33.7712411]}, "properties": {"amenity": "drinking_water"}}, {"type": "Feature", "geometry": {"type": "Point", "coordinates": [-84.4195868, 33.7756574]}, "properties": {"amenity": "bicycle_parking", "covered": "no", "capacity": "2"}}, {"type": "Feature", "geometry": {"type": "Point", "coordinates": [-84.4197287, 33.775658]}, "properties": {"amenity": "bicycle_parking", "covered": "no", "capacity": "2"}}, {"type": "Feature", "geometry": {"type": "Point", "coordinates": [-84.4194523, 33.7756534]}, "properties": {"amenity": "bicycle_parking", "covered": "no", "capacity": "2"}}, {"type": "Feature", "geometry": {"type": "Point", "coordinates": [-84.41953, 33.7756525]}, "properties": {"amenity": "bicycle_parking", "covered": "no", "capacity": "2"}}, {"type": "Feature", "geometry": {"type": "Point", "coordinates": [-84.4198164, 33.7756593]}, "properties": {"amenity": "bicycle_parking", "covered": "no", "capacity": "2"}}, {"type": "Feature", "geometry": {"type": "Point", "coordinates": [-84.4193907, 33.77565]}, "properties": {"amenity": "bicycle_parking", "covered": "no", "capacity": "2"}}, {"type": "Feature", "geometry": {"type": "Point", "coordinates": [-84.4032544, 33.7731745]}, "properties": {"amenity": "bench"}}, {"type": "Feature", "geometry": {"type": "Point", "coordinates": [-84.3975497, 33.7758051]}, "properties": {"amenity": "bicycle_parking", "covered": "no", "capacity": "22"}}, {"type": "Feature", "geometry": {"type": "Point", "coordinates": [-84.3977388, 33.7772096]}, "properties": {"amenity": "bicycle_parking"}}, {"type": "Feature", "geometry": {"type": "Point", "coordinates": [-84.3975128, 33.7755802]}, "properties": {"amenity": "bicycle_parking", "covered": "no", "capacity": "22"}}, {"type": "Feature", "geometry": {"type": "Point", "coordinates": [-84.3975355, 33.7768248]}, "properties": {"amenity": "bicycle_parking"}}, {"type": "Feature", "geometry": {"type": "Point", "coordinates": [-84.3962649, 33.7751708]}, "properties": {"amenity": "bicycle_parking", "covered": "no", "capacity": "100"}}, {"type": "Feature", "geometry": {"type": "Point", "coordinates": [-84.3979785, 33.7755245]}, "properties": {"amenity": "bicycle_parking"}}, {"type": "Feature", "geometry": {"type": "Point", "coordinates": [-84.3977313, 33.7775159]}, "properties": {"amenity": "bicycle_parking"}}, {"type": "Feature", "geometry": {"type": "Point", "coordinates": [-84.396424, 33.774151]}, "properties": {"amenity": "bicycle_repair_station"}}, {"type": "Feature", "geometry": {"type": "Point", "coordinates": [-84.3968673, 33.7737282]}, "properties": {"amenity": "bicycle_parking", "covered": "no", "capacity": "8"}}, {"type": "Feature", "geometry": {"type": "Point", "coordinates": [-84.3986014, 33.7769914]}, "properties": {"amenity": "bicycle_parking"}}, {"type": "Feature", "geometry": {"type": "Point", "coordinates": [-84.3982847, 33.7764357]}, "properties": {"amenity": "bicycle_parking"}}, {"type": "Feature", "geometry": {"type": "Point", "coordinates": [-84.4011761, 33.7758756]}, "properties": {"amenity": "bicycle_parking", "capacity": "70"}}, {"type": "Feature", "geometry": {"type": "Point", "coordinates": [-84.3982774, 33.7767084]}, "properties": {"amenity": "bicycle_parking"}}, {"type": "Feature", "geometry": {"type": "Point", "coordinates": [-84.4015623, 33.7754161]}, "properties": {"amenity": "bicycle_parking"}}, {"type": "Feature", "geometry": {"type": "Point", "coordinates": [-84.4015354, 33.7755064]}, "properties": {"amenity": "bicycle_parking"}}, {"type": "Feature", "geometry": {"type": "Point", "coordinates": [-84.401266, 33.7758146]}, "properties": {"amenity": "bicycle_parking"}}, {"type": "Feature", "geometry": {"type": "Point", "coordinates": [-84.4009624, 33.776902]}, "properties": {"amenity": "bicycle_parking"}}, {"type": "Feature", "geometry": {"type": "Point", "coordinates": [-84.4000491, 33.7768274]}, "properties": {"amenity": "bicycle_parking", "capacity": "20"}}, {"type": "Feature", "geometry": {"type": "Point", "coordinates": [-84.4013678, 33.7765928]}, "properties": {"amenity": "bicycle_parking"}}, {"type": "Feature", "geometry": {"type": "Point", "coordinates": [-84.3966356, 33.7738868]}, "properties": {"amenity": "bicycle_parking", "covered": "no", "capacity": "10"}}, {"type": "Feature", "geometry": {"type": "Point", "coordinates": [-84.3963616, 33.7736839]}, "properties": {"amenity": "bicycle_parking", "capacity": "4"}}, {"type": "Feature", "geometry": {"type": "Point", "coordinates": [-84.3963646, 33.7735355]}, "properties": {"amenity": "bicycle_parking", "capacity": "12"}}, {"type": "Feature", "geometry": {"type": "Point", "coordinates": [-84.3972816, 33.7724565]}, "properties": {"amenity": "bicycle_repair_station"}}, {"type": "Feature", "geometry": {"type": "Point", "coordinates": [-84.3982057, 33.7771107]}, "properties": {"amenity": "bicycle_parking"}}, {"type": "Feature", "geometry": {"type": "Point", "coordinates": [-84.3983801, 33.7771152]}, "properties": {"amenity": "bicycle_parking"}}, {"type": "Feature", "geometry": {"type": "Point", "coordinates": [-84.3982594, 33.7774184]}, "properties": {"amenity": "bicycle_parking"}}, {"type": "Feature", "geometry": {"type": "Point", "coordinates": [-84.397849, 33.7772311]}, "properties": {"amenity": "bicycle_parking"}}, {"type": "Feature", "geometry": {"type": "Point", "coordinates": [-84.3978463, 33.7775209]}, "properties": {"amenity": "bicycle_parking"}}, {"type": "Feature", "geometry": {"type": "Point", "coordinates": [-84.4048922, 33.775387]}, "properties": {"amenity": "bicycle_repair_station"}}, {"type": "Feature", "geometry": {"type": "Point", "coordinates": [-84.3996649, 33.7760107]}, "properties": {"amenity": "bicycle_parking", "capacity": "6"}}, {"type": "Feature", "geometry": {"type": "Point", "coordinates": [-84.3995443, 33.775335]}, "properties": {"amenity": "bicycle_parking", "capacity": "10"}}, {"type": "Feature", "geometry": {"type": "Point", "coordinates": [-84.3990826, 33.7743244]}, "properties": {"amenity": "bicycle_parking", "capacity": "40"}}, {"type": "Feature", "geometry": {"type": "Point", "coordinates": [-84.4047257, 33.775998]}, "properties": {"amenity": "bicycle_parking", "capacity": "20"}}, {"type": "Feature", "geometry": {"type": "Point", "coordinates": [-84.4047566, 33.7759789]}, "properties": {"amenity": "bicycle_parking", "capacity": "6"}}, {"type": "Feature", "geometry": {"type": "Point", "coordinates": [-84.40305, 33.77565]}, "properties": {"amenity": "bicycle_repair_station"}}, {"type": "Feature", "geometry": {"type": "Point", "coordinates": [-84.4056045, 33.777057]}, "properties": {"amenity": "bicycle_parking"}}, {"type": "Feature", "geometry": {"type": "Point", "coordinates": [-84.3968335, 33.7737333]}, "properties": {"amenity": "bicycle_repair_station"}}, {"type": "Feature", "geometry": {"type": "Point", "coordinates": [-84.4030593, 33.7755989]}, "properties": {"amenity": "bicycle_parking"}}, {"type": "Feature", "geometry": {"type": "Point", "coordinates": [-84.4022404, 33.7748847]}, "properties": {"amenity": "bicycle_parking"}}, {"type": "Feature", "geometry": {"type": "Point", "coordinates": [-84.4012663, 33.7747418]}, "properties": {"amenity": "bicycle_parking", "covered": "no", "capacity": "10"}}, {"type": "Feature", "geometry": {"type": "Point", "coordinates": [-84.3979863, 33.7736558]}, "properties": {}}, {"type": "Feature", "geometry": {"type": "Point", "coordinates": [-84.403441, 33.7764034]}, "properties": {}}, {"type": "Feature", "geometry": {"type": "Point", "coordinates": [-84.4026869, 33.7763884]}, "properties": {}}, {"type": "Feature", "geometry": {"type": "Point", "coordinates": [-84.4026044, 33.77711]}, "properties": {}}, {"type": "Feature", "geometry": {"type": "Point", "coordinates": [-84.404737, 33.7772261]}, "properties": {}}, {"type": "Feature", "geometry": {"type": "Point", "coordinates": [-84.4082599, 33.7711213]}, "properties": {"amenity": "bicycle_parking", "covered": "no", "capacity": "6"}}, {"type": "Feature", "geometry": {"type": "Point", "coordinates": [-84.4080549, 33.770752]}, "properties": {"amenity": "bicycle_parking", "covered": "no", "capacity": "3"}}, {"type": "Feature", "geometry": {"type": "Point", "coordinates": [-84.3965451, 33.7768549]}, "properties": {"amenity": "bench", "material": "metal", "backrest": "yes"}}, {"type": "Feature", "geometry": {"type": "Point", "coordinates": [-84.396498, 33.7768722]}, "properties": {"amenity": "bench", "material": "metal", "backrest": "yes"}}, {"type": "Feature", "geometry": {"type": "Point", "coordinates": [-84.396547, 33.7766839]}, "properties": {"amenity": "bench", "material": "metal", "backrest": "yes"}}, {"type": "Feature", "geometry": {"type": "Point", "coordinates": [-84.3969489, 33.7752353]}, "properties": {"amenity": "waste_basket"}}, {"type": "Feature", "geometry": {"type": "Point", "coordinates": [-84.3981248, 33.7743505]}, "properties": {"amenity": "fountain"}}, {"type": "Feature", "geometry": {"type": "Point", "coordinates": [-84.3981438, 33.7743519]}, "properties": {"amenity": "fountain"}}, {"type": "Feature", "geometry": {"type": "Point", "coordinates": [-84.3981389, 33.774367]}, "properties": {"amenity": "fountain"}}, {"type": "Feature", "geometry": {"type": "Point", "coordinates": [-84.3981553, 33.7743714]}, "properties": {"amenity": "fountain"}}, {"type": "Feature", "geometry": {"type": "Point", "coordinates": [-84.3981496, 33.7743876]}, "properties": {"amenity": "fountain"}}, {"type": "Feature", "geometry": {"type": "Point", "coordinates": [-84.3981704, 33.7743898]}, "properties": {"amenity": "fountain"}}, {"type": "Feature", "geometry": {"type": "Point", "coordinates": [-84.3981066, 33.7743196]}, "properties": {"amenity": "fountain"}}, {"type": "Feature", "geometry": {"type": "Point", "coordinates": [-84.398112, 33.7743045]}, "properties": {"amenity": "fountain"}}, {"type": "Feature", "geometry": {"type": "Point", "coordinates": [-84.3980929, 33.7743016]}, "properties": {"amenity": "fountain"}}, {"type": "Feature", "geometry": {"type": "Point", "coordinates": [-84.3981, 33.7742843]}, "properties": {"amenity": "fountain"}}, {"type": "Feature", "geometry": {"type": "Point", "coordinates": [-84.3980792, 33.7742813]}, "properties": {"amenity": "fountain"}}, {"type": "Feature", "geometry": {"type": "Point", "coordinates": [-84.3980863, 33.7742663]}, "properties": {"amenity": "fountain"}}, {"type": "Feature", "geometry": {"type": "Point", "coordinates": [-84.3969461, 33.7752457]}, "properties": {"amenity": "drinking_water"}}, {"type": "Feature", "geometry": {"type": "Point", "coordinates": [-84.3961877, 33.775786]}, "properties": {"amenity": "bench", "backrest": "yes"}}, {"type": "Feature", "geometry": {"type": "Point", "coordinates": [-84.3963974, 33.7757937]}, "properties": {"amenity": "bench", "backrest": "yes"}}, {"type": "Feature", "geometry": {"type": "Point", "coordinates": [-84.3896075, 33.7772011]}, "properties": {"amenity": "bench"}}, {"type": "Feature", "geometry": {"type": "Point", "coordinates": [-84.3896091, 33.7771604]}, "properties": {"amenity": "bench"}}, {"type": "Feature", "geometry": {"type": "Point", "coordinates": [-84.3896099, 33.777119]}, "properties": {"amenity": "bench"}}, {"type": "Feature", "geometry": {"type": "Point", "coordinates": [-84.3896108, 33.7770776]}, "properties": {"amenity": "bench"}}, {"type": "Feature", "geometry": {"type": "Point", "coordinates": [-84.3896116, 33.7770369]}, "properties": {"amenity": "bench"}}, {"type": "Feature", "geometry": {"type": "Point", "coordinates": [-84.3896681, 33.7772534]}, "properties": {"amenity": "bench"}}, {"type": "Feature", "geometry": {"type": "Point", "coordinates": [-84.3897122, 33.7772534]}, "properties": {"amenity": "bench"}}, {"type": "Feature", "geometry": {"type": "Point", "coordinates": [-84.3894416, 33.7772586]}, "properties": {"amenity": "bench"}}, {"type": "Feature", "geometry": {"type": "Point", "coordinates": [-84.389405, 33.7772596]}, "properties": {"amenity": "bench"}}, {"type": "Feature", "geometry": {"type": "Point", "coordinates": [-84.3909257, 33.771727]}, "properties": {"amenity": "bicycle_parking", "capacity": "10"}}, {"type": "Feature", "geometry": {"type": "Point", "coordinates": [-84.3916288, 33.7708208]}, "properties": {"amenity": "bicycle_parking"}}, {"type": "Feature", "geometry": {"type": "Point", "coordinates": [-84.3917153, 33.7710513]}, "properties": {"amenity": "bicycle_parking", "capacity": "14"}}, {"type": "Feature", "geometry": {"type": "Point", "coordinates": [-84.3940622, 33.7725493]}, "properties": {"amenity": "bicycle_parking", "capacity": "4"}}, {"type": "Feature", "geometry": {"type": "Point", "coordinates": [-84.3940626, 33.7726943]}, "properties": {"amenity": "bicycle_parking", "capacity": "8"}}, {"type": "Feature", "geometry": {"type": "Point", "coordinates": [-84.3942406, 33.7729796]}, "properties": {"amenity": "bicycle_parking", "covered": "no", "capacity": "2"}}, {"type": "Feature", "geometry": {"type": "Point", "coordinates": [-84.393844, 33.7738429]}, "properties": {"amenity": "bicycle_parking", "covered": "no", "capacity": "14"}}, {"type": "Feature", "geometry": {"type": "Point", "coordinates": [-84.3938931, 33.7740388]}, "properties": {"amenity": "bicycle_parking", "covered": "no", "capacity": "8"}}, {"type": "Feature", "geometry": {"type": "Point", "coordinates": [-84.390054, 33.7769447]}, "properties": {"amenity": "bicycle_parking", "covered": "no", "capacity": "2"}}, {"type": "Feature", "geometry": {"type": "Point", "coordinates": [-84.3899079, 33.7769387]}, "properties": {"amenity": "bicycle_parking", "covered": "no", "capacity": "2"}}, {"type": "Feature", "geometry": {"type": "Point", "coordinates": [-84.3898566, 33.7769489]}, "properties": {"amenity": "bicycle_parking", "covered": "no", "capacity": "2"}}, {"type": "Feature", "geometry": {"type": "Point", "coordinates": [-84.3891631, 33.7769198]}, "properties": {"amenity": "bicycle_parking", "covered": "no", "capacity": "2"}}, {"type": "Feature", "geometry": {"type": "Point", "coordinates": [-84.3885787, 33.7767479]}, "properties": {"amenity": "bicycle_parking", "covered": "no", "capacity": "2"}}, {"type": "Feature", "geometry": {"type": "Point", "coordinates": [-84.3885096, 33.776743]}, "properties": {"amenity": "bicycle_parking", "covered": "no", "capacity": "2"}}, {"type": "Feature", "geometry": {"type": "Point", "coordinates": [-84.3884378, 33.7767441]}, "properties": {"amenity": "bicycle_parking", "covered": "no", "capacity": "2"}}, {"type": "Feature", "geometry": {"type": "Point", "coordinates": [-84.3883641, 33.776742]}, "properties": {"amenity": "bicycle_parking", "covered": "no", "capacity": "2"}}, {"type": "Feature", "geometry": {"type": "Point", "coordinates": [-84.3882924, 33.7767403]}, "properties": {"amenity": "bicycle_parking", "covered": "no", "capacity": "2"}}, {"type": "Feature", "geometry": {"type": "Point", "coordinates": [-84.3882207, 33.776742]}, "properties": {"amenity": "bicycle_parking", "covered": "no", "capacity": "2"}}, {"type": "Feature", "geometry": {"type": "Point", "coordinates": [-84.3880739, 33.7767403]}, "properties": {"amenity": "bicycle_parking", "covered": "no", "capacity": "2"}}, {"type": "Feature", "geometry": {"type": "Point", "coordinates": [-84.3879252, 33.7767349]}, "properties": {"amenity": "bicycle_parking", "covered": "no", "capacity": "2"}}, {"type": "Feature", "geometry": {"type": "Point", "coordinates": [-84.395724, 33.7741536]}, "properties": {"amenity": "bicycle_parking", "covered": "no", "capacity": "90"}}, {"type": "Feature", "geometry": {"type": "Point", "coordinates": [-84.3916999, 33.7702724]}, "properties": {"amenity": "bicycle_repair_station"}}, {"type": "Feature", "geometry": {"type": "Point", "coordinates": [-84.3953794, 33.7731967]}, "properties": {"amenity": "waste_basket"}}, {"type": "Feature", "geometry": {"type": "Point", "coordinates": [-84.3917327, 33.7717676]}, "properties": {"amenity": "bicycle_parking", "covered": "no"}}, {"type": "Feature", "geometry": {"type": "Point", "coordinates": [-84.3913769, 33.7715754]}, "properties": {"amenity": "bicycle_parking", "covered": "no"}}, {"type": "Feature", "geometry": {"type": "Point", "coordinates": [-84.39104, 33.7738205]}, "properties": {"amenity": "bicycle_parking", "covered": "no"}}, {"type": "Feature", "geometry": {"type": "Point", "coordinates": [-84.3926196, 33.7737422]}, "properties": {"amenity": "bicycle_parking", "covered": "no"}}, {"type": "Feature", "geometry": {"type": "Point", "coordinates": [-84.3849136, 33.7714222]}, "properties": {"amenity": "waste_basket"}}, {"type": "Feature", "geometry": {"type": "Point", "coordinates": [-84.384911, 33.7714689]}, "properties": {"amenity": "bench", "backrest": "yes"}}, {"type": "Feature", "geometry": {"type": "Point", "coordinates": [-84.3846275, 33.775961]}, "properties": {"amenity": "bicycle_parking", "covered": "no", "capacity": "2"}}, {"type": "Feature", "geometry": {"type": "Point", "coordinates": [-84.3847469, 33.7761207]}, "properties": {"amenity": "waste_basket"}}, {"type": "Feature", "geometry": {"type": "Point", "coordinates": [-84.3846232, 33.7760058]}, "properties": {"amenity": "bicycle_parking", "covered": "no", "capacity": "2"}}, {"type": "Feature", "geometry": {"type": "Point", "coordinates": [-84.3848264, 33.7761258]}, "properties": {"amenity": "bicycle_parking", "covered": "no", "capacity": "2"}}, {"type": "Feature", "geometry": {"type": "Point", "coordinates": [-84.3853473, 33.7721966]}, "properties": {"amenity": "bicycle_parking", "covered": "no", "capacity": "2"}}, {"type": "Feature", "geometry": {"type": "Point", "coordinates": [-84.3877234, 33.7724033]}, "properties": {"amenity": "bicycle_parking", "covered": "no", "capacity": "2"}}, {"type": "Feature", "geometry": {"type": "Point", "coordinates": [-84.3877731, 33.7724062]}, "properties": {"amenity": "bicycle_parking", "covered": "no", "capacity": "2"}}, {"type": "Feature", "geometry": {"type": "Point", "coordinates": [-84.3880422, 33.7739668]}, "properties": {"amenity": "bicycle_parking", "covered": "no", "capacity": "18"}}, {"type": "Feature", "geometry": {"type": "Point", "coordinates": [-84.387563, 33.7739127]}, "properties": {"amenity": "bicycle_parking", "covered": "yes", "capacity": "2"}}, {"type": "Feature", "geometry": {"type": "Point", "coordinates": [-84.3876332, 33.7750615]}, "properties": {"amenity": "bicycle_parking", "covered": "yes", "capacity": "2"}}, {"type": "Feature", "geometry": {"type": "Point", "coordinates": [-84.3879822, 33.7750298]}, "properties": {"amenity": "bicycle_parking", "covered": "yes", "capacity": "12"}}, {"type": "Feature", "geometry": {"type": "Point", "coordinates": [-84.3850046, 33.7720527]}, "properties": {"amenity": "bicycle_parking", "covered": "no", "capacity": "2"}}, {"type": "Feature", "geometry": {"type": "Point", "coordinates": [-84.3850206, 33.7719037]}, "properties": {"amenity": "bicycle_parking", "covered": "no", "capacity": "2"}}, {"type": "Feature", "geometry": {"type": "Point", "coordinates": [-84.3850249, 33.7718267]}, "properties": {"amenity": "bicycle_parking", "covered": "no", "capacity": "2"}}, {"type": "Feature", "geometry": {"type": "Point", "coordinates": [-84.3845816, 33.7763286]}, "properties": {"amenity": "bicycle_parking", "covered": "no", "capacity": "2"}}, {"type": "Feature", "geometry": {"type": "Point", "coordinates": [-84.3955735, 33.7768758]}, "properties": {"amenity": "bicycle_parking", "covered": "no", "capacity": "18"}}, {"type": "Feature", "geometry": {"type": "Point", "coordinates": [-84.384458, 33.7763351]}, "properties": {"amenity": "bicycle_parking", "covered": "no", "capacity": "2"}}, {"type": "Feature", "geometry": {"type": "Point", "coordinates": [-84.3859656, 33.7760785]}, "properties": {"amenity": "bicycle_parking", "covered": "no", "capacity": "4"}}, {"type": "Feature", "geometry": {"type": "Point", "coordinates": [-84.3862944, 33.7752358]}, "properties": {"amenity": "waste_basket"}}, {"type": "Feature", "geometry": {"type": "Point", "coordinates": [-84.384458, 33.7763351]}, "properties": {"amenity": "bicycle_parking", "covered": "no", "capacity": "2"}}, {"type": "Feature", "geometry": {"type": "Point", "coordinates": [-84.395467, 33.775691]}, "properties": {"amenity": "waste_basket"}}, {"type": "Feature", "geometry": {"type": "Point", "coordinates": [-84.3944953, 33.771932]}, "properties": {"amenity": "bench", "material": "metal", "backrest": "yes"}}, {"type": "Feature", "geometry": {"type": "Point", "coordinates": [-84.3914582, 33.769893]}, "properties": {"amenity": "bench"}}, {"type": "Feature", "geometry": {"type": "Point", "coordinates": [-84.3914599, 33.7698629]}, "properties": {"amenity": "bench"}}, {"type": "Feature", "geometry": {"type": "Point", "coordinates": [-84.3851111, 33.7761432]}, "properties": {"amenity": "bicycle_parking", "covered": "no", "capacity": "2"}}, {"type": "Feature", "geometry": {"type": "Point", "coordinates": [-84.3877625, 33.7763566]}, "properties": {"amenity": "bicycle_parking", "covered": "no", "capacity": "44"}}, {"type": "Feature", "geometry": {"type": "Point", "coordinates": [-84.3886471, 33.7770039]}, "properties": {"amenity": "bicycle_parking", "covered": "yes", "capacity": "8"}}, {"type": "Feature", "geometry": {"type": "Point", "coordinates": [-84.3848043, 33.7748805]}, "properties": {"amenity": "waste_basket"}}, {"type": "Feature", "geometry": {"type": "Point", "coordinates": [-84.3850842, 33.773647]}, "properties": {"amenity": "bicycle_parking", "covered": "no", "capacity": "6"}}, {"type": "Feature", "geometry": {"type": "Point", "coordinates": [-84.3847085, 33.7750132]}, "properties": {"amenity": "waste_basket"}}, {"type": "Feature", "geometry": {"type": "Point", "coordinates": [-84.3846033, 33.7748288]}, "properties": {"amenity": "waste_basket"}}, {"type": "Feature", "geometry": {"type": "Point", "coordinates": [-84.3845565, 33.7767356]}, "properties": {"amenity": "bicycle_parking", "covered": "no", "capacity": "2"}}, {"type": "Feature", "geometry": {"type": "Point", "coordinates": [-84.3848043, 33.7748805]}, "properties": {"amenity": "waste_basket"}}, {"type": "Feature", "geometry": {"type": "Point", "coordinates": [-84.3845877, 33.7750122]}, "properties": {"amenity": "waste_basket"}}, {"type": "Feature", "geometry": {"type": "Point", "coordinates": [-84.3916715, 33.7722766]}, "properties": {"amenity": "bench", "backrest": "yes"}}, {"type": "Feature", "geometry": {"type": "Point", "coordinates": [-84.3916808, 33.7726314]}, "properties": {"amenity": "bench", "backrest": "yes"}}, {"type": "Feature", "geometry": {"type": "Point", "coordinates": [-84.3917973, 33.7735938]}, "properties": {"amenity": "bicycle_parking", "covered": "no"}}, {"type": "Feature", "geometry": {"type": "Point", "coordinates": [-84.3917951, 33.7728112]}, "properties": {"amenity": "bicycle_parking", "covered": "no"}}, {"type": "Feature", "geometry": {"type": "Point", "coordinates": [-84.3918519, 33.7728142]}, "properties": {"amenity": "bench", "backrest": "yes"}}, {"type": "Feature", "geometry": {"type": "Point", "coordinates": [-84.3915917, 33.7725723]}, "properties": {"amenity": "bench", "backrest": "yes"}}, {"type": "Feature", "geometry": {"type": "Point", "coordinates": [-84.3918819, 33.7721847]}, "properties": {"amenity": "waste_basket"}}, {"type": "Feature", "geometry": {"type": "Point", "coordinates": [-84.3918501, 33.7728445]}, "properties": {"amenity": "bench", "backrest": "yes"}}, {"type": "Feature", "geometry": {"type": "Point", "coordinates": [-84.3918173, 33.7721231]}, "properties": {"amenity": "bench", "backrest": "yes"}}, {"type": "Feature", "geometry": {"type": "Point", "coordinates": [-84.3915996, 33.7723293]}, "properties": {"amenity": "bench", "backrest": "yes"}}, {"type": "Feature", "geometry": {"type": "Point", "coordinates": [-84.3916252, 33.7726132]}, "properties": {"amenity": "bench", "backrest": "yes"}}, {"type": "Feature", "geometry": {"type": "Point", "coordinates": [-84.3918473, 33.7727237]}, "properties": {"amenity": "bench", "backrest": "yes"}}, {"type": "Feature", "geometry": {"type": "Point", "coordinates": [-84.3918482, 33.7721233]}, "properties": {"amenity": "bench", "backrest": "yes"}}, {"type": "Feature", "geometry": {"type": "Point", "coordinates": [-84.3934939, 33.7739856]}, "properties": {"amenity": "bench", "backrest": "yes"}}, {"type": "Feature", "geometry": {"type": "Point", "coordinates": [-84.3934205, 33.7739856]}, "properties": {"amenity": "bench", "backrest": "yes"}}, {"type": "Feature", "geometry": {"type": "Point", "coordinates": [-84.3921363, 33.7740687]}, "properties": {"amenity": "bench", "backrest": "yes"}}, {"type": "Feature", "geometry": {"type": "Point", "coordinates": [-84.3932402, 33.7739871]}, "properties": {"amenity": "bench", "backrest": "yes"}}, {"type": "Feature", "geometry": {"type": "Point", "coordinates": [-84.3920974, 33.7740728]}, "properties": {"amenity": "bench", "backrest": "yes"}}, {"type": "Feature", "geometry": {"type": "Point", "coordinates": [-84.3935184, 33.7739838]}, "properties": {"amenity": "waste_basket"}}, {"type": "Feature", "geometry": {"type": "Point", "coordinates": [-84.3935496, 33.7738437]}, "properties": {"amenity": "bench", "backrest": "yes"}}, {"type": "Feature", "geometry": {"type": "Point", "coordinates": [-84.3935144, 33.7738413]}, "properties": {"amenity": "bench", "backrest": "yes"}}, {"type": "Feature", "geometry": {"type": "Point", "coordinates": [-84.3931238, 33.7739871]}, "properties": {"amenity": "bench", "backrest": "yes"}}, {"type": "Feature", "geometry": {"type": "Point", "coordinates": [-84.3931903, 33.7739865]}, "properties": {"amenity": "bench", "backrest": "yes"}}, {"type": "Feature", "geometry": {"type": "Point", "coordinates": [-84.393453, 33.7739837]}, "properties": {"amenity": "bench", "backrest": "yes"}}, {"type": "Feature", "geometry": {"type": "Point", "coordinates": [-84.3933784, 33.7739829]}, "properties": {"amenity": "bench", "backrest": "yes"}}, {"type": "Feature", "geometry": {"type": "Point", "coordinates": [-84.3932982, 33.7739842]}, "properties": {"amenity": "bench", "backrest": "yes"}}, {"type": "Feature", "geometry": {"type": "Point", "coordinates": [-84.395636, 33.7738065]}, "properties": {"amenity": "bench", "backrest": "yes"}}, {"type": "Feature", "geometry": {"type": "Point", "coordinates": [-84.395998, 33.775786]}, "properties": {"amenity": "bench"}}, {"type": "Feature", "geometry": {"type": "Point", "coordinates": [-84.3935816, 33.7738468]}, "properties": {"amenity": "bench", "backrest": "yes"}}, {"type": "Feature", "geometry": {"type": "Point", "coordinates": [-84.3936098, 33.7738462]}, "properties": {"amenity": "bench", "backrest": "yes"}}, {"type": "Feature", "geometry": {"type": "Point", "coordinates": [-84.3956401, 33.773774]}, "properties": {"amenity": "bench", "backrest": "yes"}}, {"type": "Feature", "geometry": {"type": "Point", "coordinates": [-84.3956943, 33.7740781]}, "properties": {"amenity": "bench", "backrest": "yes"}}, {"type": "Feature", "geometry": {"type": "Point", "coordinates": [-84.3948402, 33.7739937]}, "properties": {"amenity": "waste_basket"}}, {"type": "Feature", "geometry": {"type": "Point", "coordinates": [-84.3956928, 33.7741232]}, "properties": {"amenity": "bench", "backrest": "yes"}}, {"type": "Feature", "geometry": {"type": "Point", "coordinates": [-84.3941663, 33.7740117]}, "properties": {"amenity": "bench", "backrest": "yes"}}, {"type": "Feature", "geometry": {"type": "Point", "coordinates": [-84.3957244, 33.7758298]}, "properties": {"amenity": "bench", "backrest": "yes"}}, {"type": "Feature", "geometry": {"type": "Point", "coordinates": [-84.395998, 33.775786]}, "properties": {"amenity": "bench", "backrest": "yes"}}, {"type": "Feature", "geometry": {"type": "Point", "coordinates": [-84.3838948, 33.772301]}, "properties": {"amenity": "bench", "backrest": "yes"}}, {"type": "Feature", "geometry": {"type": "Point", "coordinates": [-84.3838516, 33.7723068]}, "properties": {"amenity": "bicycle_parking", "covered": "no", "capacity": "2"}}, {"type": "Feature", "geometry": {"type": "Point", "coordinates": [-84.3957637, 33.7759574]}, "properties": {"amenity": "bicycle_parking", "covered": "no"}}, {"type": "Feature", "geometry": {"type": "Point", "coordinates": [-84.388689, 33.7724648]}, "properties": {"amenity": "waste_basket"}}, {"type": "Feature", "geometry": {"type": "Point", "coordinates": [-84.3887631, 33.7735392]}, "properties": {"amenity": "bicycle_parking", "covered": "no", "capacity": "2"}}, {"type": "Feature", "geometry": {"type": "Point", "coordinates": [-84.3887697, 33.7733711]}, "properties": {"amenity": "bicycle_parking", "covered": "no", "capacity": "2"}}, {"type": "Feature", "geometry": {"type": "Point", "coordinates": [-84.3887621, 33.7737045]}, "properties": {"amenity": "bicycle_parking", "covered": "no", "capacity": "2"}}, {"type": "Feature", "geometry": {"type": "Point", "coordinates": [-84.3875507, 33.7751629]}, "properties": {"amenity": "bicycle_parking", "covered": "no", "capacity": "2"}}, {"type": "Feature", "geometry": {"type": "Point", "coordinates": [-84.3874402, 33.7770231]}, "properties": {"amenity": "bicycle_parking", "covered": "no", "capacity": "32"}}, {"type": "Feature", "geometry": {"type": "Point", "coordinates": [-84.3827694, 33.7772874]}, "properties": {"amenity": "waste_basket"}}, {"type": "Feature", "geometry": {"type": "Point", "coordinates": [-84.3826877, 33.7759578]}, "properties": {"amenity": "bicycle_parking", "covered": "no", "capacity": "2"}}, {"type": "Feature", "geometry": {"type": "Point", "coordinates": [-84.4119095, 33.7860029]}, "properties": {"amenity": "drinking_water"}}, {"type": "Feature", "geometry": {"type": "Point", "coordinates": [-84.4122271, 33.7800284]}, "properties": {"amenity": "bicycle_parking", "covered": "no", "capacity": "8"}}, {"type": "Feature", "geometry": {"type": "Point", "coordinates": [-84.4122798, 33.7800089]}, "properties": {"amenity": "bench", "material": "wood", "backrest": "no"}}, {"type": "Feature", "geometry": {"type": "Point", "coordinates": [-84.4121656, 33.7800213]}, "properties": {"amenity": "bicycle_repair_station"}}, {"type": "Feature", "geometry": {"type": "Point", "coordinates": [-84.3984921, 33.7831307]}, "properties": {"amenity": "bench"}}, {"type": "Feature", "geometry": {"type": "Point", "coordinates": [-84.3988641, 33.7829829]}, "properties": {"amenity": "bench"}}, {"type": "Feature", "geometry": {"type": "Point", "coordinates": [-84.4035761, 33.7811217]}, "properties": {"amenity": "bicycle_repair_station"}}, {"type": "Feature", "geometry": {"type": "Point", "coordinates": [-84.4016234, 33.7792449]}, "properties": {"amenity": "bench", "material": "wood", "backrest": "no"}}, {"type": "Feature", "geometry": {"type": "Point", "coordinates": [-84.4015906, 33.7793025]}, "properties": {"amenity": "bench", "material": "wood", "backrest": "no"}}, {"type": "Feature", "geometry": {"type": "Point", "coordinates": [-84.4016958, 33.7792314]}, "properties": {"amenity": "bench", "material": "wood", "backrest": "no"}}, {"type": "Feature", "geometry": {"type": "Point", "coordinates": [-84.3848073, 33.7808983]}, "properties": {"amenity": "bicycle_parking", "covered": "no", "capacity": "6"}}, {"type": "Feature", "geometry": {"type": "Point", "coordinates": [-84.3897732, 33.7780159]}, "properties": {"amenity": "bicycle_repair_station"}}, {"type": "Feature", "geometry": {"type": "Point", "coordinates": [-84.3835213, 33.7794758]}, "properties": {"amenity": "bicycle_parking", "covered": "no", "capacity": "2"}}, {"type": "Feature", "geometry": {"type": "Point", "coordinates": [-84.3843698, 33.7807426]}, "properties": {"amenity": "bicycle_parking", "covered": "no", "capacity": "2"}}, {"type": "Feature", "geometry": {"type": "Point", "coordinates": [-84.387208, 33.7794122]}, "properties": {"amenity": "bicycle_parking", "covered": "no", "capacity": "8"}}, {"type": "Feature", "geometry": {"type": "Point", "coordinates": [-84.3852119, 33.7786185]}, "properties": {"amenity": "bicycle_parking", "covered": "no", "capacity": "10"}}, {"type": "Feature", "geometry": {"type": "Point", "coordinates": [-84.3841309, 33.7798834]}, "properties": {"amenity": "bicycle_parking", "covered": "no", "capacity": "3"}}, {"type": "Feature", "geometry": {"type": "Point", "coordinates": [-84.384134, 33.7798141]}, "properties": {"amenity": "bicycle_parking", "covered": "no", "capacity": "3"}}, {"type": "Feature", "geometry": {"type": "Point", "coordinates": [-84.3872115, 33.7782226]}, "properties": {"amenity": "bicycle_parking", "covered": "no", "capacity": "2"}}, {"type": "Feature", "geometry": {"type": "Point", "coordinates": [-84.3872204, 33.7780677]}, "properties": {"amenity": "bicycle_parking", "covered": "no", "capacity": "2"}}, {"type": "Feature", "geometry": {"type": "Point", "coordinates": [-84.3872118, 33.7781413]}, "properties": {"amenity": "bicycle_parking", "covered": "no", "capacity": "2"}}, {"type": "Feature", "geometry": {"type": "Point", "coordinates": [-84.3876243, 33.7808567]}, "properties": {"amenity": "waste_basket"}}, {"type": "Feature", "geometry": {"type": "Point", "coordinates": [-84.3873279, 33.7793306]}, "properties": {"amenity": "waste_basket"}}, {"type": "Feature", "geometry": {"type": "Point", "coordinates": [-84.3841163, 33.7799395]}, "properties": {"amenity": "bicycle_parking", "covered": "no", "capacity": "2"}}, {"type": "Feature", "geometry": {"type": "Point", "coordinates": [-84.3841778, 33.7792811]}, "properties": {"amenity": "bicycle_parking", "covered": "no", "capacity": "2"}}, {"type": "Feature", "geometry": {"type": "Point", "coordinates": [-84.3844025, 33.778184]}, "properties": {"amenity": "bicycle_parking", "covered": "no", "capacity": "2"}}, {"type": "Feature", "geometry": {"type": "Point", "coordinates": [-84.3726913, 33.7844498]}, "properties": {"amenity": "drinking_water"}}, {"type": "Feature", "geometry": {"type": "Point", "coordinates": [-84.3725592, 33.78468]}, "properties": {"amenity": "bench", "backrest": "yes"}}, {"type": "Feature", "geometry": {"type": "Point", "coordinates": [-84.3730432, 33.783985]}, "properties": {"amenity": "bbq", "covered": "no"}}, {"type": "Feature", "geometry": {"type": "Point", "coordinates": [-84.3731465, 33.7846203]}, "properties": {"amenity": "bbq", "covered": "no"}}, {"type": "Feature", "geometry": {"type": "Point", "coordinates": [-84.3723874, 33.7826786]}, "properties": {"amenity": "drinking_water"}}, {"type": "Feature", "geometry": {"type": "Point", "coordinates": [-84.3730603, 33.7842961]}, "properties": {"amenity": "bbq", "covered": "no"}}, {"type": "Feature", "geometry": {"type": "Point", "coordinates": [-84.3744553, 33.7849725]}, "properties": {"amenity": "bbq", "covered": "no"}}, {"type": "Feature", "geometry": {"type": "Point", "coordinates": [-84.3709042, 33.7832995]}, "properties": {"amenity": "bench"}}, {"type": "Feature", "geometry": {"type": "Point", "coordinates": [-84.3715065, 33.7850953]}, "properties": {"amenity": "drinking_water"}}, {"type": "Feature", "geometry": {"type": "Point", "coordinates": [-84.3713711, 33.7861722]}, "properties": {"amenity": "drinking_water"}}, {"type": "Feature", "geometry": {"type": "Point", "coordinates": [-84.3727144, 33.7843441]}, "properties": {"amenity": "bench", "backrest": "yes"}}, {"type": "Feature", "geometry": {"type": "Point", "coordinates": [-84.373739, 33.7829117]}, "properties": {"amenity": "drinking_water"}}, {"type": "Feature", "geometry": {"type": "Point", "coordinates": [-84.3715557, 33.785082]}, "properties": {"amenity": "bench", "backrest": "yes"}}, {"type": "Feature", "geometry": {"type": "Point", "coordinates": [-84.3746, 33.7832584]}, "properties": {"amenity": "bench", "backrest": "yes"}}, {"type": "Feature", "geometry": {"type": "Point", "coordinates": [-84.3732965, 33.782573]}, "properties": {"amenity": "bench"}}, {"type": "Feature", "geometry": {"type": "Point", "coordinates": [-84.3741024, 33.7820212]}, "properties": {"amenity": "bench"}}, {"type": "Feature", "geometry": {"type": "Point", "coordinates": [-84.3755428, 33.7819944]}, "properties": {"amenity": "bench", "backrest": "yes"}}, {"type": "Feature", "geometry": {"type": "Point", "coordinates": [-84.3742204, 33.7831425]}, "properties": {"amenity": "bench", "backrest": "yes"}}, {"type": "Feature", "geometry": {"type": "Point", "coordinates": [-84.3754341, 33.782]}, "properties": {"amenity": "drinking_water"}}, {"type": "Feature", "geometry": {"type": "Point", "coordinates": [-84.3753604, 33.7819832]}, "properties": {"amenity": "bench"}}, {"type": "Feature", "geometry": {"type": "Point", "coordinates": [-84.3780372, 33.7822252]}, "properties": {"amenity": "bench", "backrest": "yes"}}, {"type": "Feature", "geometry": {"type": "Point", "coordinates": [-84.3779635, 33.7833677]}, "properties": {"amenity": "bench", "backrest": "yes"}}, {"type": "Feature", "geometry": {"type": "Point", "coordinates": [-84.3724496, 33.7869481]}, "properties": {"amenity": "drinking_water"}}, {"type": "Feature", "geometry": {"type": "Point", "coordinates": [-84.3795933, 33.7817335]}, "properties": {"amenity": "bicycle_repair_station"}}, {"type": "Feature", "geometry": {"type": "Point", "coordinates": [-84.3757891, 33.786238]}, "properties": {"amenity": "drinking_water"}}, {"type": "Feature", "geometry": {"type": "Point", "coordinates": [-84.3783379, 33.7842016]}, "properties": {"amenity": "drinking_water"}}, {"type": "Feature", "geometry": {"type": "Point", "coordinates": [-84.3775768, 33.7846485]}, "properties": {"amenity": "drinking_water"}}, {"type": "Feature", "geometry": {"type": "Point", "coordinates": [-84.3748476, 33.7866052]}, "properties": {"amenity": "drinking_water"}}, {"type": "Feature", "geometry": {"type": "Point", "coordinates": [-84.3770822, 33.7865337]}, "properties": {"amenity": "drinking_water"}}, {"type": "Feature", "geometry": {"type": "Point", "coordinates": [-84.3741186, 33.7853092]}, "properties": {"amenity": "drinking_water"}}, {"type": "Feature", "geometry": {"type": "Point", "coordinates": [-84.3766455, 33.7825099]}, "properties": {"amenity": "drinking_water"}}, {"type": "Feature", "geometry": {"type": "Point", "coordinates": [-84.3760919, 33.7834649]}, "properties": {"amenity": "drinking_water"}}, {"type": "Feature", "geometry": {"type": "Point", "coordinates": [-84.3722593, 33.7820212]}, "properties": {"amenity": "waste_basket"}}, {"type": "Feature", "geometry": {"type": "Point", "coordinates": [-84.3724108, 33.7826895]}, "properties": {"amenity": "waste_basket"}}, {"type": "Feature", "geometry": {"type": "Point", "coordinates": [-84.3759332, 33.7834689]}, "properties": {"amenity": "waste_basket"}}, {"type": "Feature", "geometry": {"type": "Point", "coordinates": [-84.3744775, 33.7835335]}, "properties": {"amenity": "waste_basket"}}, {"type": "Feature", "geometry": {"type": "Point", "coordinates": [-84.3762021, 33.7835787]}, "properties": {"amenity": "waste_basket"}}, {"type": "Feature", "geometry": {"type": "Point", "coordinates": [-84.3767647, 33.7836171]}, "properties": {"amenity": "waste_basket"}}, {"type": "Feature", "geometry": {"type": "Point", "coordinates": [-84.3775969, 33.7858537]}, "properties": {"amenity": "waste_basket"}}, {"type": "Feature", "geometry": {"type": "Point", "coordinates": [-84.3776458, 33.7863798]}, "properties": {"amenity": "waste_basket"}}, {"type": "Feature", "geometry": {"type": "Point", "coordinates": [-84.3789769, 33.7864243]}, "properties": {"amenity": "waste_basket"}}, {"type": "Feature", "geometry": {"type": "Point", "coordinates": [-84.3800578, 33.7864243]}, "properties": {"amenity": "bicycle_parking"}}, {"type": "Feature", "geometry": {"type": "Point", "coordinates": [-84.382595, 33.7794358]}, "properties": {"amenity": "waste_basket"}}, {"type": "Feature", "geometry": {"type": "Point", "coordinates": [-84.3827405, 33.779674]}, "properties": {"amenity": "waste_basket"}}, {"type": "Feature", "geometry": {"type": "Point", "coordinates": [-84.3810351, 33.7795817]}, "properties": {"amenity": "waste_basket"}}, {"type": "Feature", "geometry": {"type": "Point", "coordinates": [-84.3826753, 33.7805626]}, "properties": {"amenity": "waste_basket"}}, {"type": "Feature", "geometry": {"type": "Point", "coordinates": [-84.3827376, 33.7804929]}, "properties": {"amenity": "waste_basket"}}, {"type": "Feature", "geometry": {"type": "Point", "coordinates": [-84.3827965, 33.7798]}, "properties": {"amenity": "waste_basket"}}, {"type": "Feature", "geometry": {"type": "Point", "coordinates": [-84.3812021, 33.7783169]}, "properties": {"amenity": "waste_basket"}}, {"type": "Feature", "geometry": {"type": "Point", "coordinates": [-84.3739529, 33.7862286]}, "properties": {"amenity": "bicycle_parking", "covered": "no", "capacity": "12"}}, {"type": "Feature", "geometry": {"type": "Point", "coordinates": [-84.3793202, 33.7834089]}, "properties": {"amenity": "fountain"}}, {"type": "Feature", "geometry": {"type": "Point", "coordinates": [-84.3804905, 33.786615]}, "properties": {"name": "Windsor Fountain", "amenity": "fountain", "material": "concrete"}}, {"type": "Feature", "geometry": {"type": "Point", "coordinates": [-84.3804831, 33.7870168]}, "properties": {"amenity": "fountain", "material": "concrete"}}, {"type": "Feature", "geometry": {"type": "Point", "coordinates": [-84.3785693, 33.7866353]}, "properties": {"amenity": "fountain", "material": "concrete"}}, {"type": "Feature", "geometry": {"type": "Point", "coordinates": [-84.382579, 33.7815262]}, "properties": {"amenity": "bicycle_parking", "covered": "no", "capacity": "2"}}, {"type": "Feature", "geometry": {"type": "Point", "coordinates": [-84.3827176, 33.779278]}, "properties": {"amenity": "bicycle_parking", "covered": "no", "capacity": "2"}}, {"type": "Feature", "geometry": {"type": "Point", "coordinates": [-84.3825975, 33.7793826]}, "properties": {"amenity": "bicycle_parking", "covered": "no", "capacity": "2"}}, {"type": "Feature", "geometry": {"type": "Point", "coordinates": [-84.3826653, 33.7787143]}, "properties": {"amenity": "bicycle_parking", "covered": "no", "capacity": "5"}}, {"type": "Feature", "geometry": {"type": "Point", "coordinates": [-84.3826472, 33.7788069]}, "properties": {"amenity": "bicycle_parking", "covered": "no", "capacity": "5"}}, {"type": "Feature", "geometry": {"type": "Point", "coordinates": [-84.3828081, 33.778087]}, "properties": {"amenity": "bicycle_parking", "covered": "no", "capacity": "2"}}, {"type": "Feature", "geometry": {"type": "Point", "coordinates": [-84.3826413, 33.7788744]}, "properties": {"amenity": "bicycle_parking", "covered": "no", "capacity": "2"}}, {"type": "Feature", "geometry": {"type": "Point", "coordinates": [-84.3826602, 33.7787612]}, "properties": {"amenity": "bicycle_parking", "covered": "no", "capacity": "5"}}, {"type": "Feature", "geometry": {"type": "Point", "coordinates": [-84.3741838, 33.7847298]}, "properties": {"amenity": "bench", "backrest": "yes"}}, {"type": "Feature", "geometry": {"type": "Point", "coordinates": [-84.3749529, 33.7846433]}, "properties": {"amenity": "bench", "backrest": "yes"}}, {"type": "Feature", "geometry": {"type": "Point", "coordinates": [-84.3734389, 33.7845583]}, "properties": {"amenity": "bench", "backrest": "yes"}}, {"type": "Feature", "geometry": {"type": "Point", "coordinates": [-84.3747316, 33.7846168]}, "properties": {"amenity": "bench", "backrest": "yes"}}, {"type": "Feature", "geometry": {"type": "Point", "coordinates": [-84.3801234, 33.782864]}, "properties": {"amenity": "bench", "backrest": "yes"}}, {"type": "Feature", "geometry": {"type": "Point", "coordinates": [-84.3733477, 33.7841441]}, "properties": {"amenity": "bench", "backrest": "yes"}}, {"type": "Feature", "geometry": {"type": "Point", "coordinates": [-84.3757333, 33.7845263]}, "properties": {"amenity": "bench", "backrest": "yes"}}, {"type": "Feature", "geometry": {"type": "Point", "coordinates": [-84.3743956, 33.7847455]}, "properties": {"amenity": "bench", "backrest": "yes"}}, {"type": "Feature", "geometry": {"type": "Point", "coordinates": [-84.3733959, 33.7843255]}, "properties": {"amenity": "bench", "backrest": "yes"}}, {"type": "Feature", "geometry": {"type": "Point", "coordinates": [-84.3733736, 33.7842432]}, "properties": {"amenity": "bench", "backrest": "yes"}}, {"type": "Feature", "geometry": {"type": "Point", "coordinates": [-84.3734252, 33.7844325]}, "properties": {"amenity": "bench", "backrest": "yes"}}, {"type": "Feature", "geometry": {"type": "Point", "coordinates": [-84.3733334, 33.7840551]}, "properties": {"amenity": "bench", "backrest": "yes"}}, {"type": "Feature", "geometry": {"type": "Point", "coordinates": [-84.414189, 33.7905255]}, "properties": {"amenity": "fountain"}}, {"type": "Feature", "geometry": {"type": "Point", "coordinates": [-84.4128139, 33.7896635]}, "properties": {"amenity": "fountain"}}, {"type": "Feature", "geometry": {"type": "Point", "coordinates": [-84.3963598, 33.7915944]}, "properties": {"amenity": "bicycle_repair_station"}}, {"type": "Feature", "geometry": {"type": "Point", "coordinates": [-84.3981077, 33.7914507]}, "properties": {"amenity": "bicycle_parking"}}, {"type": "Feature", "geometry": {"type": "Point", "coordinates": [-84.3975307, 33.7925994]}, "properties": {"amenity": "bicycle_parking"}}, {"type": "Feature", "geometry": {"type": "Point", "coordinates": [-84.4023245, 33.7882292]}, "properties": {"amenity": "fountain"}}, {"type": "Feature", "geometry": {"type": "Point", "coordinates": [-84.4013091, 33.7902322]}, "properties": {"amenity": "fountain"}}, {"type": "Feature", "geometry": {"type": "Point", "coordinates": [-84.4006292, 33.7906581]}, "properties": {"amenity": "fountain"}}, {"type": "Feature", "geometry": {"type": "Point", "coordinates": [-84.385948, 33.7917128]}, "properties": {"amenity": "bicycle_parking", "capacity": "6"}}, {"type": "Feature", "geometry": {"type": "Point", "coordinates": [-84.3854763, 33.7909185]}, "properties": {"name": "Cycleway", "amenity": "bicycle_parking", "capacity": "6"}}, {"type": "Feature", "geometry": {"type": "Point", "coordinates": [-84.3878419, 33.7948739]}, "properties": {"amenity": "bench"}}, {"type": "Feature", "geometry": {"type": "Point", "coordinates": [-84.387705, 33.7965339]}, "properties": {"amenity": "waste_basket"}}, {"type": "Feature", "geometry": {"type": "Point", "coordinates": [-84.3836545, 33.7877058]}, "properties": {"amenity": "bicycle_parking", "covered": "no", "capacity": "2"}}, {"type": "Feature", "geometry": {"type": "Point", "coordinates": [-84.3873121, 33.7887246]}, "properties": {"amenity": "bicycle_parking", "covered": "yes", "capacity": "4"}}, {"type": "Feature", "geometry": {"type": "Point", "coordinates": [-84.38375, 33.7879235]}, "properties": {"amenity": "bicycle_parking", "covered": "no", "capacity": "2"}}, {"type": "Feature", "geometry": {"type": "Point", "coordinates": [-84.3838075, 33.7880566]}, "properties": {"amenity": "bicycle_parking", "covered": "no", "capacity": "2"}}, {"type": "Feature", "geometry": {"type": "Point", "coordinates": [-84.3835594, 33.7879517]}, "properties": {"amenity": "bicycle_parking", "covered": "no", "capacity": "2"}}, {"type": "Feature", "geometry": {"type": "Point", "coordinates": [-84.3837783, 33.7879715]}, "properties": {"amenity": "bicycle_parking", "covered": "no", "capacity": "2"}}, {"type": "Feature", "geometry": {"type": "Point", "coordinates": [-84.3835549, 33.7875773]}, "properties": {"amenity": "bicycle_parking", "covered": "no", "capacity": "4"}}, {"type": "Feature", "geometry": {"type": "Point", "coordinates": [-84.387362, 33.7877702]}, "properties": {"amenity": "fountain"}}, {"type": "Feature", "geometry": {"type": "Point", "coordinates": [-84.3912174, 33.7953728]}, "properties": {"amenity": "bicycle_parking"}}, {"type": "Feature", "geometry": {"type": "Point", "coordinates": [-84.3910966, 33.7952338]}, "properties": {"amenity": "bicycle_parking"}}, {"type": "Feature", "geometry": {"type": "Point", "coordinates": [-84.3909473, 33.7950671]}, "properties": {"amenity": "bicycle_parking"}}, {"type": "Feature", "geometry": {"type": "Point", "coordinates": [-84.3711002, 33.7889633]}, "properties": {"amenity": "bench", "material": "plastic", "backrest": "yes", "seats": "16"}}, {"type": "Feature", "geometry": {"type": "Point", "coordinates": [-84.3716153, 33.7910954]}, "properties": {"amenity": "drinking_water"}}, {"type": "Feature", "geometry": {"type": "Point", "coordinates": [-84.372782, 33.7877438]}, "properties": {"amenity": "drinking_water"}}, {"type": "Feature", "geometry": {"type": "Point", "coordinates": [-84.3711969, 33.7912948]}, "properties": {"name": "Legacy Fountain Splash Pad", "amenity": "fountain"}}, {"type": "Feature", "geometry": {"type": "Point", "coordinates": [-84.3752366, 33.7876184]}, "properties": {"amenity": "drinking_water"}}, {"type": "Feature", "geometry": {"type": "Point", "coordinates": [-84.3712103, 33.7884523]}, "properties": {"amenity": "drinking_water"}}, {"type": "Feature", "geometry": {"type": "Point", "coordinates": [-84.3720601, 33.7892753]}, "properties": {"amenity": "drinking_water"}}, {"type": "Feature", "geometry": {"type": "Point", "coordinates": [-84.3744002, 33.7876257]}, "properties": {"amenity": "drinking_water"}}, {"type": "Feature", "geometry": {"type": "Point", "coordinates": [-84.3717593, 33.7906747]}, "properties": {"amenity": "drinking_water"}}, {"type": "Feature", "geometry": {"type": "Point", "coordinates": [-84.3724515, 33.7900239]}, "properties": {"amenity": "waste_basket"}}, {"type": "Feature", "geometry": {"type": "Point", "coordinates": [-84.3725584, 33.7915123]}, "properties": {"amenity": "bench", "material": "wood", "backrest": "no", "seats": "4"}}, {"type": "Feature", "geometry": {"type": "Point", "coordinates": [-84.3725577, 33.7912556]}, "properties": {"amenity": "bench", "material": "wood", "backrest": "no", "seats": "4"}}, {"type": "Feature", "geometry": {"type": "Point", "coordinates": [-84.373022, 33.7909088]}, "properties": {"amenity": "bench", "material": "wood", "backrest": "no", "seats": "4"}}, {"type": "Feature", "geometry": {"type": "Point", "coordinates": [-84.41643057142856, 33.764161914285715]}, "properties": {"amenity": "shelter"}}, {"type": "Feature", "geometry": {"type": "Point", "coordinates": [-84.41637255555557, 33.76419714444444]}, "properties": {"amenity": "shelter"}}, {"type": "Feature", "geometry": {"type": "Point", "coordinates": [-84.41641877777778, 33.76419925555555]}, "properties": {"amenity": "shelter"}}, {"type": "Feature", "geometry": {"type": "Point", "coordinates": [-84.41643453, 33.76422222]}, "properties": {"amenity": "shelter"}}, {"type": "Feature", "geometry": {"type": "Point", "coordinates": [-84.39291585, 33.75949608333334]}, "properties": {"name": "Fountain of Rings", "amenity": "fountain", "tourism": "attraction"}}, {"type": "Feature", "geometry": {"type": "Point", "coordinates": [-84.38615096000001, 33.76777414]}, "properties": {"amenity": "fountain"}}, {"type": "Feature", "geometry": {"type": "Point", "coordinates": [-84.3855719142857, 33.76848662857143]}, "properties": {"amenity": "fountain"}}, {"type": "Feature", "geometry": {"type": "Point", "coordinates": [-84.38718876, 33.76242178]}, "properties": {"amenity": "fountain"}}, {"type": "Feature", "geometry": {"type": "Point", "coordinates": [-84.3863757, 33.763165625000006]}, "properties": {"amenity": "fountain"}}, {"type": "Feature", "geometry": {"type": "Point", "coordinates": [-84.38622785999999, 33.7631648]}, "properties": {"amenity": "fountain"}}, {"type": "Feature", "geometry": {"type": "Point", "coordinates": [-84.41101936666666, 33.77111731666667]}, "properties": {"amenity": "shelter"}}, {"type": "Feature", "geometry": {"type": "Point", "coordinates": [-84.39759457142857, 33.775570342857144]}, "properties": {"amenity": "bicycle_parking"}}, {"type": "Feature", "geometry": {"type": "Point", "coordinates": [-84.39799842, 33.7752602]}, "properties": {"amenity": "bicycle_parking"}}, {"type": "Feature", "geometry": {"type": "Point", "coordinates": [-84.39812320000001, 33.77526178]}, "properties": {"amenity": "bicycle_parking"}}, {"type": "Feature", "geometry": {"type": "Point", "coordinates": [-84.39793504444442, 33.77369852222222]}, "properties": {"amenity": "bicycle_parking", "covered": "no"}}, {"type": "Feature", "geometry": {"type": "Point", "coordinates": [-84.39845268888888, 33.77526256666667]}, "properties": {"amenity": "bicycle_parking"}}, {"type": "Feature", "geometry": {"type": "Point", "coordinates": [-84.39632495999999, 33.77688114]}, "properties": {"amenity": "bicycle_parking", "covered": "no"}}, {"type": "Feature", "geometry": {"type": "Point", "coordinates": [-84.3972769, 33.77530722]}, "properties": {"amenity": "bicycle_parking", "covered": "no", "capacity": "22"}}, {"type": "Feature", "geometry": {"type": "Point", "coordinates": [-84.39624033999999, 33.77528366]}, "properties": {"amenity": "bicycle_parking", "covered": "no"}}, {"type": "Feature", "geometry": {"type": "Point", "coordinates": [-84.39788048, 33.775534480000005]}, "properties": {"amenity": "bicycle_parking", "covered": "no"}}, {"type": "Feature", "geometry": {"type": "Point", "coordinates": [-84.39788018, 33.77546299999999]}, "properties": {"amenity": "bicycle_parking", "covered": "no"}}, {"type": "Feature", "geometry": {"type": "Point", "coordinates": [-84.39788125999999, 33.775367]}, "properties": {"amenity": "bicycle_parking", "covered": "no"}}, {"type": "Feature", "geometry": {"type": "Point", "coordinates": [-84.39618302, 33.77531312]}, "properties": {"amenity": "shelter"}}, {"type": "Feature", "geometry": {"type": "Point", "coordinates": [-84.396865, 33.77393471999999]}, "properties": {"amenity": "bicycle_parking", "covered": "no", "capacity": "32"}}, {"type": "Feature", "geometry": {"type": "Point", "coordinates": [-84.39651904, 33.77409152]}, "properties": {"amenity": "bicycle_parking", "covered": "no", "capacity": "22"}}, {"type": "Feature", "geometry": {"type": "Point", "coordinates": [-84.39619242857142, 33.77864875714286]}, "properties": {"amenity": "bicycle_parking"}}, {"type": "Feature", "geometry": {"type": "Point", "coordinates": [-84.39617846000002, 33.779055320000005]}, "properties": {"amenity": "bicycle_parking"}}, {"type": "Feature", "geometry": {"type": "Point", "coordinates": [-84.39630422, 33.779129239999996]}, "properties": {"amenity": "bicycle_parking"}}, {"type": "Feature", "geometry": {"type": "Point", "coordinates": [-84.39693542, 33.780007680000004]}, "properties": {"amenity": "bicycle_parking"}}, {"type": "Feature", "geometry": {"type": "Point", "coordinates": [-84.40101436, 33.77866350000001]}, "properties": {"amenity": "bicycle_parking"}}, {"type": "Feature", "geometry": {"type": "Point", "coordinates": [-84.39710612000002, 33.77864162]}, "properties": {"amenity": "bicycle_parking"}}, {"type": "Feature", "geometry": {"type": "Point", "coordinates": [-84.39379424, 33.7802275]}, "properties": {"amenity": "bicycle_parking"}}, {"type": "Feature", "geometry": {"type": "Point", "coordinates": [-84.39342864, 33.7804238]}, "properties": {"amenity": "bicycle_parking"}}, {"type": "Feature", "geometry": {"type": "Point", "coordinates": [-84.38442350000001, 33.78742166666667]}, "properties": {"amenity": "bicycle_parking"}}, {"type": "Feature", "geometry": {"type": "Point", "coordinates": [-84.38691968750001, 33.787489275]}, "properties": {"amenity": "fountain"}}, {"type": "Feature", "geometry": {"type": "Point", "coordinates": [-84.37478108571429, 33.786452371428574]}, "properties": {"amenity": "shelter"}}, {"type": "Feature", "geometry": {"type": "Point", "coordinates": [-84.37452438, 33.78683704]}, "properties": {"amenity": "shelter"}}, {"type": "Feature", "geometry": {"type": "Point", "coordinates": [-84.37365494999999, 33.78506589]}, "properties": {"name": "Clara Meer Gazebo", "amenity": "shelter"}}, {"type": "Feature", "geometry": {"type": "Point", "coordinates": [-84.383621416129, 33.78837801935483]}, "properties": {"amenity": "fountain"}}, {"type": "Feature", "geometry": {"type": "Point", "coordinates": [-84.38727440499999, 33.79295829499999]}, "properties": {"amenity": "fountain"}}, {"type": "Feature", "geometry": {"type": "Point", "coordinates": [-84.3868325977778, 33.793588508888895]}, "properties": {"amenity": "fountain"}}, {"type": "Feature", "geometry": {"type": "Point", "coordinates": [-84.38756292999997, 33.794896225]}, "properties": {"amenity": "fountain"}}, {"type": "Feature", "geometry": {"type": "Point", "coordinates": [-84.38824413333332, 33.796662046666675]}, "properties": {"amenity": "fountain", "material": "concrete", "height": "0.5"}}, {"type": "Feature", "geometry": {"type": "Point", "coordinates": [-84.37428200344827, 33.790751393103456]}, "properties": {"name": "Splash Pad", "amenity": "fountain"}}, {"type": "Feature", "geometry": {"type": "Point", "coordinates": [-84.37507336060605, 33.78840270909092]}, "properties": {"amenity": "fountain"}}]}