{"type": "FeatureCollection", "features": [{"type": "Feature", "id": 1, "geometry": null, "properties": {"OBJECTID_1": 1, "OBJECTID": 1, "NAME": " ", "Shape_Leng": 0, "CreationDate": 1628109909748, "Creator": "wsims6_GTFacilities", "EditDate": 1628109909748, "Editor": "wsims6_GTFacilities", "Shape__Area": null, "Shape__Length": null, "GlobalID": "4cb6d266-491a-470f-b7ef-69c1d18de335"}}, {"type": "Feature", "id": 2, "geometry": {"type": "Polygon", "coordinates": [[[-84.4048282780613, 33.7771272274563], [-84.4048401960722, 33.7769083690464], [-84.4050034086002, 33.7769086986279], [-84.4049911725071, 33.7771334129937], [-84.4048282780613, 33.7771272274563]]]}, "properties": {"OBJECTID_1": 2, "OBJECTID": 2, "NAME": " ", "Shape_Leng": 260.713141769, "CreationDate": 1628109909748, "Creator": "wsims6_GTFacilities", "EditDate": 1628109909748, "Editor": "wsims6_GTFacilities", "Shape__Area": 539.72265625, "Shape__Length": 95.78734435120985, "GlobalID": "0ae6ba99-9fee-4216-a135-efe51e66a750"}}, {"type": "Feature", "id": 3, "geometry": {"type": "Polygon", "coordinates": [[[-84.4048464030902, 33.7767998062978], [-84.4048572148739, 33.7765792026086], [-84.4050204827359, 33.7765864819949], [-84.4050097552121, 33.776805390429], [-84.4048464030902, 33.7767998062978]]]}, "properties": {"OBJECTID_1": 3, "OBJECTID": 3, "NAME": " ", "Shape_Leng": 259.419209171, "CreationDate": 1628109909748, "Creator": "wsims6_GTFacilities", "EditDate": 1628109909748, "Editor": "wsims6_GTFacilities", "Shape__Area": 536.078125, "Shape__Length": 95.31093441581446, "GlobalID": "445cec04-ebb2-4a7c-abf7-c5fbcdfcaf1e"}}, {"type": "Feature", "id": 4, "geometry": {"type": "Polygon", "coordinates": [[[-84.3944313160992, 33.7794490356512], [-84.3944310040875, 33.7794372191793], [-84.395067273585, 33.7794516625101], [-84.3950680240232, 33.7794634637422], [-84.3944313160992, 33.7794490356512]]]}, "properties": {"OBJECTID_1": 4, "OBJECTID": 4, "NAME": " ", "Shape_Leng": 395.539246362, "CreationDate": 1628109909748, "Creator": "wsims6_GTFacilities", "EditDate": 1628109909748, "Editor": "wsims6_GTFacilities", "Shape__Area": 111.9453125, "Shape__Length": 144.92562213622023, "GlobalID": "9317ae51-b225-4ad2-976b-4f298013319e"}}, {"type": "Feature", "id": 5, "geometry": {"type": "Polygon", "coordinates": [[[-84.3946938419983, 33.7800228497651], [-84.3946937731888, 33.7799968832264], [-84.3942292934684, 33.7799860128399], [-84.3942292498714, 33.7799695271213], [-84.3946937250611, 33.779978721346], [-84.3946936584667, 33.7799535906341], [-84.3948418029927, 33.7799558242956], [-84.3948408701591, 33.7799835436939], [-84.3953113671956, 33.779994323989], [-84.3953104218151, 33.780009137172], [-84.3948398942057, 33.7799990737431], [-84.3948389893018, 33.780025924799], [-84.3946938419983, 33.7800228497651]]]}, "properties": {"OBJECTID_1": 5, "OBJECTID": 5, "NAME": " ", "Shape_Leng": 707.379423707, "CreationDate": 1628109909748, "Creator": "wsims6_GTFacilities", "EditDate": 1628109909748, "Editor": "wsims6_GTFacilities", "Shape__Area": 378.94140625, "Shape__Length": 259.24418339828145, "GlobalID": "5d30cedb-c113-464e-b23f-1638a1bead71"}}, {"type": "Feature", "id": 6, "geometry": {"type": "Polygon", "coordinates": [[[-84.3943759140314, 33.7800443785882], [-84.3943768584388, 33.7800287286811], [-84.3951600392936, 33.7800457026806], [-84.3951600763964, 33.7800596755072], [-84.3943759140314, 33.7800443785882]]]}, "properties": {"OBJECTID_1": 6, "OBJECTID": 6, "NAME": " ", "Shape_Leng": 487.167062568, "CreationDate": 1628109909748, "Creator": "wsims6_GTFacilities", "EditDate": 1628109909748, "Editor": "wsims6_GTFacilities", "Shape__Area": 173.1640625, "Shape__Length": 178.49952562690618, "GlobalID": "dcade450-88ce-4f55-bbf0-4d39c3f3e3f6"}}, {"type": "Feature", "id": 7, "geometry": {"type": "Polygon", "coordinates": [[[-84.4036844953351, 33.7771720704128], [-84.4036546004512, 33.7771710783022], [-84.4026323250704, 33.7771370324303], [-84.4026487706498, 33.7767843351713], [-84.4026500503841, 33.7767568693081], [-84.4026669369789, 33.7764079445955], [-84.4033312858129, 33.7764309718775], [-84.4036164553496, 33.7764406575241], [-84.404738247396, 33.7764788853563], [-84.4047207460834, 33.7768262101803], [-84.404718910966, 33.7768622680734], [-84.4047012405757, 33.7772055105201], [-84.4036844953351, 33.7771720704128]]]}, "properties": {"OBJECTID_1": 7, "OBJECTID": 7, "NAME": " ", "Shape_Leng": 1789.21394921, "CreationDate": 1628109909748, "Creator": "wsims6_GTFacilities", "EditDate": 1628109909748, "Editor": "wsims6_GTFacilities", "Shape__Area": 22502.58984375, "Shape__Length": 656.3851371749395, "GlobalID": "0156a0ce-559b-4112-b7a0-c304d5eef15c"}}, {"type": "Feature", "id": 8, "geometry": {"type": "Polygon", "coordinates": [[[-84.3944970666545, 33.7767532545091], [-84.3945018703285, 33.7766708716032], [-84.3945968738727, 33.7766738240053], [-84.3945952887101, 33.776840512657], [-84.394496566013, 33.7768349568373], [-84.3944970666545, 33.7767532545091]]]}, "properties": {"OBJECTID_1": 8, "OBJECTID": 8, "NAME": " ", "Shape_Leng": 179.350322442, "CreationDate": 1628109909748, "Creator": "wsims6_GTFacilities", "EditDate": 1628109909748, "Editor": "wsims6_GTFacilities", "Shape__Area": 241.671875, "Shape__Length": 65.91061050788754, "GlobalID": "b3aff459-a86a-474c-a51d-3c0a82224976"}}, {"type": "Feature", "id": 9, "geometry": {"type": "Polygon", "coordinates": [[[-84.3939315028991, 33.7778307959494], [-84.3939340727736, 33.7776824243805], [-84.3939329835976, 33.777643686006], [-84.3939362475662, 33.7773848616805], [-84.3939398652379, 33.7772595677593], [-84.3940879719239, 33.777278253049], [-84.3945025358922, 33.7772791366015], [-84.3949812480811, 33.7772766036595], [-84.3951129514223, 33.7774370911244], [-84.3947772366468, 33.7781375094656], [-84.3947522121265, 33.7782314050607], [-84.394388570413, 33.7782264232639], [-84.3943244051164, 33.7782240684196], [-84.3942681250046, 33.7782175784502], [-84.3942068778346, 33.7781987332607], [-84.394158440429, 33.7781716215256], [-84.3941030557448, 33.778130510904], [-84.3940387402604, 33.778071282688], [-84.3939773822084, 33.7780104007706], [-84.3939426980465, 33.7779585358108], [-84.3939346692077, 33.7779082708764], [-84.3939315028991, 33.7778307959494]], [[-84.3945117158091, 33.7774072272775], [-84.3944979211526, 33.777452065753], [-84.3944940675287, 33.7774977162961], [-84.39450115273, 33.777546666527], [-84.3945181614183, 33.7775897890915], [-84.3945481044083, 33.7776386962122], [-84.3945899532175, 33.7776801129533], [-84.3946317668947, 33.7777082520175], [-84.3946735630076, 33.7777297513346], [-84.3947322437383, 33.7777479004539], [-84.3947839336994, 33.7777527838389], [-84.3948306415664, 33.7777526974914], [-84.3948693851283, 33.7777476469317], [-84.3949135808337, 33.7777379319484], [-84.3949838473913, 33.7774395499139], [-84.3950046942403, 33.7774312125383], [-84.3950156000005, 33.7774212336127], [-84.3950225071225, 33.7774029632802], [-84.3950244464436, 33.7773847021397], [-84.3950094869653, 33.7773648132285], [-84.3949895938431, 33.7773582102696], [-84.3949637561186, 33.7773582580703], [-84.3949478660736, 33.7773624368674], [-84.3949310057751, 33.7773749162624], [-84.3945750816552, 33.777318312873], [-84.3945374282975, 33.7773598764318], [-84.3945117158091, 33.7774072272775]]]}, "properties": {"OBJECTID_1": 9, "OBJECTID": 9, "NAME": " ", "Shape_Leng": 1771.5516914, "CreationDate": 1628109909748, "Creator": "wsims6_GTFacilities", "EditDate": 1628109909748, "Editor": "wsims6_GTFacilities", "Shape__Area": 11246.3671875, "Shape__Length": 650.5731883493098, "GlobalID": "8a3f5a1b-ca8d-476e-bf9d-c89706495339"}}, {"type": "Feature", "id": 10, "geometry": {"type": "Polygon", "coordinates": [[[-84.394970086129, 33.7767886970903], [-84.3949748085817, 33.7765920254014], [-84.395073352825, 33.7765943072706], [-84.3950683201218, 33.7767903474788], [-84.394970086129, 33.7767886970903]]]}, "properties": {"OBJECTID_1": 10, "OBJECTID": 10, "NAME": " ", "Shape_Leng": 202.737617966, "CreationDate": 1628109909748, "Creator": "wsims6_GTFacilities", "EditDate": 1628109909748, "Editor": "wsims6_GTFacilities", "Shape__Area": 288.16015625, "Shape__Length": 74.5167149776497, "GlobalID": "f07409de-01e7-4f0d-95e0-6142139253cb"}}, {"type": "Feature", "id": 11, "geometry": {"type": "Polygon", "coordinates": [[[-84.3944525539884, 33.7783677536251], [-84.3944137297934, 33.7792775441907], [-84.3938863442448, 33.7792616717075], [-84.3939238004749, 33.7783518405325], [-84.3944525539884, 33.7783677536251]]]}, "properties": {"OBJECTID_1": 11, "OBJECTID": 12, "NAME": " ", "Shape_Leng": 983.632128033, "CreationDate": 1628109909748, "Creator": "wsims6_GTFacilities", "EditDate": 1628109909748, "Editor": "wsims6_GTFacilities", "Shape__Area": 7171.859375, "Shape__Length": 361.49184883284835, "GlobalID": "143e0590-90d4-4e76-a11e-40aefd6f19a1"}}, {"type": "Feature", "id": 12, "geometry": {"type": "Polygon", "coordinates": [[[-84.3925854504921, 33.7730085634969], [-84.3925890660169, 33.772002713592], [-84.3931353361521, 33.772004081954], [-84.3931317270111, 33.7730099318484], [-84.3925854504921, 33.7730085634969]]]}, "properties": {"OBJECTID_1": 12, "OBJECTID": 13, "NAME": " ", "Shape_Leng": 1064.00041226, "CreationDate": 1628109909748, "Creator": "wsims6_GTFacilities", "EditDate": 1628109909748, "Editor": "wsims6_GTFacilities", "Shape__Area": 8191.3828125, "Shape__Length": 391.02624841329117, "GlobalID": "69398f10-9263-40f9-acc4-3ad908ca2af1"}}, {"type": "Feature", "id": 13, "geometry": {"type": "Polygon", "coordinates": [[[-84.3929649992154, 33.778604904578], [-84.3930030691571, 33.7786025923525], [-84.3930412360273, 33.7786030597303], [-84.3930577189297, 33.7786041240986], [-84.393094194506, 33.7786109980945], [-84.393095886221, 33.7786113168802], [-84.3932956344669, 33.7786479107293], [-84.3932036216205, 33.7789967962333], [-84.3931653582068, 33.7791418565895], [-84.3931892835247, 33.7791731234354], [-84.3931659418975, 33.7791855784178], [-84.3931420165845, 33.7791543115675], [-84.3929683216227, 33.7791222591091], [-84.3925504809692, 33.7790455033205], [-84.392600732752, 33.7788474049743], [-84.3926306438741, 33.7787943691447], [-84.3926460706914, 33.7787723595251], [-84.3926644351266, 33.7787518583974], [-84.3926872630164, 33.778724293666], [-84.3927081972816, 33.7787079264071], [-84.392724906489, 33.7786948416838], [-84.392758396023, 33.7786723219871], [-84.3927926230437, 33.7786535157357], [-84.392812627775, 33.7786441947685], [-84.3928401548594, 33.7786331513812], [-84.3928685392188, 33.7786237384064], [-84.3929023684981, 33.7786150656176], [-84.3929348078465, 33.7786087441712], [-84.3929649992154, 33.778604904578]]]}, "properties": {"OBJECTID_1": 13, "OBJECTID": 14, "NAME": " ", "Shape_Leng": 728.419821385, "CreationDate": 1628109909748, "Creator": "wsims6_GTFacilities", "EditDate": 1628109909748, "Editor": "wsims6_GTFacilities", "Shape__Area": 4401.8359375, "Shape__Length": 267.44512227472165, "GlobalID": "d7ed8750-8fdd-4f92-83f7-0e0b0f8c2fb0"}}, {"type": "Feature", "id": 14, "geometry": {"type": "Polygon", "coordinates": [[[-84.4000977272039, 33.7881331089813], [-84.4004067157699, 33.7876686150156], [-84.4004699993655, 33.7876565996467], [-84.4004953717866, 33.7876737334176], [-84.4005364946933, 33.7876617600079], [-84.4009679246674, 33.7879847530314], [-84.4009190421751, 33.7880535732379], [-84.4008685754564, 33.7881223964314], [-84.4008275531097, 33.7881713761941], [-84.4007675288414, 33.7882177492588], [-84.4006774689464, 33.7882787174705], [-84.4006110583174, 33.7883052770838], [-84.400547749109, 33.788308039838], [-84.4004986720966, 33.7883054901155], [-84.4004052231168, 33.788284519867], [-84.4002752566023, 33.7882226467984], [-84.4000946708539, 33.7881365644775], [-84.4000977272039, 33.7881331089813]]]}, "properties": {"OBJECTID_1": 14, "OBJECTID": 17, "NAME": " ", "Shape_Leng": 748.715973238, "CreationDate": 1628109909748, "Creator": "wsims6_GTFacilities", "EditDate": 1628109909748, "Editor": "wsims6_GTFacilities", "Shape__Area": 5102.9296875, "Shape__Length": 274.92452872320473, "GlobalID": "301f8bb1-7fd2-48b5-aae7-c6876e792b83"}}, {"type": "Feature", "id": 15, "geometry": {"type": "Polygon", "coordinates": [[[-84.400980248889, 33.7883478224032], [-84.4010949069154, 33.7882040618909], [-84.4012233845778, 33.7882789017546], [-84.4011125491619, 33.788424163582], [-84.400980248889, 33.7883478224032]]]}, "properties": {"OBJECTID_1": 15, "OBJECTID": 18, "NAME": " ", "Shape_Leng": 221.974893137, "CreationDate": 1628109909748, "Creator": "wsims6_GTFacilities", "EditDate": 1628109909748, "Editor": "wsims6_GTFacilities", "Shape__Area": 408.0234375, "Shape__Length": 81.53531850801991, "GlobalID": "4fbec2a0-a741-494b-89f1-cc1f6d9b165d"}}, {"type": "Feature", "id": 16, "geometry": {"type": "Polygon", "coordinates": [[[-84.4009136860857, 33.7881856355045], [-84.4010191386309, 33.7880606630911], [-84.401093289208, 33.7880958561081], [-84.4009865420508, 33.7882307681303], [-84.4009136860857, 33.7881856355045]]]}, "properties": {"OBJECTID_1": 16, "OBJECTID": 19, "NAME": " ", "Shape_Leng": 167.938779669, "CreationDate": 1628109909748, "Creator": "wsims6_GTFacilities", "EditDate": 1628109909748, "Editor": "wsims6_GTFacilities", "Shape__Area": 205.94921875, "Shape__Length": 61.693451690640174, "GlobalID": "e3484081-0eb2-45b5-918d-73de98d588d7"}}, {"type": "Feature", "id": 17, "geometry": {"type": "Polygon", "coordinates": [[[-84.3942658717943, 33.7800633197178], [-84.3942391489631, 33.7800588877923], [-84.3942128615106, 33.780052910529], [-84.3941871369255, 33.7800454165458], [-84.3941621016358, 33.7800364416762], [-84.394137876694, 33.7800260307799], [-84.3941145810077, 33.7800142341308], [-84.3940923270245, 33.7800011092279], [-84.3940712239693, 33.7799867198877], [-84.3940513735277, 33.779971137154], [-84.3940328730704, 33.7799544338816], [-84.394016017595, 33.7799330164458], [-84.3939955796877, 33.7798928728918], [-84.3939839391241, 33.7798476196987], [-84.3939847305936, 33.7796342594957], [-84.393998151213, 33.7795833004674], [-84.3940062615245, 33.7795576569779], [-84.3940224126637, 33.7795393345123], [-84.3940400543003, 33.7795219975087], [-84.3940591013578, 33.7795057308784], [-84.3940794601053, 33.7794906132373], [-84.3941010335587, 33.7794767177971], [-84.3941237139247, 33.7794641132814], [-84.3941473923091, 33.7794528603012], [-84.3941719533249, 33.7794430140693], [-84.3941972772476, 33.7794346225934], [-84.3942232400146, 33.7794277266762], [-84.3942497164645, 33.7794223599092], [-84.3942833344754, 33.7794178410418], [-84.3943104896903, 33.7794159993698], [-84.3943377290156, 33.779415748952], [-84.3952476731181, 33.7794337273473], [-84.3952951555247, 33.7794370900084], [-84.3953417966401, 33.7794452654236], [-84.3953868975352, 33.7794581268549], [-84.395429785021, 33.7794754825984], [-84.3954698202766, 33.7794970723617], [-84.3955064053516, 33.7795225762683], [-84.3955389961175, 33.7795516130302], [-84.3955616288631, 33.7795812552294], [-84.3953275499023, 33.779576332472], [-84.3953273910731, 33.7795856387135], [-84.3951094038166, 33.7795014512772], [-84.3950924814305, 33.7795325859797], [-84.3950842158447, 33.7795577790016], [-84.3950808567672, 33.7795858608498], [-84.3950824181273, 33.7796078402284], [-84.3950865385189, 33.7796294172416], [-84.3950895141631, 33.7796440004582], [-84.3950996871879, 33.7796706849439], [-84.3953272025652, 33.7795955599364], [-84.3953228426968, 33.7797398818753], [-84.3952354257605, 33.7797378969868], [-84.3952307171605, 33.7797485479027], [-84.3952299003503, 33.7797666473679], [-84.3952356496943, 33.7797787071301], [-84.3953222743894, 33.7797811957063], [-84.3953185037361, 33.779945309606], [-84.3955564543629, 33.7799497238785], [-84.3955380713219, 33.7799695609489], [-84.3955127261181, 33.7799914784149], [-84.3954768375977, 33.7800176631059], [-84.3954373961326, 33.7800399998123], [-84.395401202548, 33.7800558304795], [-84.3953567535009, 33.7800701860051], [-84.3953172226413, 33.7800788123241], [-84.3952700466882, 33.7800844502932], [-84.3952292105715, 33.7800854239797], [-84.3943192606597, 33.7800674454767], [-84.3942928992928, 33.7800661840049], [-84.3942658717943, 33.7800633197178]], [[-84.3948389893018, 33.780025924799], [-84.3948398942057, 33.7799990737431], [-84.3953104218151, 33.780009137172], [-84.3953113671956, 33.779994323989], [-84.3948408701591, 33.7799835436939], [-84.3948418029927, 33.7799558242956], [-84.3946936584667, 33.7799535906341], [-84.3946937250611, 33.779978721346], [-84.3942292498714, 33.7799695271213], [-84.3942292934684, 33.7799860128399], [-84.3946937731888, 33.7799968832264], [-84.3946938419983, 33.7800228497651], [-84.3948389893018, 33.780025924799]], [[-84.3951600392936, 33.7800457026806], [-84.3943768584388, 33.7800287286811], [-84.3943759140314, 33.7800443785882], [-84.3951600763964, 33.7800596755072], [-84.3951600392936, 33.7800457026806]], [[-84.395067273585, 33.7794516625101], [-84.3944310040875, 33.7794372191793], [-84.3944313160992, 33.7794490356512], [-84.3950680240232, 33.7794634637422], [-84.395067273585, 33.7794516625101]], [[-84.3941557884776, 33.7799572810849], [-84.3941834339087, 33.7799541509784], [-84.3942152466484, 33.779942643149], [-84.394163827823, 33.7798602819051], [-84.3941417424789, 33.7798741773975], [-84.3941141347722, 33.7798911622049], [-84.394104080257, 33.7799235085554], [-84.394119807684, 33.7799450317483], [-84.3941557884776, 33.7799572810849]]]}, "properties": {"OBJECTID_1": 17, "OBJECTID": 20, "NAME": " ", "Shape_Leng": 3381.41136336, "CreationDate": 1628109909748, "Creator": "wsims6_GTFacilities", "EditDate": 1628109909748, "Editor": "wsims6_GTFacilities", "Shape__Area": 11924.734375, "Shape__Length": 1239.8318501630347, "GlobalID": "6109270e-b30c-44bf-a0a5-0660cf97f584"}}, {"type": "Feature", "id": 18, "geometry": {"type": "Polygon", "coordinates": [[[-84.3944137629461, 33.7801455867632], [-84.3938342915987, 33.7801414396906], [-84.3938095314502, 33.7801422038843], [-84.3938114059677, 33.7800571413214], [-84.3940218503471, 33.7800612999125], [-84.3939812023672, 33.7800308998698], [-84.3939635438592, 33.7800153230026], [-84.3939415679098, 33.7799933983417], [-84.3939214761501, 33.7799702466656], [-84.3939077024427, 33.7799521425196], [-84.3938836544494, 33.7799142633305], [-84.3938734408786, 33.7798945828497], [-84.393861770066, 33.7798677026572], [-84.3938485416315, 33.7798262735743], [-84.3938405713387, 33.7797839178303], [-84.3938385875209, 33.7797625343038], [-84.3938380326364, 33.7797339457529], [-84.3938398662725, 33.7797053951825], [-84.3938428052694, 33.7796840900536], [-84.3938470749383, 33.7796629420672], [-84.3938548177563, 33.7796350911192], [-84.3938648693744, 33.779607758878], [-84.39387389385, 33.7795876778069], [-84.3938956487703, 33.7795488432832], [-84.3939083244084, 33.7795301891127], [-84.3939270088912, 33.7795062284744], [-84.3939586677249, 33.7794724754423], [-84.3939760434943, 33.7794566798601], [-84.3940007033869, 33.7794368422771], [-84.3940516337772, 33.7794031637191], [-84.3938453345735, 33.779398398847], [-84.3938454922655, 33.7793219348804], [-84.3951840166936, 33.7793488898115], [-84.3952500433565, 33.7793500604964], [-84.3953012365239, 33.7793533107886], [-84.3953434019537, 33.7793594279098], [-84.395404727035, 33.7793779324621], [-84.3954580095649, 33.7793970289519], [-84.3954907156951, 33.7794126263946], [-84.3955240385883, 33.7794327697143], [-84.3955555480506, 33.77945392714], [-84.3955876797961, 33.7794808909418], [-84.3956173958815, 33.779509375795], [-84.395642877883, 33.7795381200581], [-84.395668079755, 33.7795752006055], [-84.3956866201661, 33.7796092621573], [-84.3957061018639, 33.7796562020533], [-84.3957171043463, 33.7796991173832], [-84.3957202336012, 33.7797385110479], [-84.3957215387059, 33.7797712475973], [-84.3957174679069, 33.7798060895634], [-84.3957109498682, 33.7798411470578], [-84.3956984690177, 33.7798817400381], [-84.3956836636182, 33.7799155046148], [-84.3956681055467, 33.7799459975909], [-84.3956547961965, 33.7799670055253], [-84.3956309166068, 33.7799959531786], [-84.3956065331953, 33.780020602687], [-84.3955703975407, 33.7800533248377], [-84.3955406916844, 33.7800750303948], [-84.3954988308874, 33.7800991496647], [-84.395463914285, 33.7801160626691], [-84.3954199774021, 33.7801334035379], [-84.3953653418231, 33.7801505929052], [-84.3953234186279, 33.7801577638858], [-84.3952885100847, 33.7801618823892], [-84.3952602293477, 33.7801640563661], [-84.3952192958369, 33.780163743573], [-84.3951218240575, 33.780161474272], [-84.3946491522739, 33.7801509903111], [-84.3944137629461, 33.7801455867632]], [[-84.3952307171605, 33.7797485479027], [-84.3952354257605, 33.7797378969868], [-84.3953228426968, 33.7797398818753], [-84.3953272025652, 33.7795955599364], [-84.3950996871879, 33.7796706849439], [-84.3950895141631, 33.7796440004582], [-84.3950865385189, 33.7796294172416], [-84.3950824181273, 33.7796078402284], [-84.3950808567672, 33.7795858608498], [-84.3950842158447, 33.7795577790016], [-84.3950924814305, 33.7795325859797], [-84.3951094038166, 33.7795014512772], [-84.3953273910731, 33.7795856387135], [-84.3953275499023, 33.779576332472], [-84.3955616288631, 33.7795812552294], [-84.3955389961175, 33.7795516130302], [-84.3955064053516, 33.7795225762683], [-84.3954698202766, 33.7794970723617], [-84.395429785021, 33.7794754825984], [-84.3953868975352, 33.7794581268549], [-84.3953417966401, 33.7794452654236], [-84.3952951555247, 33.7794370900084], [-84.3952476731181, 33.7794337273473], [-84.3943377290156, 33.779415748952], [-84.3943104896903, 33.7794159993698], [-84.3942833344754, 33.7794178410418], [-84.3942497164645, 33.7794223599092], [-84.3942232400146, 33.7794277266762], [-84.3941972772476, 33.7794346225934], [-84.3941719533249, 33.7794430140693], [-84.3941473923091, 33.7794528603012], [-84.3941237139247, 33.7794641132814], [-84.3941010335587, 33.7794767177971], [-84.3940794601053, 33.7794906132373], [-84.3940591013578, 33.7795057308784], [-84.3940400543003, 33.7795219975087], [-84.3940224126637, 33.7795393345123], [-84.3940062615245, 33.7795576569779], [-84.393998151213, 33.7795833004674], [-84.3939847305936, 33.7796342594957], [-84.3939839391241, 33.7798476196987], [-84.3939955796877, 33.7798928728918], [-84.394016017595, 33.7799330164458], [-84.3940328730704, 33.7799544338816], [-84.3940513735277, 33.779971137154], [-84.3940712239693, 33.7799867198877], [-84.3940923270245, 33.7800011092279], [-84.3941145810077, 33.7800142341308], [-84.394137876694, 33.7800260307799], [-84.3941621016358, 33.7800364416762], [-84.3941871369255, 33.7800454165458], [-84.3942128615106, 33.780052910529], [-84.3942391489631, 33.7800588877923], [-84.3942658717943, 33.7800633197178], [-84.3942928992928, 33.7800661840049], [-84.3943192606597, 33.7800674454767], [-84.3952292105715, 33.7800854239797], [-84.3952700466882, 33.7800844502932], [-84.3953172226413, 33.7800788123241], [-84.3953567535009, 33.7800701860051], [-84.395401202548, 33.7800558304795], [-84.3954373961326, 33.7800399998123], [-84.3954768375977, 33.7800176631059], [-84.3955127261181, 33.7799914784149], [-84.3955380713219, 33.7799695609489], [-84.3955564543629, 33.7799497238785], [-84.3953185037361, 33.779945309606], [-84.3953222743894, 33.7797811957063], [-84.3952356496943, 33.7797787071301], [-84.3952299003503, 33.7797666473679], [-84.3952307171605, 33.7797485479027]]]}, "properties": {"OBJECTID_1": 18, "OBJECTID": 21, "NAME": " ", "Shape_Leng": 3470.19041587, "CreationDate": 1628109909748, "Creator": "wsims6_GTFacilities", "EditDate": 1628109909748, "Editor": "wsims6_GTFacilities", "Shape__Area": 8331.671875, "Shape__Length": 1272.999602184095, "GlobalID": "9fc3e351-fd86-4915-97c3-bd7354bdef1b"}}, {"type": "Feature", "id": 19, "geometry": {"type": "Polygon", "coordinates": [[[-84.3941417424789, 33.7798741773975], [-84.394163827823, 33.7798602819051], [-84.3942152466484, 33.779942643149], [-84.3941834339087, 33.7799541509784], [-84.3941557884776, 33.7799572810849], [-84.394119807684, 33.7799450317483], [-84.394104080257, 33.7799235085554], [-84.3941141347722, 33.7798911622049], [-84.3941417424789, 33.7798741773975]]]}, "properties": {"OBJECTID_1": 19, "OBJECTID": 22, "NAME": " ", "Shape_Leng": 104.770445611, "CreationDate": 1628109909748, "Creator": "wsims6_GTFacilities", "EditDate": 1628109909748, "Editor": "wsims6_GTFacilities", "Shape__Area": 97.09375, "Shape__Length": 38.47774506294495, "GlobalID": "407083cc-8615-45d6-a652-53ba984787de"}}, {"type": "Feature", "id": 20, "geometry": {"type": "Polygon", "coordinates": [[[-84.3945481044083, 33.7776386962122], [-84.3945181614183, 33.7775897890915], [-84.39450115273, 33.777546666527], [-84.3944940675287, 33.7774977162961], [-84.3944979211526, 33.777452065753], [-84.3945117158091, 33.7774072272775], [-84.3945374282975, 33.7773598764318], [-84.3945750816552, 33.777318312873], [-84.3949310057751, 33.7773749162624], [-84.3949478660736, 33.7773624368674], [-84.3949637561186, 33.7773582580703], [-84.3949895938431, 33.7773582102696], [-84.3950094869653, 33.7773648132285], [-84.3950244464436, 33.7773847021397], [-84.3950225071225, 33.7774029632802], [-84.3950156000005, 33.7774212336127], [-84.3950046942403, 33.7774312125383], [-84.3949838473913, 33.7774395499139], [-84.3949135808337, 33.7777379319484], [-84.3948693851283, 33.7777476469317], [-84.3948306415664, 33.7777526974914], [-84.3947839336994, 33.7777527838389], [-84.3947322437383, 33.7777479004539], [-84.3946735630076, 33.7777297513346], [-84.3946317668947, 33.7777082520175], [-84.3945899532175, 33.7776801129533], [-84.3945481044083, 33.7776386962122]], [[-84.3948730503883, 33.7776306273659], [-84.394881953011, 33.7776148428127], [-84.3948948499033, 33.7776065201572], [-84.3949157056064, 33.777601502663], [-84.3949215496101, 33.7776021013709], [-84.3949689209336, 33.777432108243], [-84.394935030859, 33.7773939967907], [-84.3947312254741, 33.7773636678407], [-84.3947242908228, 33.7773719794614], [-84.3947143772576, 33.7773811261063], [-84.3946984926742, 33.7773869648027], [-84.3946776348123, 33.7773911527443], [-84.3946393124081, 33.7775555397062], [-84.3946482744252, 33.777562162014], [-84.3946592231376, 33.7775687815525], [-84.3946701894383, 33.7775820390196], [-84.3946752045, 33.7775994568838], [-84.3948730503883, 33.7776306273659]]]}, "properties": {"OBJECTID_1": 20, "OBJECTID": 23, "NAME": " ", "Shape_Leng": 858.310100461, "CreationDate": 1628109909748, "Creator": "wsims6_GTFacilities", "EditDate": 1628109909748, "Editor": "wsims6_GTFacilities", "Shape__Area": 1524.14453125, "Shape__Length": 315.18406905239596, "GlobalID": "03f92569-9ba2-4d56-987a-6cfa932b123e"}}, {"type": "Feature", "id": 21, "geometry": {"type": "Polygon", "coordinates": [[[-84.3948730503883, 33.7776306273659], [-84.3946752045, 33.7775994568838], [-84.3946701894383, 33.7775820390196], [-84.3946592231376, 33.7775687815525], [-84.3946482744252, 33.777562162014], [-84.3946393124081, 33.7775555397062], [-84.3946776348123, 33.7773911527443], [-84.3946984926742, 33.7773869648027], [-84.3947143772576, 33.7773811261063], [-84.3947242908228, 33.7773719794614], [-84.3947312254741, 33.7773636678407], [-84.394935030859, 33.7773939967907], [-84.3949689209336, 33.777432108243], [-84.3949215496101, 33.7776021013709], [-84.3949157056064, 33.777601502663], [-84.3948948499033, 33.7776065201572], [-84.394881953011, 33.7776148428127], [-84.3948730503883, 33.7776306273659]], [[-84.3948141190523, 33.7775179297439], [-84.3948203424509, 33.7775174638058], [-84.3948263734421, 33.777516101981], [-84.3948320307422, 33.7775138860807], [-84.3948371406949, 33.77751088405], [-84.3948415491388, 33.7775071863391], [-84.3948451214074, 33.7775029059036], [-84.3948477498704, 33.7774981718788], [-84.3948493539311, 33.7774931286781], [-84.3948498843313, 33.7774879305752], [-84.3948493252889, 33.777482733585], [-84.3948476955802, 33.7774776963635], [-84.3948450420399, 33.777472972105], [-84.3948414471094, 33.7774687049213], [-84.394837019103, 33.7774650235483], [-84.394831892205, 33.7774620404443], [-84.3948262242964, 33.7774598463842], [-84.3948201850677, 33.7774585068748], [-84.3948139592639, 33.7774580639521], [-84.3948077358695, 33.7774585298898], [-84.3948017048821, 33.7774598917137], [-84.3947960475848, 33.7774621076126], [-84.3947909376335, 33.7774651096417], [-84.3947865291895, 33.7774688073508], [-84.3947829569194, 33.7774730877846], [-84.3947803284536, 33.7774778218081], [-84.3947787254665, 33.7774828641042], [-84.3947781939847, 33.7774880631105], [-84.3947787530227, 33.7774932601011], [-84.3947803838074, 33.7774982973214], [-84.3947830362629, 33.7775030206816], [-84.3947866311943, 33.7775072887687], [-84.3947910591984, 33.7775109692418], [-84.3947961861003, 33.7775139532491], [-84.3948018540118, 33.7775161473106], [-84.3948078932441, 33.7775174868209], [-84.3948141190523, 33.7775179297439]]]}, "properties": {"OBJECTID_1": 21, "OBJECTID": 24, "NAME": " ", "Shape_Leng": 394.013091248, "CreationDate": 1628109909748, "Creator": "wsims6_GTFacilities", "EditDate": 1628109909748, "Editor": "wsims6_GTFacilities", "Shape__Area": 939.03515625, "Shape__Length": 144.64933449987453, "GlobalID": "b0d409b9-8b20-497e-8c03-26c48977f9d7"}}, {"type": "Feature", "id": 22, "geometry": {"type": "Polygon", "coordinates": [[[-84.3948141190523, 33.7775179297439], [-84.3948078932441, 33.7775174868209], [-84.3948018540118, 33.7775161473106], [-84.3947961861003, 33.7775139532491], [-84.3947910591984, 33.7775109692418], [-84.3947866311943, 33.7775072887687], [-84.3947830362629, 33.7775030206816], [-84.3947803838074, 33.7774982973214], [-84.3947787530227, 33.7774932601011], [-84.3947781939847, 33.7774880631105], [-84.3947787254665, 33.7774828641042], [-84.3947803284536, 33.7774778218081], [-84.3947829569194, 33.7774730877846], [-84.3947865291895, 33.7774688073508], [-84.3947909376335, 33.7774651096417], [-84.3947960475848, 33.7774621076126], [-84.3948017048821, 33.7774598917137], [-84.3948077358695, 33.7774585298898], [-84.3948139592639, 33.7774580639521], [-84.3948201850677, 33.7774585068748], [-84.3948262242964, 33.7774598463842], [-84.394831892205, 33.7774620404443], [-84.394837019103, 33.7774650235483], [-84.3948414471094, 33.7774687049213], [-84.3948450420399, 33.777472972105], [-84.3948476955802, 33.7774776963635], [-84.3948493252889, 33.777482733585], [-84.3948498843313, 33.7774879305752], [-84.3948493539311, 33.7774931286781], [-84.3948477498704, 33.7774981718788], [-84.3948451214074, 33.7775029059036], [-84.3948415491388, 33.7775071863391], [-84.3948371406949, 33.77751088405], [-84.3948320307422, 33.7775138860807], [-84.3948263734421, 33.777516101981], [-84.3948203424509, 33.7775174638058], [-84.3948141190523, 33.7775179297439]]]}, "properties": {"OBJECTID_1": 22, "OBJECTID": 26, "NAME": " ", "Shape_Leng": 68.4352194172, "CreationDate": 1628109909748, "Creator": "wsims6_GTFacilities", "EditDate": 1628109909748, "Editor": "wsims6_GTFacilities", "Shape__Area": 50.00390625, "Shape__Length": 25.097982073747904, "GlobalID": "6e28b7c5-28ba-4d30-a75f-26bf0099b793"}}, {"type": "Feature", "id": 23, "geometry": {"type": "Polygon", "coordinates": [[[-84.3948075238961, 33.7810261048163], [-84.3948133830738, 33.7810531083644], [-84.3948100947952, 33.7811331964241], [-84.3948078755665, 33.7811872500249], [-84.3948008193205, 33.7813591448885], [-84.3938108679704, 33.7813340711853], [-84.3938165993743, 33.7811581709708], [-84.3937521477383, 33.7811561544816], [-84.3937579175028, 33.7810074308727], [-84.3937506416859, 33.7810073126207], [-84.3937522653714, 33.7809540130107], [-84.3937603316393, 33.7809541550543], [-84.393761593584, 33.7809172165767], [-84.3938723425688, 33.7809201207105], [-84.3938724262218, 33.7809129533284], [-84.3939118839341, 33.7809136353557], [-84.3939120776741, 33.7809048150436], [-84.3940259851739, 33.7809077934701], [-84.394025577125, 33.7809237705855], [-84.3941191335787, 33.7809265114157], [-84.3941174472993, 33.7809699335531], [-84.3943719823795, 33.7809766521059], [-84.3943712264329, 33.7810129269412], [-84.3948075925128, 33.7810242914683], [-84.3948075238961, 33.7810261048163]]]}, "properties": {"OBJECTID_1": 23, "OBJECTID": 27, "NAME": "Tennis Center", "Shape_Leng": 957.681465925, "CreationDate": 1628109909748, "Creator": "wsims6_GTFacilities", "EditDate": 1628109909748, "Editor": "wsims6_GTFacilities", "Shape__Area": 5709.4453125, "Shape__Length": 351.4000583429791, "GlobalID": "c2495873-2c37-40bd-b71b-a7856d19cc4e"}}, {"type": "Feature", "id": 24, "geometry": {"type": "Polygon", "coordinates": [[[-84.3944035451133, 33.7809754000747], [-84.3943719823795, 33.7809766521059], [-84.3941174472993, 33.7809699335531], [-84.3941189677704, 33.780930776533], [-84.3941191335787, 33.7809265114157], [-84.3941214183161, 33.7809244469307], [-84.3941320997942, 33.7806390743626], [-84.3938173101358, 33.7806322606626], [-84.3938336885804, 33.780285625718], [-84.3948432501452, 33.7803122273772], [-84.394817130884, 33.7809854766712], [-84.3944035451133, 33.7809754000747]]]}, "properties": {"OBJECTID_1": 24, "OBJECTID": 28, "NAME": "Tennis Courts", "Shape_Leng": 1107.3376372, "CreationDate": 1628109909748, "Creator": "wsims6_GTFacilities", "EditDate": 1628109909748, "Editor": "wsims6_GTFacilities", "Shape__Area": 8643.1328125, "Shape__Length": 406.53027662880413, "GlobalID": "54d147f5-5ec4-497a-a926-aaee36bbaf8d"}}]}