{"type": "FeatureCollection", "features": [{"type": "Feature", "id": 1, "geometry": {"type": "MultiPolygon", "coordinates": [[[[-84.3907433141831, 33.7687925386847], [-84.390713366037, 33.7684703955075], [-84.3918235203373, 33.7684818910768], [-84.391959744439, 33.7688504789224], [-84.3919854944782, 33.7689820786376], [-84.3920019544159, 33.7691144914652], [-84.3920281663211, 33.7700051809203], [-84.3920184992712, 33.7705804881037], [-84.3920181227191, 33.7705974894505], [-84.3920175712588, 33.7706144884117], [-84.3920168427214, 33.7706314813845], [-84.392015741874, 33.7706518372995], [-84.3919817685518, 33.7712127055543], [-84.3916395985517, 33.7712142918105], [-84.3914202046798, 33.7712152983459], [-84.3912440847784, 33.7712161112465], [-84.3908023835674, 33.7712054758242], [-84.3907385036447, 33.7711887507511], [-84.3907468590703, 33.7699847507476], [-84.3907542298736, 33.7689657777736], [-84.3907433141831, 33.7687925386847]]], [[[-84.394604967842, 33.7712463920145], [-84.3946050714215, 33.7712288348474], [-84.3945060132126, 33.7712458047191], [-84.3936174892627, 33.7712405711964], [-84.3934529479298, 33.7712394995367], [-84.3934175723219, 33.7712395645353], [-84.3931048971721, 33.7712202138824], [-84.3929312819276, 33.7712098828759], [-84.3929181171089, 33.7712092199511], [-84.3929057758815, 33.7712088990447], [-84.392892611966, 33.7712085796451], [-84.3928810943299, 33.7712086007562], [-84.3928833739539, 33.7708238425266], [-84.3929401409983, 33.7708244255245], [-84.3931071486855, 33.7708251498151], [-84.3934559752771, 33.7708272575622], [-84.3936205158219, 33.7708283292211], [-84.3936209762164, 33.7706909165324], [-84.3937542536295, 33.770691701969], [-84.3945094944926, 33.7706961500539], [-84.3946075552199, 33.77080666847], [-84.3947468227722, 33.7708074886571], [-84.3948770395346, 33.7708082559955], [-84.3950196302885, 33.7708090967795], [-84.3951650843023, 33.7708099537375], [-84.3952979343599, 33.7708107355929], [-84.3954844575829, 33.7708118343717], [-84.3954838911477, 33.7711060337911], [-84.3954742160556, 33.7711062996825], [-84.3954740104107, 33.771251516593], [-84.3952995633913, 33.7712504937104], [-84.3951664492099, 33.7712497078391], [-84.3950238911922, 33.7712488662642], [-84.3948776461212, 33.7712480042928], [-84.3947385095867, 33.7712471894228], [-84.394604967842, 33.7712463920145]]], [[[-84.4012989246728, 33.7719345748004], [-84.4008619595119, 33.7715426252194], [-84.4006805609057, 33.7713799127088], [-84.4008679588426, 33.7712373648796], [-84.4009056666734, 33.7712540351984], [-84.4009189603984, 33.7712599888235], [-84.4009437930598, 33.7712709688952], [-84.4009935949223, 33.7712927105644], [-84.4010083569411, 33.7712990454958], [-84.4010433272782, 33.7713142927529], [-84.4010688596314, 33.7713248936782], [-84.4010770493994, 33.771328294484], [-84.4011099103698, 33.7713420462807], [-84.4011440809213, 33.7713561778811], [-84.4011796635574, 33.7713706656464], [-84.4011948066835, 33.7713777797605], [-84.4012342872581, 33.7713955772814], [-84.4012741333556, 33.7714127970373], [-84.4013143341643, 33.7714294336386], [-84.4013548756309, 33.7714454808], [-84.4013957469509, 33.7714609358368], [-84.401436934071, 33.7714757924639], [-84.4014376959323, 33.7714760515921], [-84.401438457796, 33.771476311622], [-84.4014392196572, 33.7714765707503], [-84.4014399815209, 33.7714768307802], [-84.4014407433821, 33.7714770899084], [-84.4014415041662, 33.7714773499403], [-84.4014422660274, 33.7714776090686], [-84.4014430278887, 33.7714778681968], [-84.4014437897524, 33.7714781282267], [-84.4014445516137, 33.7714783873549], [-84.401445313475, 33.7714786464831], [-84.4014460753362, 33.7714789056113], [-84.4014468371999, 33.7714791656411], [-84.4014475990612, 33.7714794247693], [-84.4014483609225, 33.7714796838975], [-84.4014491227838, 33.7714799430257], [-84.4014498846451, 33.7714802021539], [-84.4014506465064, 33.7714804612821], [-84.4014514083677, 33.7714807204102], [-84.401452170229, 33.7714809795384], [-84.4014529320903, 33.7714812386665], [-84.4014536950313, 33.7714814977927], [-84.4014544568926, 33.7714817569208], [-84.4014552187539, 33.771482016049], [-84.4014559806153, 33.7714822751771], [-84.4014567424742, 33.7714825334036], [-84.4014575043355, 33.7714827925317], [-84.4014582661968, 33.7714830516599], [-84.4014590291378, 33.771483310786], [-84.4014597909967, 33.7714835690124], [-84.4014605528581, 33.7714838281405], [-84.4014613147195, 33.7714840872686], [-84.401462077658, 33.7714843454931], [-84.4014628395194, 33.7714846046211], [-84.4014636013783, 33.7714848628476], [-84.4014643632397, 33.7714851219757], [-84.4014651261783, 33.7714853802001], [-84.4014658880396, 33.7714856393281], [-84.4014666498986, 33.7714858975546], [-84.4014674128372, 33.771486155779], [-84.4014681746986, 33.771486414907], [-84.4014689365575, 33.7714866731334], [-84.4014696994961, 33.7714869313578], [-84.4014704613575, 33.7714871904858], [-84.4014712232165, 33.7714874487122], [-84.4014719861551, 33.7714877069366], [-84.4014727480141, 33.771487965163], [-84.4014735109527, 33.7714882233873], [-84.4014742728117, 33.7714884816137], [-84.4014750357503, 33.771488739838], [-84.4014757976093, 33.7714889980644], [-84.4014765605479, 33.7714892562887], [-84.401477322407, 33.7714895145151], [-84.4014780853456, 33.7714897727394], [-84.4014788472046, 33.7714900309657], [-84.4014796101433, 33.77149028919], [-84.4014803720023, 33.7714905474164], [-84.401481134941, 33.7714908056407], [-84.4014818967975, 33.7714910629653], [-84.4014826597362, 33.7714913211896], [-84.4014834215952, 33.771491579416], [-84.4014841845339, 33.7714918376402], [-84.4014849474702, 33.7714920949628], [-84.4014857093292, 33.7714923531891], [-84.4014864722655, 33.7714926105117], [-84.4014872352041, 33.771492868736], [-84.4014879970632, 33.7714931269623], [-84.4014887599995, 33.7714933842849], [-84.4014895229382, 33.7714936425091], [-84.4014902847948, 33.7714938998337], [-84.4014910477311, 33.7714941571563], [-84.4014918106698, 33.7714944153806], [-84.4014925736061, 33.7714946727031], [-84.4014933354627, 33.7714949300277], [-84.4014940984015, 33.7714951882519], [-84.4014948613378, 33.7714954455745], [-84.401495624274, 33.771495702897], [-84.4014963861307, 33.7714959602216], [-84.4014971490694, 33.7714962184458], [-84.4014979120058, 33.7714964757684], [-84.4014986749421, 33.7714967330909], [-84.4014994378784, 33.7714969904134], [-84.4015002008147, 33.7714972477359], [-84.4015009637511, 33.7714975050584], [-84.4015017256077, 33.771497762383], [-84.4015024885441, 33.7714980197055], [-84.4015032514804, 33.771498277028], [-84.4015040144168, 33.7714985343505], [-84.4015047773507, 33.7714987907713], [-84.401505540287, 33.7714990480938], [-84.4015063032234, 33.7714993054163], [-84.4015070661597, 33.7714995627388], [-84.4015078290961, 33.7714998200613], [-84.40150859203, 33.7715000764821], [-84.4015093549664, 33.7715003338045], [-84.4015101179028, 33.771500591127], [-84.4015108808367, 33.7715008475478], [-84.4015116437731, 33.7715011048703], [-84.401512406707, 33.7715013612911], [-84.4015131696434, 33.7715016186135], [-84.401513933657, 33.7715018750322], [-84.4015146965934, 33.7715021323547], [-84.4015154595274, 33.7715023887754], [-84.4015162224613, 33.7715026451962], [-84.4015169853978, 33.7715029025186], [-84.4015177483317, 33.7715031589394], [-84.4015185112657, 33.7715034153601], [-84.4015192752818, 33.7715036726805], [-84.4015200382158, 33.7715039291012], [-84.4015208011497, 33.771504185522], [-84.4015215640837, 33.7715044419427], [-84.4015223270177, 33.7715046983635], [-84.4015230910338, 33.7715049556838], [-84.4015238539679, 33.7715052121045], [-84.4015246169018, 33.7715054685252], [-84.4015253809155, 33.7715057249439], [-84.4015261438495, 33.7715059813646], [-84.4015269067835, 33.7715062377853], [-84.4015276697176, 33.771506494206], [-84.4015284337288, 33.771506749723], [-84.4015291966628, 33.7715070061437], [-84.4015299606765, 33.7715072625623], [-84.4015307236105, 33.771507518983], [-84.4015314865446, 33.7715077754037], [-84.4015322505558, 33.7715080309206], [-84.4015330134899, 33.7715082873413], [-84.4015337775036, 33.7715085437599], [-84.4015345404352, 33.7715087992789], [-84.4015353033693, 33.7715090556996], [-84.401536067383, 33.7715093121182], [-84.4015368303146, 33.7715095676372], [-84.4015375943283, 33.7715098240558], [-84.40153835726, 33.7715100795748], [-84.4015391212737, 33.7715103359933], [-84.4015398842053, 33.7715105915123], [-84.4015406482191, 33.7715108479308], [-84.4015414111508, 33.7715111034498], [-84.401542175162, 33.7715113589667], [-84.4015429391758, 33.7715116153853], [-84.4015437021075, 33.7715118709043], [-84.4015444661188, 33.7715121264211], [-84.4015452290505, 33.7715123819401], [-84.4015459930618, 33.771512637457], [-84.4015467570756, 33.7715128938755], [-84.4015475200073, 33.7715131493945], [-84.4015482840186, 33.7715134049113], [-84.4015490480299, 33.7715136604282], [-84.4015498109616, 33.7715139159471], [-84.401550574973, 33.7715141714639], [-84.4015513389843, 33.7715144269808], [-84.401552101916, 33.7715146824997], [-84.4015528659274, 33.7715149380165], [-84.4015536299387, 33.7715151935334], [-84.4015543939476, 33.7715154481486], [-84.401555157959, 33.7715157036654], [-84.4015559208908, 33.7715159591843], [-84.4015566849021, 33.7715162147011], [-84.4015574489111, 33.7715164693163], [-84.4015582129225, 33.7715167248331], [-84.4015589769339, 33.7715169803499], [-84.4015597398632, 33.7715172349671], [-84.4015605038745, 33.7715174904839], [-84.401561267886, 33.7715177460007], [-84.4015620318949, 33.7715180006158], [-84.4015627959063, 33.7715182561326], [-84.4015635599153, 33.7715185107477], [-84.4015643239267, 33.7715187662645], [-84.4015650879357, 33.7715190208796], [-84.4015658519447, 33.7715192754947], [-84.4015666159561, 33.7715195310114], [-84.4015673799651, 33.7715197856266], [-84.4015681439741, 33.7715200402417], [-84.4015689079831, 33.7715202948567], [-84.4015696719946, 33.7715205503735], [-84.4015704360036, 33.7715208049886], [-84.4015712000126, 33.7715210596036], [-84.4015719640216, 33.7715213142187], [-84.4015727280306, 33.7715215688338], [-84.4015734920396, 33.7715218234489], [-84.4015742560487, 33.7715220780639], [-84.4015750200577, 33.771522332679], [-84.4015757840667, 33.771522587294], [-84.4015765480758, 33.7715228419091], [-84.4015773120848, 33.7715230965241], [-84.4015780771735, 33.7715233511371], [-84.4015788411826, 33.7715236057522], [-84.4015796051916, 33.7715238603672], [-84.4015803692007, 33.7715241149822], [-84.4015811332073, 33.7715243686956], [-84.4015818972164, 33.7715246233105], [-84.4015826623051, 33.7715248779235], [-84.4015834263117, 33.7715251316369], [-84.4015841903208, 33.7715253862519], [-84.4015849543298, 33.7715256408669], [-84.4015857194161, 33.7715258945782], [-84.4015864834253, 33.7715261491931], [-84.4015872474319, 33.7715264029065], [-84.4015880125206, 33.7715266575194], [-84.4015887765273, 33.7715269112327], [-84.4015895405364, 33.7715271658477], [-84.4015903056227, 33.7715274195589], [-84.4015910696294, 33.7715276732723], [-84.4015918336385, 33.7715279278872], [-84.4015925987248, 33.7715281815985], [-84.4015933627315, 33.7715284353118], [-84.4015941278178, 33.771528689023], [-84.401594891827, 33.7715289436379], [-84.4015956558337, 33.7715291973512], [-84.40159642092, 33.7715294510624], [-84.4015971849267, 33.7715297047757], [-84.4015979500131, 33.7715299584869], [-84.4015987140198, 33.7715302122001], [-84.4015994791061, 33.7715304659114], [-84.4016002431129, 33.7715307196246], [-84.4016010081992, 33.7715309733358], [-84.401601772206, 33.7715312270491], [-84.4016025372923, 33.7715314807602], [-84.4016033012991, 33.7715317344735], [-84.4016040663855, 33.7715319881847], [-84.4016048314694, 33.7715322409941], [-84.4016055954762, 33.7715324947074], [-84.4016063605626, 33.7715327484185], [-84.4016071245693, 33.7715330021317], [-84.4016078896533, 33.7715332549412], [-84.4016086547397, 33.7715335086524], [-84.401609418744, 33.7715337614639], [-84.4016101838304, 33.7715340151751], [-84.4016109489169, 33.7715342688862], [-84.4016117129212, 33.7715345216977], [-84.4016124780076, 33.7715347754089], [-84.4016132430916, 33.7715350282183], [-84.4016140070959, 33.7715352810298], [-84.4016147721824, 33.7715355347409], [-84.4016155372664, 33.7715357875504], [-84.4016163023528, 33.7715360412615], [-84.4016170674368, 33.7715362940709], [-84.4016178314412, 33.7715365468825], [-84.4016185965252, 33.7715367996919], [-84.4016193616117, 33.771537053403], [-84.4016201266957, 33.7715373062124], [-84.4016208917797, 33.7715375590218], [-84.4016216557841, 33.7715378118333], [-84.4016224208681, 33.7715380646427], [-84.4016231859522, 33.7715383174521], [-84.4016239510362, 33.7715385702615], [-84.4016247161203, 33.7715388230709], [-84.4016254812043, 33.7715390758803], [-84.4016262462884, 33.7715393286897], [-84.4016270113724, 33.771539581499], [-84.4016277764565, 33.7715398343084], [-84.4016285415406, 33.7715400871178], [-84.4016293066222, 33.7715403390255], [-84.4016300717063, 33.7715405918349], [-84.4016308367904, 33.7715408446442], [-84.4016316018745, 33.7715410974536], [-84.4016323669561, 33.7715413493613], [-84.4016331320402, 33.7715416021706], [-84.4016338971243, 33.77154185498], [-84.4016346622059, 33.7715421068876], [-84.40163542729, 33.771542359697], [-84.4016361923717, 33.7715426116047], [-84.4016369574558, 33.771542864414], [-84.4016377225375, 33.7715431163217], [-84.4016384876216, 33.771543369131], [-84.4016392537829, 33.7715436210366], [-84.4016400188646, 33.7715438729442], [-84.4016407839487, 33.7715441257535], [-84.4016415490304, 33.7715443776611], [-84.4016423141121, 33.7715446295688], [-84.4016430791962, 33.7715448823781], [-84.4016438453576, 33.7715451342837], [-84.4016446104393, 33.7715453861913], [-84.401645375521, 33.7715456380989], [-84.4016461406027, 33.7715458900065], [-84.4016469067641, 33.7715461419121], [-84.4016476718458, 33.7715463938197], [-84.4016484369275, 33.7715466457273], [-84.4016492020093, 33.7715468976349], [-84.4016499681706, 33.7715471495404], [-84.4016507332524, 33.771547401448], [-84.4016514983341, 33.7715476533556], [-84.4016522644955, 33.7715479052611], [-84.4016530295772, 33.7715481571687], [-84.4016537957386, 33.7715484090742], [-84.4016545608204, 33.7715486609817], [-84.4016553258997, 33.7715489119877], [-84.4016560920611, 33.7715491638931], [-84.4016568571429, 33.7715494158007], [-84.4016576233019, 33.7715496668045], [-84.4016583883837, 33.7715499187121], [-84.4016591534654, 33.7715501706196], [-84.4016599196244, 33.7715504216235], [-84.4016606847062, 33.771550673531], [-84.4016614508652, 33.7715509245348], [-84.401662215947, 33.7715511764423], [-84.401662982106, 33.7715514274461], [-84.4016637471854, 33.771551678452], [-84.4016645133468, 33.7715519303574], [-84.4016652795058, 33.7715521813612], [-84.4016660445876, 33.7715524332687], [-84.4016668107467, 33.7715526842725], [-84.401667575826, 33.7715529352783], [-84.4016683419851, 33.7715531862821], [-84.4016691081441, 33.7715534372859], [-84.4016698732259, 33.7715536891933], [-84.401670639385, 33.7715539401971], [-84.4016714044644, 33.7715541912029], [-84.4016721706234, 33.7715544422067], [-84.4016729367825, 33.7715546932104], [-84.4016737029415, 33.7715549442141], [-84.4016744680209, 33.7715551952199], [-84.40167523418, 33.7715554462236], [-84.4016760003391, 33.7715556972274], [-84.4016767654185, 33.7715559482331], [-84.4016775315776, 33.7715561992369], [-84.4016782977342, 33.7715564493389], [-84.4016790638933, 33.7715567003426], [-84.4016798300524, 33.7715569513463], [-84.4016805951318, 33.7715572023521], [-84.4016813612885, 33.7715574524541], [-84.4016821274476, 33.7715577034578], [-84.4016828936067, 33.7715579544615], [-84.4016836597633, 33.7715582045635], [-84.4016844259225, 33.7715584555672], [-84.4016851909995, 33.7715587056713], [-84.4016859571586, 33.771558956675], [-84.4016867233153, 33.771559206777], [-84.4016874894744, 33.7715594577806], [-84.4016882556311, 33.7715597078826], [-84.4016890217878, 33.7715599579846], [-84.4016897879469, 33.7715602089883], [-84.4016905541036, 33.7715604590902], [-84.4016913202603, 33.7715607091922], [-84.4016920864195, 33.7715609601959], [-84.4016928525762, 33.7715612102978], [-84.4016936187329, 33.7715614603998], [-84.4016943848896, 33.7715617105018], [-84.4016951510463, 33.7715619606037], [-84.4016959172055, 33.7715622116073], [-84.4016966833623, 33.7715624617093], [-84.401697449519, 33.7715627118112], [-84.4016982156757, 33.7715629619131], [-84.4016989818325, 33.7715632120151], [-84.4016997479892, 33.771563462117], [-84.401700514146, 33.7715637122189], [-84.4017012813799, 33.7715639614172], [-84.4017020475366, 33.7715642115191], [-84.4017028136934, 33.771564461621], [-84.4017035798502, 33.7715647117229], [-84.401704346007, 33.7715649618248], [-84.4017051121613, 33.771565211025], [-84.4017058793977, 33.7715654611249], [-84.4017066455545, 33.7715657112268], [-84.4017074117088, 33.771565960427], [-84.4017081778656, 33.7715662105289], [-84.4017089451021, 33.7715664606287], [-84.4017097112564, 33.7715667098289], [-84.4017104774132, 33.7715669599308], [-84.4017112435676, 33.771567209131], [-84.401712010804, 33.7715674592308], [-84.4017127769584, 33.771567708431], [-84.4017135431128, 33.7715679576312], [-84.4017143103492, 33.7715682077309], [-84.4017150765036, 33.7715684569311], [-84.401715842658, 33.7715687061313], [-84.4017166098945, 33.7715689562311], [-84.4017173760489, 33.7715692054313], [-84.4017181432829, 33.7715694546294], [-84.4017189094373, 33.7715697038295], [-84.4017196755917, 33.7715699530297], [-84.4017204428257, 33.7715702022278], [-84.4017212089826, 33.7715704523296], [-84.4017219762167, 33.7715707015277], [-84.4017227423711, 33.7715709507278], [-84.4017235096051, 33.7715711999259], [-84.4017242757596, 33.771571449126], [-84.4017250429912, 33.7715716974224], [-84.4017258091456, 33.7715719466226], [-84.4017265763797, 33.7715721958206], [-84.4017273425341, 33.7715724450208], [-84.4017281097682, 33.7715726942188], [-84.4017288770023, 33.7715729434168], [-84.4017296431544, 33.7715731917153], [-84.4017304103884, 33.7715734409133], [-84.4017311765429, 33.7715736901134], [-84.4017319437745, 33.7715739384098], [-84.4017327110087, 33.7715741876078], [-84.4017334771632, 33.7715744368079], [-84.4017342443948, 33.7715746851042], [-84.401735011629, 33.7715749343022], [-84.401735777781, 33.7715751826006], [-84.4017365450152, 33.7715754317986], [-84.4017373122468, 33.771575680095], [-84.4017380783989, 33.7715759283934], [-84.401738845633, 33.7715761775914], [-84.4017396128647, 33.7715764258877], [-84.4017403800964, 33.771576674184], [-84.401741146251, 33.771576923384], [-84.4017419134827, 33.7715771716803], [-84.4017426807144, 33.7715774199767], [-84.4017434479461, 33.771577668273], [-84.4017442140982, 33.7715779165713], [-84.4017449813324, 33.7715781657693], [-84.4017457485641, 33.7715784140656], [-84.4017465157958, 33.7715786623618], [-84.4017472830276, 33.7715789106581], [-84.4017480502593, 33.7715791589544], [-84.4017488174911, 33.7715794072507], [-84.4017495847228, 33.771579655547], [-84.4017503508725, 33.7715799029436], [-84.4017511181043, 33.7715801512399], [-84.401751885336, 33.7715803995361], [-84.4017526525678, 33.7715806478324], [-84.4017534197996, 33.7715808961286], [-84.4017541870289, 33.7715811435232], [-84.4017549542607, 33.7715813918194], [-84.4017557214924, 33.7715816401157], [-84.4017564887218, 33.7715818875103], [-84.4017572559536, 33.7715821358065], [-84.4017580231854, 33.7715823841027], [-84.4017587904147, 33.7715826314972], [-84.4017595576466, 33.7715828797934], [-84.4017603248759, 33.771583127188], [-84.4017610921077, 33.7715833754842], [-84.4017618604168, 33.7715836228767], [-84.4017626276486, 33.7715838711729], [-84.4017633948779, 33.7715841185674], [-84.4017641621073, 33.7715843659619], [-84.4017647553608, 33.7715845577854], [-84.4017649293392, 33.7715846142581], [-84.4017656965685, 33.7715848616526], [-84.401766463798, 33.7715851090472], [-84.401767232107, 33.7715853564396], [-84.4017679993364, 33.7715856038341], [-84.4017687665683, 33.7715858521303], [-84.4017695337977, 33.7715860995247], [-84.4017703010271, 33.7715863469192], [-84.4017710693361, 33.7715865943117], [-84.4017718365656, 33.7715868417062], [-84.401772603795, 33.7715870891006], [-84.4017733710244, 33.7715873364951], [-84.4017741393335, 33.7715875838875], [-84.4017749065629, 33.771587831282], [-84.4017756737924, 33.7715880786764], [-84.401776442099, 33.7715883251672], [-84.4017772093285, 33.7715885725616], [-84.4017779765579, 33.7715888199561], [-84.401778744867, 33.7715890673484], [-84.401779512094, 33.7715893138412], [-84.4017802793235, 33.7715895612356], [-84.4017810476326, 33.771589808628], [-84.4017818148596, 33.7715900551208], [-84.4017825831688, 33.7715903025131], [-84.4017833503982, 33.7715905499075], [-84.4017841187049, 33.7715907963983], [-84.4017848859344, 33.7715910437927], [-84.4017856531614, 33.7715912902854], [-84.4017864214681, 33.7715915367761], [-84.4017871886977, 33.7715917841705], [-84.4017879570043, 33.7715920306611], [-84.4017887242339, 33.7715922780555], [-84.4017894925405, 33.7715925245462], [-84.4017902608473, 33.7715927710369], [-84.4017910280743, 33.7715930175296], [-84.4017917963835, 33.7715932649219], [-84.4017925636106, 33.7715935114146], [-84.4017933319173, 33.7715937579052], [-84.4017940991444, 33.7715940043979], [-84.4017948674511, 33.7715942508885], [-84.4017956357579, 33.7715944973792], [-84.401796402985, 33.7715947438718], [-84.4017971712917, 33.7715949903625], [-84.4017979395985, 33.771595236853], [-84.4017987068256, 33.7715954833457], [-84.4017994751324, 33.7715957298363], [-84.4018002434391, 33.7715959763269], [-84.4018010106663, 33.7715962228196], [-84.401801778973, 33.7715964693102], [-84.4018025472774, 33.7715967148991], [-84.4018033155841, 33.7715969613897], [-84.4018040828113, 33.7715972078823], [-84.4018048511181, 33.7715974543729], [-84.4018056194224, 33.7715976999618], [-84.4018063877292, 33.7715979464524], [-84.4018071549539, 33.7715981920433], [-84.4018079232607, 33.7715984385339], [-84.4018086915651, 33.7715986841228], [-84.4018094598719, 33.7715989306133], [-84.4018102281763, 33.7715991762022], [-84.4018109964831, 33.7715994226928], [-84.4018117647875, 33.7715996682816], [-84.4018125330918, 33.7715999138705], [-84.4018133013962, 33.7716001594593], [-84.401814069703, 33.7716004059499], [-84.4018148380074, 33.7716006515388], [-84.4018156063118, 33.7716008971276], [-84.4018163746162, 33.7716011427164], [-84.4018171429206, 33.7716013883053], [-84.401817911225, 33.7716016338941], [-84.401818679527, 33.7716018785813], [-84.4018194478314, 33.7716021241702], [-84.4018202161358, 33.771602369759], [-84.4018209844402, 33.7716026153478], [-84.4018217527422, 33.771602860035], [-84.4018225221263, 33.7716031056217], [-84.4018232904282, 33.7716033503089], [-84.4018240587327, 33.7716035958977], [-84.4018248270347, 33.7716038405848], [-84.4018255964187, 33.7716040861715], [-84.4018263647207, 33.7716043308587], [-84.4018271330227, 33.7716045755458], [-84.4018279024069, 33.7716048211325], [-84.4018286707089, 33.7716050658197], [-84.4018294390109, 33.7716053105068], [-84.4018302083925, 33.7716055551919], [-84.4018309766945, 33.771605799879], [-84.4018317449966, 33.7716060445661], [-84.4018325143782, 33.7716062892511], [-84.4018332826802, 33.7716065339382], [-84.4018340520595, 33.7716067777216], [-84.4018348203615, 33.7716070224087], [-84.4018355897432, 33.7716072670937], [-84.4018363591249, 33.7716075117787], [-84.4018371274245, 33.7716077555642], [-84.4018378968062, 33.7716080002492], [-84.4018386651058, 33.7716082440346], [-84.4018394344875, 33.7716084887196], [-84.4018402038667, 33.7716087325029], [-84.4018409721664, 33.7716089762884], [-84.4018417415481, 33.7716092209733], [-84.4018425109273, 33.7716094647567], [-84.4018432792269, 33.771609708542], [-84.4018440486062, 33.7716099523254], [-84.4018448179855, 33.7716101961087], [-84.4018455873648, 33.771610439892], [-84.4018463556644, 33.7716106836774], [-84.4018471250437, 33.7716109274607], [-84.401847894423, 33.771611171244], [-84.4018486638023, 33.7716114150273], [-84.4018494331816, 33.7716116588106], [-84.4018502025609, 33.7716119025938], [-84.4018509719378, 33.7716121454755], [-84.4018517413171, 33.7716123892588], [-84.401852510694, 33.7716126321404], [-84.4018532800733, 33.7716128759237], [-84.4018540494501, 33.7716131188053], [-84.4018548188295, 33.7716133625885], [-84.4018555882063, 33.7716136054701], [-84.4018563575832, 33.7716138483517], [-84.4018571269626, 33.771614092135], [-84.4018578963395, 33.7716143350166], [-84.4018586657163, 33.7716145778981], [-84.4018594350933, 33.7716148207797], [-84.4018602044702, 33.7716150636613], [-84.4018609749267, 33.7716153065408], [-84.4018617443036, 33.7716155494224], [-84.4018625136805, 33.7716157923039], [-84.4018632830575, 33.7716160351855], [-84.4018640535141, 33.771616278065], [-84.4018648228885, 33.7716165200449], [-84.4018655922654, 33.7716167629264], [-84.4018663616423, 33.771617005808], [-84.4018671320965, 33.7716172477858], [-84.4018679014734, 33.7716174906673], [-84.4018686708479, 33.7716177326472], [-84.4018694413045, 33.7716179755267], [-84.401870210679, 33.7716182175065], [-84.4018709811356, 33.771618460386], [-84.4018717505101, 33.7716187023658], [-84.4018725209642, 33.7716189443436], [-84.4018732903388, 33.7716191863234], [-84.4018740607929, 33.7716194283013], [-84.4018748301674, 33.7716196702811], [-84.4018756006216, 33.7716199122589], [-84.4018763699962, 33.7716201542387], [-84.4018771404503, 33.7716203962165], [-84.4018779109045, 33.7716206381942], [-84.4018786802791, 33.771620880174], [-84.4018794507332, 33.7716211221518], [-84.4018802211875, 33.7716213641295], [-84.4018809905595, 33.7716216052077], [-84.4018817610138, 33.7716218471854], [-84.4018825314655, 33.7716220882615], [-84.4018833008401, 33.7716223302413], [-84.4018840712918, 33.7716225713174], [-84.401884841746, 33.7716228132951], [-84.4018856121978, 33.7716230543711], [-84.4018863826496, 33.7716232954472], [-84.4018871520241, 33.7716235374269], [-84.4018879224759, 33.771623778503], [-84.4018886929277, 33.7716240195791], [-84.4018894633795, 33.7716242606551], [-84.4018902338313, 33.7716245017311], [-84.4018910042831, 33.7716247428071], [-84.4018917747349, 33.7716249838832], [-84.4018925451867, 33.7716252249592], [-84.4018933156385, 33.7716254660352], [-84.4018940860878, 33.7716257062095], [-84.4018948565397, 33.7716259472856], [-84.4018956269915, 33.7716261883616], [-84.4018963974433, 33.7716264294376], [-84.4018971678927, 33.7716266696119], [-84.4018979383445, 33.7716269106879], [-84.4018987098735, 33.7716271508602], [-84.4018994803229, 33.7716273910345], [-84.4019002507747, 33.7716276321105], [-84.4019010212241, 33.7716278722848], [-84.4019017916735, 33.7716281124591], [-84.401902563205, 33.771628353533], [-84.4019033336544, 33.7716285937073], [-84.4019041041038, 33.7716288338816], [-84.4019048745532, 33.7716290740559], [-84.4019056460823, 33.7716293142281], [-84.4019064165317, 33.7716295544024], [-84.4019071869811, 33.7716297945767], [-84.4019079585102, 33.7716300347489], [-84.4019087289572, 33.7716302740215], [-84.4019095004862, 33.7716305141938], [-84.4019102709357, 33.771630754368], [-84.4019110413851, 33.7716309945423], [-84.4019118129117, 33.7716312338128], [-84.4019125833612, 33.7716314739871], [-84.4019133548878, 33.7716317132576], [-84.4019141253373, 33.7716319534318], [-84.4019148968639, 33.7716321927024], [-84.4019156683906, 33.7716324319729], [-84.40191643884, 33.7716326721471], [-84.4019172103667, 33.7716329114176], [-84.4019179808137, 33.7716331506902], [-84.4019187523404, 33.7716333899607], [-84.4019195238671, 33.7716336292312], [-84.4019202943141, 33.7716338685037], [-84.4019210658408, 33.7716341077742], [-84.4019218373674, 33.7716343470447], [-84.4019226088941, 33.7716345863152], [-84.4019233793412, 33.7716348255877], [-84.4019241508679, 33.7716350648582], [-84.4019249223921, 33.771635303227], [-84.4019256939188, 33.7716355424974], [-84.4019264654455, 33.7716357817679], [-84.4019272358901, 33.7716360201388], [-84.4019280074169, 33.7716362594092], [-84.4019287789411, 33.771636497778], [-84.4019295504654, 33.7716367361468], [-84.4019303219921, 33.7716369754172], [-84.4019310935164, 33.771637213786], [-84.4019318650407, 33.7716374521548], [-84.4019326365674, 33.7716376914252], [-84.4019334080917, 33.771637929794], [-84.4019341796159, 33.7716381681627], [-84.4019349511403, 33.7716384065315], [-84.4019357226646, 33.7716386449002], [-84.4019364941889, 33.771638883269], [-84.4019372657132, 33.7716391216377], [-84.401938037235, 33.7716393591048], [-84.401938809839, 33.7716395974715], [-84.4019395813633, 33.7716398358402], [-84.4019403528876, 33.7716400742089], [-84.4019411244095, 33.771640311676], [-84.4019418959338, 33.7716405500447], [-84.4019426685353, 33.7716407875097], [-84.4019434400597, 33.7716410258784], [-84.4019442115815, 33.7716412633455], [-84.4019449841855, 33.7716415017121], [-84.4019457557074, 33.7716417391791], [-84.4019465272293, 33.7716419766461], [-84.4019472998309, 33.7716422141111], [-84.4019480713527, 33.7716424515781], [-84.4019488428771, 33.7716426899468], [-84.4019496154787, 33.7716429274117], [-84.4019503870006, 33.7716431648788], [-84.4019511596021, 33.7716434023437], [-84.4019519311216, 33.7716436389091], [-84.4019527037232, 33.771643876374], [-84.4019534752451, 33.771644113841], [-84.4019542478467, 33.7716443513059], [-84.4019550193686, 33.7716445887729], [-84.4019557919678, 33.7716448253362], [-84.4019565634897, 33.7716450628031], [-84.4019573360889, 33.7716452993664], [-84.4019581086905, 33.7716455368313], [-84.40195888021, 33.7716457733966], [-84.4019596528115, 33.7716460108615], [-84.4019604254107, 33.7716462474247], [-84.4019611969302, 33.77164648399], [-84.4019619695294, 33.7716467205533], [-84.401962742131, 33.7716469580181], [-84.4019635147302, 33.7716471945813], [-84.4019642862497, 33.7716474311466], [-84.4019650588489, 33.7716476677098], [-84.4019658314481, 33.771647904273], [-84.4019666040472, 33.7716481408362], [-84.4019673766464, 33.7716483773994], [-84.4019681492431, 33.771648613061], [-84.4019689207627, 33.7716488496262], [-84.4019696933619, 33.7716490861894], [-84.4019704659586, 33.7716493218509], [-84.4019712385579, 33.7716495584141], [-84.4019720111571, 33.7716497949773], [-84.4019727837538, 33.7716500306388], [-84.401973556353, 33.7716502672019], [-84.4019743289498, 33.7716505028634], [-84.4019751015466, 33.7716507385249], [-84.4019758741458, 33.7716509750881], [-84.4019766467426, 33.7716512107496], [-84.401977420419, 33.771651446409], [-84.4019781930158, 33.7716516820705], [-84.4019789656126, 33.771651917732], [-84.4019797382094, 33.7716521533934], [-84.4019805108062, 33.7716523890549], [-84.401981283403, 33.7716526247164], [-84.4019820570794, 33.7716528603758], [-84.4019828296762, 33.7716530960372], [-84.401983602273, 33.7716533316986], [-84.4019843748674, 33.7716535664584], [-84.4019851485439, 33.7716538021178], [-84.4019859211407, 33.7716540377792], [-84.4019866937351, 33.771654272539], [-84.4019874674115, 33.7716545081984], [-84.4019882400059, 33.7716547429582], [-84.4019890126028, 33.7716549786196], [-84.4019897862768, 33.7716552133773], [-84.4019905588712, 33.771655448137], [-84.4019913325452, 33.7716556828948], [-84.4019921051421, 33.7716559185561], [-84.4019928788161, 33.7716561533138], [-84.4019936514105, 33.7716563880736], [-84.4019944250846, 33.7716566228312], [-84.401995197679, 33.7716568575909], [-84.401995971353, 33.7716570923486], [-84.4019967439475, 33.7716573271083], [-84.4019975176215, 33.771657561866], [-84.4019982912932, 33.771657795722], [-84.4019990638876, 33.7716580304817], [-84.4019998375617, 33.7716582652393], [-84.4020006112333, 33.7716584990953], [-84.4020013838278, 33.771658733855], [-84.4020021575018, 33.7716589686126], [-84.4020029311735, 33.7716592024686], [-84.4020037048451, 33.7716594363245], [-84.4020044774395, 33.7716596710842], [-84.4020052511112, 33.7716599049402], [-84.4020060247829, 33.7716601387961], [-84.402006798457, 33.7716603735537], [-84.4020075721287, 33.7716606074097], [-84.4020083447207, 33.7716608412677], [-84.4020091183924, 33.7716610751236], [-84.402009892064, 33.7716613089795], [-84.4020106657357, 33.7716615428354], [-84.4020114394074, 33.7716617766914], [-84.4020122130791, 33.7716620105473], [-84.4020129867483, 33.7716622435015], [-84.40201376042, 33.7716624773574], [-84.4020145340917, 33.7716627112133], [-84.4020153077634, 33.7716629450692], [-84.4020160814326, 33.7716631780235], [-84.4020168551043, 33.7716634118794], [-84.4020176287736, 33.7716636448336], [-84.4020184024453, 33.7716638786894], [-84.4020191771942, 33.7716641116416], [-84.4020199508635, 33.7716643445959], [-84.4020207245352, 33.7716645784517], [-84.4020214982045, 33.7716648114059], [-84.4020222718737, 33.7716650443601], [-84.4020230466227, 33.7716652773122], [-84.402023820292, 33.7716655102664], [-84.4020245939613, 33.7716657432206], [-84.4020253676306, 33.7716659761748], [-84.4020261423795, 33.7716662091269], [-84.4020269160488, 33.7716664420811], [-84.4020276897181, 33.7716666750353], [-84.4020284644671, 33.7716669079874], [-84.4020292381339, 33.7716671400399], [-84.4020300118032, 33.771667372994], [-84.4020307865522, 33.7716676059461], [-84.402031560219, 33.7716678379986], [-84.402032334968, 33.7716680709507], [-84.4020331086349, 33.7716683030032], [-84.4020338833814, 33.7716685350536], [-84.4020346570507, 33.7716687680077], [-84.4020354317973, 33.7716690000581], [-84.4020362054642, 33.7716692321106], [-84.4020369802132, 33.7716694650627], [-84.40203775388, 33.7716696971151], [-84.4020385286266, 33.7716699291655], [-84.4020393033731, 33.7716701612159], [-84.4020400770401, 33.7716703932683], [-84.4020408517866, 33.7716706253187], [-84.4020416265332, 33.7716708573691], [-84.4020424001976, 33.7716710885199], [-84.4020431749442, 33.7716713205702], [-84.4020439496908, 33.7716715526206], [-84.4020447244374, 33.7716717846709], [-84.4020454981018, 33.7716720158217], [-84.4020462728484, 33.7716722478721], [-84.4020470475925, 33.7716724790208], [-84.4020478223391, 33.7716727110711], [-84.4020485970833, 33.7716729422198], [-84.4020493718274, 33.7716731733684], [-84.4020501454944, 33.7716734054208], [-84.4020509202385, 33.7716736365695], [-84.4020516949827, 33.7716738677181], [-84.4020524697268, 33.7716740988668], [-84.402053244471, 33.7716743300155], [-84.4020540192151, 33.7716745611641], [-84.4020547939593, 33.7716747923127], [-84.4020555687035, 33.7716750234614], [-84.4020563434476, 33.77167525461], [-84.4020571181918, 33.7716754857586], [-84.402057892936, 33.7716757169073], [-84.4020586676802, 33.7716759480559], [-84.4020594424219, 33.7716761783029], [-84.4020602182458, 33.7716764094494], [-84.40206099299, 33.771676640598], [-84.4020617677317, 33.7716768708449], [-84.4020625424759, 33.7716771019936], [-84.4020633172177, 33.7716773322405], [-84.4020640930391, 33.7716775624854], [-84.4020648677833, 33.771677793634], [-84.402065642525, 33.7716780238809], [-84.4020664172668, 33.7716782541278], [-84.4020671930882, 33.7716784843727], [-84.40206796783, 33.7716787146196], [-84.4020687425718, 33.7716789448665], [-84.4020695183932, 33.7716791751113], [-84.402070293135, 33.7716794053582], [-84.4020710678768, 33.7716796356051], [-84.4020718436982, 33.7716798658499], [-84.40207261844, 33.7716800960968], [-84.4020733942614, 33.7716803263416], [-84.4020741690008, 33.7716805556869], [-84.4020749448222, 33.7716807859317], [-84.4020757195641, 33.7716810161785], [-84.4020764953831, 33.7716812455217], [-84.4020772701249, 33.7716814757685], [-84.4020780459439, 33.7716817051117], [-84.4020788206833, 33.7716819344569], [-84.4020795965047, 33.7716821647017], [-84.4020803723238, 33.7716823940448], [-84.4020811470631, 33.77168262339], [-84.4020819228822, 33.7716828527331], [-84.402082697624, 33.7716830829799], [-84.402083473443, 33.771683312323], [-84.4020842492621, 33.7716835416661], [-84.4020850250811, 33.7716837710092], [-84.4020857998205, 33.7716840003544], [-84.4020865756371, 33.7716842287958], [-84.4020873514562, 33.7716844581389], [-84.4020881272752, 33.771684687482], [-84.4020889020147, 33.7716849168271], [-84.4020896778313, 33.7716851452685], [-84.4020904536503, 33.7716853746116], [-84.4020912294669, 33.771685603053], [-84.402092005286, 33.771685832396], [-84.4020927811026, 33.7716860608375], [-84.4020935569217, 33.7716862901805], [-84.4020943327383, 33.7716865186219], [-84.402095108555, 33.7716867470633], [-84.4020958843741, 33.7716869764063], [-84.4020962074505, 33.7716870713651], [-84.4020404347878, 33.772012853595], [-84.4018423046422, 33.7719678547505], [-84.401699526424, 33.7719354535663], [-84.4016059765394, 33.7719141949041], [-84.401409459399, 33.7720337212672], [-84.4012989246728, 33.7719345748004]]], [[[-84.4075078286463, 33.7729951071803], [-84.4074921953383, 33.7729944506283], [-84.4074749185437, 33.7729944843398], [-84.4073120297735, 33.7729972067645], [-84.4070778077766, 33.7727925762166], [-84.4069570266777, 33.7725540576187], [-84.4069249452005, 33.7725554941941], [-84.4069251734149, 33.7726372537418], [-84.4068880828352, 33.7726125918262], [-84.4068873358743, 33.7726397321009], [-84.4068304439303, 33.7725948404747], [-84.4067735549205, 33.7725509794044], [-84.4067150223632, 33.7725081520922], [-84.4066556692022, 33.772465669877], [-84.4065954972309, 33.7724245633421], [-84.4065353262743, 33.7723838003049], [-84.4064735138062, 33.7723444145451], [-84.4064108806103, 33.7723057174071], [-84.4063474266836, 33.7722677079879], [-84.406283152987, 33.7722307316172], [-84.4062188822138, 33.7721947857952], [-84.4061529669327, 33.7721595301893], [-84.4060870556518, 33.7721253051284], [-84.406020324593, 33.7720921122101], [-84.4059527737547, 33.772059951433], [-84.4058844021809, 33.7720284792684], [-84.4058160335202, 33.7719980376481], [-84.4057460233347, 33.7719689732874], [-84.4056760151041, 33.7719405959417], [-84.405606007747, 33.7719129056133], [-84.4055343599396, 33.7718865925376], [-84.4054627150348, 33.7718613100028], [-84.4053910730301, 33.7718370580089], [-84.4053416675967, 33.7718213503068], [-84.4053177875813, 33.7718134953083], [-84.4052453286766, 33.7717913059857], [-84.4051712272787, 33.7717701503828], [-84.405097127692, 33.77175002532], [-84.4050230320732, 33.7717309307933], [-84.4049481166475, 33.7717128683931], [-84.4048732041049, 33.7716958365301], [-84.4047974717508, 33.7716798367916], [-84.4047291503027, 33.771666227418], [-84.4047217432247, 33.771665211117], [-84.403625780278, 33.7714845300563], [-84.4036619312858, 33.7714970594281], [-84.4032934443156, 33.7714614632445], [-84.4030674299232, 33.7714543333086], [-84.4028165226135, 33.7714194688843], [-84.4027786722898, 33.7714171365949], [-84.4027399973941, 33.7714141188121], [-84.402701320617, 33.7714104139619], [-84.4026626419595, 33.7714060220441], [-84.4026247850538, 33.7714012850137], [-84.4025869272107, 33.7713962044439], [-84.4025482438583, 33.7713900948518], [-84.4025103822596, 33.7713836401478], [-84.4024733424123, 33.7713768394309], [-84.4024354780021, 33.7713693541208], [-84.4023976106373, 33.7713611817456], [-84.4023605661077, 33.771352664258], [-84.4023251948115, 33.7713704844319], [-84.4015749086275, 33.7711606522311], [-84.4010854967302, 33.7709513264785], [-84.4006112195279, 33.7706538272569], [-84.4009269340254, 33.7705035974013], [-84.4013058174294, 33.7703618358014], [-84.4016508665757, 33.7702744872631], [-84.4020383052221, 33.7702350888526], [-84.4020786061324, 33.7702312331645], [-84.4021172626219, 33.77022772413], [-84.4021616787963, 33.7702245476232], [-84.4021962247075, 33.7702220769958], [-84.4022332395916, 33.7702199451759], [-84.4022554490852, 33.7702188721953], [-84.4022686109976, 33.7702185035413], [-84.4023747289708, 33.7702155526878], [-84.4026099990792, 33.7702089196158], [-84.4032979811424, 33.7701760545736], [-84.4037333562213, 33.7701757501489], [-84.4037386295392, 33.770175495672], [-84.4037534367932, 33.7701751236993], [-84.4037690676711, 33.7701750936721], [-84.4037756490933, 33.7701750810284], [-84.4037838758711, 33.7701750652234], [-84.403799506749, 33.7701750351923], [-84.4038143168417, 33.7701756937954], [-84.4038291269347, 33.7701763523968], [-84.4038447597057, 33.7701770094154], [-84.4038595716923, 33.7701783550685], [-84.4038743836793, 33.7701797007199], [-84.4038891956667, 33.7701810463694], [-84.4039040086014, 33.770182735545], [-84.4039196451613, 33.770184766665], [-84.4039344599909, 33.7701871428923], [-84.4039492748213, 33.7701895191178], [-84.4039640905995, 33.7701922388693], [-84.4039789063786, 33.770194958619], [-84.4039929004278, 33.7701980234765], [-84.404007717156, 33.7702010867504], [-84.4040225357796, 33.7702048370779], [-84.4040365318588, 33.7702082454561], [-84.4040513514322, 33.7702123393079], [-84.4040653483289, 33.7702164347404], [-84.4040793452269, 33.7702205301712], [-84.4040933430737, 33.7702249691282], [-84.4041073418695, 33.7702297516112], [-84.4041213416145, 33.7702348776204], [-84.4041353413611, 33.770240003628], [-84.4041493411094, 33.770245129634], [-84.4041625191286, 33.7702506007491], [-84.4041765207759, 33.7702564138075], [-84.4041896997465, 33.7702622284474], [-84.4042028796667, 33.7702683866136], [-84.4042160595889, 33.7702745447784], [-84.404229240461, 33.7702810464695], [-84.4047129737977, 33.7705765813018], [-84.4048293503784, 33.7707041795177], [-84.4058575505689, 33.7712473435578], [-84.4069189159146, 33.7718691332898], [-84.4076226552867, 33.7722813716472], [-84.4076225971088, 33.7725544776187], [-84.4076228923413, 33.7726599405591], [-84.4076255263602, 33.7730130844979], [-84.4075827207174, 33.7730042363015], [-84.4075720197889, 33.7730021960138], [-84.4075613198222, 33.7730004992527], [-84.4075481517424, 33.7729988073079], [-84.4075341609585, 33.7729971169673], [-84.4075201711364, 33.7729957701526], [-84.4075078286463, 33.7729951071803]]], [[[-84.4005672515282, 33.7728312942461], [-84.4005758641993, 33.7728245966814], [-84.4005845883537, 33.7728180016931], [-84.4005934250735, 33.7728115101808], [-84.4006091483298, 33.7728004035823], [-84.4006182795107, 33.7727942045469], [-84.4006275157116, 33.77278811351], [-84.4006368536986, 33.772782132281], [-84.4006462913146, 33.7727762617657], [-84.4006558274851, 33.7727705037693], [-84.4006654611302, 33.7727648582938], [-84.4006751890185, 33.7727593280503], [-84.4006850089906, 33.7727539130429], [-84.4006949199694, 33.7727486141753], [-84.40070492088, 33.7727434332527], [-84.4007150074039, 33.7727383702834], [-84.4007251784688, 33.7727334279744], [-84.4007354329926, 33.7727286054259], [-84.4007457677437, 33.7727239053491], [-84.4007640411369, 33.7727159740208], [-84.4014618556956, 33.7724221714393], [-84.4014723296827, 33.7724174845615], [-84.4014826811607, 33.7724126121756], [-84.4014929068953, 33.772407556091], [-84.4015046682236, 33.7724014277243], [-84.4015146013828, 33.7723959817793], [-84.4015243937006, 33.772390358476], [-84.4015340387138, 33.7723845632367], [-84.4015451013343, 33.7723775850362], [-84.4015744105303, 33.7723983997943], [-84.4016003454673, 33.7724163266654], [-84.4016303082456, 33.7724364819598], [-84.4016606026299, 33.7724562912828], [-84.4022403738785, 33.7728268307343], [-84.4022403704681, 33.7728255846578], [-84.4022670175326, 33.772841275734], [-84.4022871752825, 33.772852835201], [-84.4023074793859, 33.7728642167599], [-84.4023347742497, 33.772879109524], [-84.4023623197957, 33.7728936772086], [-84.4023831392455, 33.772904388745], [-84.4024040931522, 33.7729149151823], [-84.4024322454095, 33.7729286629923], [-84.4024535004263, 33.7729387479381], [-84.4024748877404, 33.7729486477888], [-84.402496400859, 33.7729583571467], [-84.4025180354607, 33.7729678751186], [-84.402539790461, 33.7729771999029], [-84.4025616626205, 33.772986331506], [-84.4025836497775, 33.7729952690302], [-84.4026057497651, 33.7730040097746], [-84.4026353962681, 33.7730153653036], [-84.4030790320458, 33.7731820495264], [-84.4030295145255, 33.7732923568912], [-84.4030318256239, 33.7732988641951], [-84.4029824070438, 33.7734236257311], [-84.4029528247069, 33.7735234158898], [-84.4028734481239, 33.7736108351136], [-84.4028387411468, 33.7736566125796], [-84.4026992974995, 33.7736153240147], [-84.402686844863, 33.773600105405], [-84.402208298202, 33.7734313368822], [-84.4016967364292, 33.7732825324373], [-84.4004765750636, 33.7730751582604], [-84.4003972830014, 33.773017151898], [-84.4003973517229, 33.7730170129135], [-84.400400731498, 33.7730108004419], [-84.4004043468918, 33.7730046803941], [-84.4004077559812, 33.7729993235345], [-84.4004132074384, 33.7729914453943], [-84.4004190546005, 33.7729837684743], [-84.4004560360068, 33.7729390450108], [-84.4004680233831, 33.7729250593191], [-84.4004750576253, 33.7729171808826], [-84.400482223813, 33.7729093860492], [-84.4004895230308, 33.7729016766204], [-84.4004969509649, 33.7728940544075], [-84.4005045076152, 33.7728865194106], [-84.4005121908324, 33.7728790752402], [-84.4005259369384, 33.7728662691778], [-84.4005339609416, 33.7728590804295], [-84.4005421061255, 33.7728519870261], [-84.4005503714153, 33.772844990773], [-84.4005587535745, 33.7728380925779], [-84.4005672515282, 33.7728312942461]]], [[[-84.4014543370295, 33.773668211077], [-84.4010218627029, 33.7736023243523], [-84.4010155851551, 33.7736034047302], [-84.4010091563003, 33.7736040327658], [-84.4010026862185, 33.7736041911187], [-84.4009962234952, 33.7736038796967], [-84.4009898188824, 33.7736031011083], [-84.4009860230171, 33.77360241224], [-84.4009810381813, 33.7736012369336], [-84.3982997145333, 33.7731729654774], [-84.3982844821839, 33.7731704387834], [-84.3982616763968, 33.7731664809514], [-84.3982465006679, 33.7731637296351], [-84.398223781435, 33.7731594362191], [-84.3982086655684, 33.7731564611761], [-84.3981860415299, 33.7731518330616], [-84.3981634763347, 33.7731470037642], [-84.398140974309, 33.7731419759807], [-84.3981185376097, 33.7731367488055], [-84.3980961683989, 33.7731313231362], [-84.3980738688407, 33.7731257007721], [-84.3980516421696, 33.7731198799038], [-84.3980294905521, 33.7731138632323], [-84.3980147657056, 33.7731097441377], [-84.3979927449355, 33.7731034008163], [-84.3979708057047, 33.7730968643846], [-84.3979489512476, 33.7730901330332], [-84.3979271826512, 33.7730832094652], [-84.3979055031523, 33.7730760927729], [-84.3978911013357, 33.77307124272], [-84.3978767413976, 33.77306630693], [-84.3978552798853, 33.773058745306], [-84.3978339150382, 33.7730509941502], [-84.3978126500954, 33.7730430534566], [-84.3977985296948, 33.7730376564647], [-84.3977774366674, 33.7730294034714], [-84.3977564489526, 33.7730209645371], [-84.397735569792, 33.7730123405572], [-84.39772171054, 33.7730064886348], [-84.3977010173456, 33.7729975577391], [-84.3976804381112, 33.7729884444929], [-84.3976599760783, 33.7729791497919], [-84.3976396334062, 33.772969673632], [-84.3976194111797, 33.7729600178145], [-84.3975993137223, 33.7729501841348], [-84.3975793389038, 33.7729401834167], [-84.397593160273, 33.7729154234358], [-84.3976278055126, 33.7729249729219], [-84.3976626211634, 33.7729340514169], [-84.3976976104446, 33.7729426517014], [-84.3977327636288, 33.7729507701869], [-84.3977680731555, 33.7729584059858], [-84.3978035271406, 33.7729655564151], [-84.3978391169414, 33.7729722196878], [-84.397874832833, 33.7729783931168], [-84.3979106802325, 33.7729840839052], [-84.40104243701, 33.773488909766], [-84.4010478144361, 33.7734919182843], [-84.4010528592705, 33.7734953043246], [-84.4010556054752, 33.7734975018447], [-84.4015374693769, 33.773567818058], [-84.4015475215598, 33.7735798269637], [-84.4015830438954, 33.7735876821686], [-84.401626333774, 33.7735976360475], [-84.4016695176537, 33.7736079120028], [-84.4017125890521, 33.7736185082436], [-84.4017555468874, 33.7736294238704], [-84.4018069387415, 33.7736429436137], [-84.4018496318333, 33.7736545593939], [-84.4018921994821, 33.7736664927799], [-84.4019346373647, 33.7736787419766], [-84.401985389069, 33.7736938569862], [-84.402027531959, 33.7737067982804], [-84.402069535357, 33.7737200517977], [-84.4021113960247, 33.7737336175445], [-84.4021531107184, 33.7737474937238], [-84.4021946751172, 33.7737616794423], [-84.4022429788914, 33.7737786248622], [-84.4022772741467, 33.7737909544022], [-84.4023029228261, 33.7738003403187], [-84.4023540322312, 33.7738194677455], [-84.402387962303, 33.7738324823056], [-84.4024133327735, 33.7738423808687], [-84.4024638760348, 33.7738625300011], [-84.4024943173137, 33.773875013813], [-84.4024943800215, 33.7738979003216], [-84.4024624375346, 33.7740011220453], [-84.4023390322589, 33.7740462104316], [-84.4022662770689, 33.7740550313489], [-84.4022436897198, 33.7740383325955], [-84.4022288773919, 33.7740248667477], [-84.4022100042812, 33.7740093925549], [-84.4021908145269, 33.7739942020821], [-84.4021713145945, 33.7739792908086], [-84.4021515077355, 33.7739646632362], [-84.4021314025945, 33.7739503220534], [-84.4021110045872, 33.7739362735612], [-84.4020903180422, 33.7739225213577], [-84.4020693516066, 33.7739090690331], [-84.4020481096113, 33.773895921087], [-84.4020265996214, 33.7738830802099], [-84.4020048270523, 33.773870552703], [-84.4019827983846, 33.7738583394554], [-84.4019605211931, 33.7738464467639], [-84.401938001958, 33.773834875518], [-84.401915246095, 33.7738236320185], [-84.4018922622436, 33.7738127171506], [-84.4018690558145, 33.7738021354121], [-84.4018456332929, 33.7737918894956], [-84.4018220033257, 33.7737819829909], [-84.4017981723959, 33.7737724176889], [-84.4017741480731, 33.7737631980834], [-84.4017499357605, 33.7737543259673], [-84.4017255441027, 33.7737458040289], [-84.4017009795847, 33.7737376349607], [-84.4016762497691, 33.7737298205516], [-84.4016513622231, 33.7737223643936], [-84.4016263245065, 33.7737152673739], [-84.4016011441868, 33.7737085330846], [-84.4015758288238, 33.773702162413], [-84.4015503849002, 33.7736961571498], [-84.4015248199782, 33.7736905190839], [-84.4014991437821, 33.7736852509017], [-84.4014733617124, 33.7736803534946], [-84.4014691898867, 33.773678394929], [-84.4014651825871, 33.7736761926042], [-84.4014613690092, 33.7736737626945], [-84.4014577675393, 33.7736711168863], [-84.4014543954868, 33.7736682677698], [-84.4014543370295, 33.773668211077]]], [[[-84.3925243745014, 33.7754282053476], [-84.3922811451393, 33.7751532289574], [-84.3920790757484, 33.7750412631936], [-84.3920764034121, 33.7740208919564], [-84.3921435383024, 33.7739739627577], [-84.3925710948896, 33.7739763655114], [-84.3927958365323, 33.7739776571487], [-84.3927957314335, 33.7739882012604], [-84.3927960301297, 33.7739987428289], [-84.3927967315129, 33.7740092710365], [-84.392797912755, 33.7740203925534], [-84.3927999619417, 33.7740339334158], [-84.3928109078119, 33.7740955845556], [-84.3928128079431, 33.7741045813645], [-84.3928147147381, 33.7741124159316], [-84.3928168481572, 33.7741202086074], [-84.3928192071138, 33.7741279566889], [-84.3928217905116, 33.7741356538666], [-84.3928245961843, 33.7741432974394], [-84.3928280739388, 33.7741519595489], [-84.3928308936557, 33.7741583732425], [-84.3928909258019, 33.7742924939545], [-84.3929097660462, 33.7743346864863], [-84.3929161481307, 33.7743494916338], [-84.3929213243088, 33.7743618717445], [-84.3929273643985, 33.7743767767001], [-84.3929332156832, 33.7743917342973], [-84.3929388792353, 33.7744067418292], [-84.3929442843728, 33.7744216082752], [-84.3929769592449, 33.7745145014679], [-84.392983521525, 33.7745341815133], [-84.3929893649324, 33.7745527051553], [-84.3929956274591, 33.7745737670804], [-84.3930011689342, 33.774593665393], [-84.3930063661581, 33.7746136274524], [-84.393011220203, 33.7746336505515], [-84.3930157288951, 33.7746537292846], [-84.3930198911451, 33.774673860047], [-84.3930237069431, 33.7746940392322], [-84.3930265531024, 33.7747104945698], [-84.3930295472919, 33.7747294553266], [-84.3930324046141, 33.7747497435659], [-84.3930349132838, 33.7747700649041], [-84.3930370711295, 33.7747904148368], [-84.3930388792141, 33.7748107870507], [-84.3930403353732, 33.7748311797463], [-84.393041441754, 33.7748515884115], [-84.3930422789983, 33.7748751695818], [-84.3930425721614, 33.7748872890491], [-84.3930441616967, 33.7749879447495], [-84.3930451163583, 33.7750167588915], [-84.3930465492931, 33.7750455604345], [-84.3930487703671, 33.7750784513263], [-84.3930516132627, 33.7751113095194], [-84.3930550779568, 33.7751441259973], [-84.3930570418529, 33.7751605162292], [-84.3930597010191, 33.7751809896685], [-84.3930388926304, 33.7751746648813], [-84.3930644637037, 33.7752134665469], [-84.3930694089653, 33.7752435203514], [-84.3930734619608, 33.7752660199498], [-84.3930793225132, 33.775295959368], [-84.393085704368, 33.7753258238939], [-84.393092605352, 33.7753556081215], [-84.3931000254468, 33.7753853048375], [-84.3931079613996, 33.7754149086379], [-84.3931164121146, 33.7754444132131], [-84.3931230865675, 33.7754664715994], [-84.3931324351074, 33.7754957869822], [-84.3931422918852, 33.7755249851183], [-84.3931526568871, 33.7755540605977], [-84.3931607632395, 33.7755757827426], [-84.39316915228, 33.775597429531], [-84.3931749017815, 33.775611818358], [-84.3931837601565, 33.7756333344459], [-84.3931964891815, 33.7756630187052], [-84.3931981736537, 33.775667581578], [-84.3931994750607, 33.7756722317125], [-84.393200194799, 33.7756757621614], [-84.3932006932678, 33.7756793191644], [-84.3932010296306, 33.7756852802687], [-84.393200934324, 33.7756888609029], [-84.3932006144137, 33.7756924320313], [-84.3932000720379, 33.7756959855349], [-84.3931993093249, 33.7756995096885], [-84.3931975527548, 33.7757052943042], [-84.3931962131568, 33.7757086959903], [-84.3931946617714, 33.7757120349496], [-84.3931916215015, 33.7757174360145], [-84.3931895307854, 33.7757205631739], [-84.393187248713, 33.775723596011], [-84.3931830354322, 33.77572841586], [-84.3931783365113, 33.7757329120055], [-84.3931731874925, 33.7757370510212], [-84.3931676282417, 33.7757408012761], [-84.3931617007913, 33.7757441338399], [-84.3931554482677, 33.7757470251908], [-84.3931489202754, 33.7757494517945], [-84.3931421631966, 33.7757513964346], [-84.3931352309784, 33.7757528445855], [-84.3931281732564, 33.7757537844348], [-84.3931210450787, 33.7757542095697], [-84.393113900421, 33.7757541162847], [-84.3931067911114, 33.7757535053863], [-84.3930997722291, 33.7757523821834], [-84.3930928966984, 33.775750753792], [-84.3930862174603, 33.77574863364], [-84.3930628484555, 33.7757400684426], [-84.3930338421503, 33.7757289781362], [-84.3930050733612, 33.7757174672177], [-84.3929765496536, 33.7757055383781], [-84.3929482796726, 33.7756931943069], [-84.3929202720701, 33.7756804403983], [-84.3928925354913, 33.7756672793414], [-84.3928650785859, 33.775653715629], [-84.3928433202647, 33.7756425777299], [-84.3928163883938, 33.7756282998377], [-84.3927897589015, 33.7756136309704], [-84.3927634404396, 33.775598576522], [-84.3927374405733, 33.775583139184], [-84.3927117690369, 33.7755673252503], [-84.3926864312406, 33.7755511392194], [-84.3926652560861, 33.7755371528041], [-84.3926466065731, 33.7755244799754], [-84.392627032367, 33.7755108043968], [-84.3926125035614, 33.775500397984], [-84.3925933364549, 33.7754863267312], [-84.3925744063035, 33.7754720323335], [-84.3925557185174, 33.7754575192896], [-84.3925372741787, 33.7754427884991], [-84.3925219861904, 33.7754302582715], [-84.3925243745014, 33.7754282053476]]], [[[-84.387454923071, 33.77534882765], [-84.3874566994443, 33.7751810017894], [-84.3880688545759, 33.7751850021385], [-84.3880670590537, 33.7753528947618], [-84.3880652853581, 33.7755187811657], [-84.3880635227943, 33.7756835404803], [-84.3880617168264, 33.7758515755696], [-84.3874496536891, 33.7758469835478], [-84.3874514447359, 33.7756777168348], [-84.3874531505511, 33.7755164740704], [-84.387454923071, 33.77534882765]]], [[[-84.3880979514606, 33.7758518658116], [-84.388107984531, 33.7751852339865], [-84.3887220820384, 33.7751892140853], [-84.3887125811633, 33.7758564743447], [-84.3880979514606, 33.7758518658116]]], [[[-84.3930149251481, 33.7739790209587], [-84.3930192210239, 33.7739789508657], [-84.3935061786182, 33.7739817733938], [-84.3935118850501, 33.7739818891364], [-84.3935175832817, 33.7739821707977], [-84.3935260995915, 33.7739829017113], [-84.3935345596506, 33.7739840015034], [-84.3935429396989, 33.7739854675127], [-84.3935512159742, 33.7739872961763], [-84.393559367946, 33.7739894812205], [-84.3935647232122, 33.7739911331196], [-84.3935700054668, 33.7739929393353], [-84.3935777806025, 33.7739959329513], [-84.3935853579573, 33.7739992605417], [-84.3935927191508, 33.7740029122222], [-84.3935998425657, 33.774006879016], [-84.3936044494395, 33.7740096936174], [-84.393608936814, 33.7740126391778], [-84.3936154325989, 33.7740172977903], [-84.3936216289566, 33.7740222310553], [-84.3936255853418, 33.7740256671887], [-84.3936293973475, 33.774029216294], [-84.3936348319289, 33.7740347406397], [-84.393639916217, 33.7740404937473], [-84.3936446339737, 33.7740464594171], [-84.393647570699, 33.7740505475161], [-84.3936503359719, 33.7740547179808], [-84.3936529254595, 33.7740589654092], [-84.3936553380726, 33.7740632861966], [-84.3936575694758, 33.7740676740394], [-84.3936596164157, 33.7740721235339], [-84.3936614778009, 33.7740766301737], [-84.3936631514551, 33.7740811876513], [-84.3937083871911, 33.7742216485462], [-84.393716834412, 33.7742489774059], [-84.3937237351324, 33.7742724734826], [-84.3937292458112, 33.7742921013242], [-84.3937345385062, 33.7743117710426], [-84.3937396121326, 33.7743314808365], [-84.3937444666858, 33.7743512289026], [-84.3937500184058, 33.7743749501676], [-84.393781404044, 33.7745137242749], [-84.3937870621294, 33.7745376482134], [-84.3937929867838, 33.7745615274801], [-84.3938004440835, 33.7745901195653], [-84.3938096261203, 33.7746233880491], [-84.3938179078974, 33.7746518217281], [-84.3938280460411, 33.7746848954969], [-84.3940207022913, 33.7752833827475], [-84.394056718267, 33.7753918410097], [-84.3941849241925, 33.7757663907131], [-84.3941861068872, 33.7757710410558], [-84.3941869021173, 33.7757757480152], [-84.3941873055067, 33.7757804899598], [-84.394187314834, 33.7757852434507], [-84.3941869311216, 33.7757899868463], [-84.3941861553872, 33.775794696702], [-84.3941849918876, 33.7757993495667], [-84.3941834448865, 33.7758039246948], [-84.3941815229621, 33.7758083995291], [-84.3941792357768, 33.7758127533136], [-84.3941765929882, 33.7758169634895], [-84.3941736085847, 33.7758210119977], [-84.3941702954679, 33.7758248780765], [-84.3941666697833, 33.7758285427614], [-84.3941627498453, 33.7758319906905], [-84.3941585539586, 33.7758352028955], [-84.3941552376376, 33.7758374487116], [-84.3941517870473, 33.7758395487075], [-84.3941469912822, 33.7758421101236], [-84.3941432611657, 33.7758438463672], [-84.3941394291211, 33.7758454177964], [-84.3941355037787, 33.7758468216901], [-84.3941314970035, 33.7758480535183], [-84.3941274185055, 33.7758491105581], [-84.3941204936303, 33.7758504739956], [-84.3941000634506, 33.775853346441], [-84.3940810013306, 33.7758558376683], [-84.3940555380483, 33.7758588970063], [-84.3940236406163, 33.7758622990989], [-84.3940044698176, 33.7758641151774], [-84.3939852769787, 33.7758657626847], [-84.3939660642544, 33.7758672398135], [-84.3939468338065, 33.7758685474613], [-84.3939147496709, 33.7758703494378], [-84.3938954823963, 33.7758712045162], [-84.3938762060338, 33.7758718891963], [-84.3938569216632, 33.7758724034759], [-84.3938376325237, 33.775872747349], [-84.3938183396975, 33.7758729217155], [-84.3937990453419, 33.7758729256695], [-84.3937668917602, 33.7758725529513], [-84.3937476048432, 33.7758721024511], [-84.3937283261167, 33.7758714824223], [-84.3937090544989, 33.7758706919652], [-84.3936897953883, 33.77586973107], [-84.3936577261083, 33.7758677523264], [-84.3936385068339, 33.7758663387207], [-84.3936193054679, 33.7758647555685], [-84.3936001263295, 33.7758630028619], [-84.393580969421, 33.7758610815025], [-84.3935490999959, 33.7758575037347], [-84.3935300164032, 33.7758551323085], [-84.3935109625987, 33.7758525922156], [-84.3934919439834, 33.7758498843479], [-84.3934729594779, 33.7758470087074], [-84.3934660393432, 33.7758456680458], [-84.3934592831057, 33.7758438347807], [-84.3934527426246, 33.7758415214401], [-84.3934464643721, 33.7758387450698], [-84.3934404969896, 33.7758355263187], [-84.3934370838166, 33.7758333938725], [-84.3934338073833, 33.775831116009], [-84.3934286755291, 33.7758270148082], [-84.3934239854192, 33.7758225584464], [-84.3934213996237, 33.7758197284044], [-84.3934189916964, 33.775816790739], [-84.3934167692141, 33.7758137526494], [-84.3934147386766, 33.7758106222386], [-84.3933998329302, 33.7757846504955], [-84.393389403139, 33.7757658612008], [-84.3933825808172, 33.7757532839702], [-84.393372545812, 33.7757343451761], [-84.3933595365133, 33.775708957821], [-84.3933500592006, 33.775689819637], [-84.3933408224489, 33.7756705989601], [-84.3933318273451, 33.7756512984933], [-84.3933230760531, 33.7756319200359], [-84.3933145675001, 33.7756124662949], [-84.3933063038526, 33.7755929399714], [-84.3932982861901, 33.7755733410633], [-84.393290515604, 33.7755536740771], [-84.3932805389274, 33.7755273470326], [-84.3932733466662, 33.7755075266041], [-84.3932664025772, 33.775487644407], [-84.393259709904, 33.7754677022388], [-84.3932532664944, 33.7754477028085], [-84.393247075592, 33.7754276479134], [-84.3932430886091, 33.7754142485722], [-84.393237318565, 33.7753941063452], [-84.3932336121589, 33.7753806505861], [-84.393228264069, 33.7753604273369], [-84.3932231695914, 33.7753401585393], [-84.3932199153708, 33.7753266217025], [-84.3932152461118, 33.775306281795], [-84.3932122757349, 33.7752926993543], [-84.393208032788, 33.7752722937449], [-84.3932053473458, 33.7752586702065], [-84.3932027752321, 33.775245031132], [-84.3931991323907, 33.7752245450751], [-84.3931968463077, 33.7752108712126], [-84.393193631977, 33.7751903347781], [-84.3931916319337, 33.7751766297341], [-84.3931888482915, 33.7751560501312], [-84.3931855390436, 33.7751285747577], [-84.393183358822, 33.7751079444561], [-84.3931820485538, 33.7750941804401], [-84.3931803001371, 33.7750735213945], [-84.3931792791846, 33.7750597406176], [-84.3931775827415, 33.7750321631015], [-84.393176613774, 33.7750114683624], [-84.3931757259548, 33.7749838641156], [-84.3931741725526, 33.7748859196183], [-84.3931736276757, 33.7748639058851], [-84.3931729828669, 33.7748474077401], [-84.3931721242967, 33.7748309162989], [-84.3931710541316, 33.7748144342625], [-84.3931692947418, 33.7747924741523], [-84.3931671586011, 33.7747705372747], [-84.3931646446444, 33.7747486290416], [-84.393161753961, 33.7747267530575], [-84.3931584876429, 33.7747049138288], [-84.3931548446225, 33.7746831158656], [-84.393150828151, 33.7746613636701], [-84.3931464360836, 33.7746396626562], [-84.3931416727486, 33.7746180164225], [-84.3931351938051, 33.7745910427703], [-84.3931281364175, 33.7745641702625], [-84.3931205016899, 33.7745374079134], [-84.393113980398, 33.7745160831871], [-84.3931088487992, 33.7745001423794], [-84.3931016876374, 33.774478962189], [-84.3930714701966, 33.7743931154394], [-84.3930646347417, 33.7743742545995], [-84.393057523076, 33.7743554645947], [-84.3930501362864, 33.7743367481279], [-84.393042474385, 33.7743181097073], [-84.3930356898843, 33.7743021971741], [-84.3930287047242, 33.7742863454192], [-84.3929519912377, 33.7741148584419], [-84.3929483603211, 33.7741054374256], [-84.392945022962, 33.7740951502851], [-84.3929422866651, 33.7740847403193], [-84.3929402884334, 33.7740749845013], [-84.3929370872507, 33.7740565344548], [-84.3929366438307, 33.7740529638241], [-84.3929364238664, 33.7740493783572], [-84.3929364284635, 33.7740457879703], [-84.3929366576504, 33.7740422034832], [-84.3929371103687, 33.7740386330128], [-84.3929377866493, 33.7740350882803], [-84.392938683272, 33.774031576505], [-84.3929397981083, 33.7740281094122], [-84.3929416184, 33.774023570765], [-84.3929438136506, 33.7740191495467], [-84.392945698935, 33.7740159235857], [-84.3929477831077, 33.7740127838185], [-84.3929500618737, 33.7740097392697], [-84.3929525266168, 33.7740067980698], [-84.3929560937587, 33.7740030514765], [-84.3929599637815, 33.7739995216259], [-84.3929630548337, 33.7739970264968], [-84.3929662974033, 33.7739946690425], [-84.392969683954, 33.7739924573918], [-84.3929744047508, 33.7739897428775], [-84.3929780869993, 33.7739878904434], [-84.392983167567, 33.7739856765876], [-84.3929870926848, 33.77398421232], [-84.3929911046319, 33.7739829210102], [-84.3929965683479, 33.7739814755603], [-84.3930021387161, 33.7739803509027], [-84.3930063715803, 33.7739797219016], [-84.3930106373232, 33.7739792785803], [-84.3930149251481, 33.7739790209587]]], [[[-84.4052402616565, 33.7754733614892], [-84.4048034118368, 33.7750955142573], [-84.4048510234349, 33.7750355040212], [-84.4041454239739, 33.7745113099804], [-84.404109224908, 33.7744912385355], [-84.4037868479064, 33.7742403948998], [-84.4037546566311, 33.7742194662931], [-84.4036197264481, 33.774131744055], [-84.4033221832917, 33.7739341102704], [-84.4031252797109, 33.7738359614898], [-84.4030481568695, 33.7738099685408], [-84.4029982370507, 33.7737518859611], [-84.4030080411514, 33.7736978447162], [-84.4030576185503, 33.773631260154], [-84.4031120465128, 33.7735189561353], [-84.4031614307035, 33.7733817274748], [-84.4032157555861, 33.7732320221813], [-84.403370126355, 33.7732732824394], [-84.4035344954003, 33.7733311443657], [-84.4037287093354, 33.7733847939364], [-84.4038980435826, 33.7734384910271], [-84.4040922465226, 33.773487985233], [-84.4041029086937, 33.7735072943331], [-84.404146868035, 33.773523442191], [-84.4041831042354, 33.7735367701034], [-84.4042564003282, 33.7735637678397], [-84.4043288756535, 33.7735914541716], [-84.4043832324151, 33.7736123047742], [-84.404419470587, 33.7736263196717], [-84.4044730065822, 33.7736478597761], [-84.4045446631338, 33.7736769216755], [-84.4048765933203, 33.7738123190618], [-84.4051037800345, 33.7738813940917], [-84.4052380257342, 33.7739511993093], [-84.4053452265313, 33.7740069422299], [-84.4053677997183, 33.774017542571], [-84.4053901077253, 33.7740282930951], [-84.4054122780818, 33.7740392395399], [-84.4054343097031, 33.7740503801041], [-84.4054561993505, 33.7740617147942], [-84.4054851603688, 33.7740771256891], [-84.405506709005, 33.7740889055443], [-84.4055282627366, 33.7741009630947], [-84.4055493554813, 33.7741130323533], [-84.405570447913, 33.7741253757111], [-84.4055913843104, 33.7741379042058], [-84.4056121603498, 33.7741506160428], [-84.4056327749466, 33.7741635094208], [-84.4056532259414, 33.7741765843441], [-84.4056735100879, 33.7741898381142], [-84.4056893340932, 33.7742003829409], [-84.4057201830946, 33.7742214533978], [-84.4057333452094, 33.7742306608154], [-84.4057529424933, 33.7742446173878], [-84.4057723631919, 33.774258745613], [-84.4057852108977, 33.7742682583924], [-84.4057979789205, 33.7742778470637], [-84.4058169774913, 33.7742923692197], [-84.405835791904, 33.7743070576337], [-84.4058482314546, 33.7743169417763], [-84.4058667335321, 33.7743319048928], [-84.4058789630532, 33.7743419697697], [-84.405903167893, 33.774362313704], [-84.4059210947729, 33.7743777576059], [-84.4059329365035, 33.7743881406105], [-84.4059505358901, 33.774403843917], [-84.4059621589311, 33.7744143995582], [-84.4059736925468, 33.774425022094], [-84.4059908232766, 33.7744410824558], [-84.4060077514511, 33.7744572937838], [-84.4060189230442, 33.7744681830045], [-84.4060355074899, 33.7744846393429], [-84.4060464484867, 33.7744956904039], [-84.406062683795, 33.7745123881568], [-84.4060733909488, 33.7745235983597], [-84.4060892727833, 33.774540531224], [-84.4060997417652, 33.7745518969707], [-84.4061152647123, 33.7745690595474], [-84.406125493353, 33.7745805772356], [-84.4061456499146, 33.7746037944249], [-84.4062656470101, 33.7747454490228], [-84.4062767927239, 33.774746241575], [-84.406287603882, 33.774748638814], [-84.4062977531316, 33.7747525665384], [-84.406306930274, 33.7747579072343], [-84.4063148584528, 33.774764497339], [-84.4063212963404, 33.7747721371547], [-84.4063220801904, 33.7747732978614], [-84.4063890130595, 33.7748828077993], [-84.4064484534683, 33.7749959695184], [-84.4064716272421, 33.7750456650016], [-84.4066194969648, 33.7753871990921], [-84.406620482334, 33.7753862819999], [-84.4068153399827, 33.7758114473098], [-84.4067618245392, 33.7759163972675], [-84.4063325151171, 33.776329126841], [-84.4060089211825, 33.7760601511549], [-84.4055468321668, 33.7757304875117], [-84.405343509935, 33.7755440893672], [-84.4052450324238, 33.7754774890438], [-84.4052383944174, 33.7754751521722], [-84.4052402616565, 33.7754733614892]]], [[[-84.387445952369, 33.7762004963156], [-84.3874488124827, 33.7759294321029], [-84.388711445256, 33.7759388954846], [-84.3887075179088, 33.7762153472038], [-84.3886994912016, 33.7767777687502], [-84.3874401030913, 33.7767550469927], [-84.387445952369, 33.7762004963156]]], [[[-84.3889166164275, 33.7753835116301], [-84.388919408783, 33.7751904430809], [-84.3894936865292, 33.7751942169425], [-84.3895356464742, 33.7751944847041], [-84.3896656399434, 33.7751952804701], [-84.3897906970547, 33.7751960850241], [-84.3898927178232, 33.7751969311211], [-84.3899223903381, 33.7752178327394], [-84.3902574114014, 33.7768075551963], [-84.3901272548927, 33.7768035396546], [-84.3899297859452, 33.776800118236], [-84.3897424756995, 33.7767965473994], [-84.3897323172009, 33.7767963529717], [-84.3895167481512, 33.7767926200778], [-84.3894739618267, 33.776791666745], [-84.3893052917474, 33.7767888793879], [-84.3891654176414, 33.7767860398866], [-84.3888971894206, 33.7767813702519], [-84.3889020491039, 33.7764330227676], [-84.3889078478513, 33.7759984449996], [-84.388908942282, 33.7759163413153], [-84.3889096967068, 33.7758898872942], [-84.3889103987949, 33.7758431660364], [-84.388914520826, 33.775527798648], [-84.3889166164275, 33.7753835116301]]], [[[-84.3915197303496, 33.7768286775921], [-84.3914733335831, 33.7768277919414], [-84.3914733327625, 33.7768278911246], [-84.3913630790441, 33.776825687212], [-84.3912077707975, 33.7767498163887], [-84.3906458845349, 33.7742365351783], [-84.3907189240848, 33.7740411164804], [-84.3907705498465, 33.7739115797663], [-84.3907851849413, 33.7715190323644], [-84.3907853010264, 33.7715142723303], [-84.3907858633166, 33.7715071428448], [-84.3907864847446, 33.7715024080409], [-84.3907877846121, 33.7714953457416], [-84.3907888952844, 33.7714906731649], [-84.3907909220709, 33.7714837312686], [-84.3907925123644, 33.7714791570026], [-84.3907952510908, 33.7714723878323], [-84.390797309216, 33.7714679452596], [-84.3907995510431, 33.7714635645673], [-84.390801973347, 33.7714592511711], [-84.3908045729051, 33.7714550113885], [-84.3908073464881, 33.7714508488319], [-84.390810291953, 33.7714467698167], [-84.3908134049905, 33.7714427779575], [-84.3908166812939, 33.7714388777702], [-84.3908201176406, 33.7714350755722], [-84.3908237097236, 33.7714313758797], [-84.3908274532316, 33.7714277814054], [-84.39083134386, 33.7714242975669], [-84.3908353762223, 33.7714209288825], [-84.390839546007, 33.7714176780648], [-84.3908438489095, 33.7714145505315], [-84.3908482784614, 33.7714115499011], [-84.3908528303511, 33.7714086788862], [-84.3908574981103, 33.7714059411053], [-84.3908622774296, 33.7714033401727], [-84.3908671607587, 33.7714008788071], [-84.3908721437883, 33.7713985606229], [-84.3908772200477, 33.7713963883369], [-84.3908823841456, 33.7713943646637], [-84.390887628527, 33.7713924905188], [-84.3908929478054, 33.7713907704202], [-84.3908983344232, 33.7713892043815], [-84.3909037840713, 33.7713877960173], [-84.3909092881149, 33.7713865462449], [-84.3909148400786, 33.7713854559776], [-84.3909204356484, 33.7713845270266], [-84.3909260651123, 33.7713837612129], [-84.390931723072, 33.7713831585463], [-84.3909402486014, 33.7713825623901], [-84.390948799928, 33.7713823367655], [-84.3918923634323, 33.7713779829474], [-84.3918762696458, 33.7739180271808], [-84.3918898053652, 33.7739723910351], [-84.391879236018, 33.7746617557591], [-84.3918771591628, 33.7747968630801], [-84.3918750516352, 33.7749342795848], [-84.3918729375492, 33.775072080202], [-84.3918708288602, 33.7752094696531], [-84.3918683641538, 33.7753742032455], [-84.3918677272698, 33.7754105680278], [-84.3918674761105, 33.7754367208985], [-84.3918674237584, 33.7754715932815], [-84.3918676185631, 33.7754998272523], [-84.3919975309879, 33.7767326223508], [-84.3920106122957, 33.7768375606373], [-84.3916378903402, 33.7768306830151], [-84.3915197303496, 33.7768286775921]]], [[[-84.3920689696334, 33.7754625379225], [-84.3921360075526, 33.775378164213], [-84.3922961987705, 33.775428938302], [-84.3925284869141, 33.7756210972155], [-84.3927940103953, 33.7757782720135], [-84.3934941152897, 33.7760309626854], [-84.3935053728443, 33.7764002432074], [-84.393508454052, 33.7765013108937], [-84.3935186563292, 33.7768359843299], [-84.393039390347, 33.7768560145677], [-84.3928748333134, 33.7768530523298], [-84.3927200179807, 33.7768502658836], [-84.3925600348749, 33.7768473859144], [-84.3922182291276, 33.7768102841868], [-84.3921600598895, 33.7764058554407], [-84.3921209254946, 33.7761337678713], [-84.3920928935416, 33.7759105664925], [-84.3920689696334, 33.7754625379225]]], [[[-84.3874341806329, 33.7772284797536], [-84.3874370417668, 33.7768853988555], [-84.3879131498249, 33.7768934292877], [-84.3881221840671, 33.7768969549028], [-84.3883820439684, 33.776901309448], [-84.3887029486021, 33.7769067203676], [-84.3886956656938, 33.7773084111868], [-84.3886919169097, 33.7775151639504], [-84.3883635382931, 33.7775097538114], [-84.3882030677389, 33.7775071098133], [-84.3874319637848, 33.7774944204753], [-84.3874341806329, 33.7772284797536]]], [[[-84.3888633338419, 33.7777779456528], [-84.3889487969047, 33.7769586826956], [-84.3903150489642, 33.7769708408626], [-84.3904221956573, 33.7777605015723], [-84.3888633338419, 33.7777779456528]]], [[[-84.3914052246521, 33.7780556661014], [-84.3912785576239, 33.7770275991587], [-84.3914661547875, 33.7769651229599], [-84.3917462000787, 33.7769701712004], [-84.3919945210849, 33.7769979181078], [-84.3920014541094, 33.7773946655166], [-84.3920092739265, 33.7773948333715], [-84.3920076541015, 33.7775299948008], [-84.3920038176741, 33.7775299359854], [-84.3920060847348, 33.7776596867168], [-84.3920010717522, 33.7780704738709], [-84.39183423988, 33.77806721145], [-84.3916613860377, 33.7780638335516], [-84.3914052246521, 33.7780556661014]]], [[[-84.3927399788556, 33.7780849969339], [-84.3927404119651, 33.7780624431325], [-84.3921654424501, 33.7780554262188], [-84.392173040412, 33.7774607938958], [-84.3921734755693, 33.7774249560575], [-84.3921764978396, 33.7774250001256], [-84.3922186952795, 33.7769881467447], [-84.3935191498466, 33.7770232086743], [-84.3935316068842, 33.7774447809148], [-84.3935332438134, 33.7774448049551], [-84.3935327117859, 33.7774821820941], [-84.3934994941183, 33.7780717032232], [-84.3929235224736, 33.7780646772574], [-84.3929230379444, 33.7780885998605], [-84.3927399788556, 33.7780849969339]]], [[[-84.3858150671915, 33.7785726057716], [-84.3858661417928, 33.7780552970551], [-84.3864515867298, 33.7780945442822], [-84.3864661353985, 33.7780955137939], [-84.387162211214, 33.7781421677894], [-84.3871566731746, 33.7786651130383], [-84.3864071330878, 33.7786134364623], [-84.3858150671915, 33.7785726057716]]], [[[-84.3914401592732, 33.7796413106068], [-84.3914158915867, 33.7782240228763], [-84.3935215513881, 33.7782652012554], [-84.3935035664992, 33.7795330768939], [-84.393501592071, 33.7796704642177], [-84.39350015016, 33.7797727014912], [-84.3934765617409, 33.7814366634583], [-84.3919574697795, 33.7814448371484], [-84.3918038165193, 33.7814362083603], [-84.3917653706665, 33.7814220242956], [-84.3917311652019, 33.7813971425108], [-84.39170117683, 33.781352652035], [-84.3916806542509, 33.7812629138702], [-84.3916841562778, 33.7812320674129], [-84.3916869984385, 33.7812011743711], [-84.3916891829169, 33.7811702437575], [-84.39169070758, 33.7811392854939], [-84.3916915713747, 33.7811083095006], [-84.3916917862147, 33.7810835227216], [-84.391691578861, 33.7810587349092], [-84.3916909493327, 33.7810339532763], [-84.3916898965601, 33.7810091814317], [-84.3916879865057, 33.7809782375454], [-84.3916854168031, 33.7809473282228], [-84.3916828871005, 33.7809226303013], [-84.3916807126507, 33.7809041287797], [-84.3916774467044, 33.7808794908077], [-84.3916747217067, 33.7808610398805], [-84.3916717603078, 33.7808426146305], [-84.3916685635924, 33.7808242168589], [-84.3916651315629, 33.7808058474674], [-84.391661465311, 33.7807875109623], [-84.3916575637572, 33.7807692073454], [-84.3916534290704, 33.7807509402195], [-84.3916490601759, 33.7807327113897], [-84.3916254949716, 33.7806392378028], [-84.3916051418457, 33.7805563978384], [-84.3915918717163, 33.7805011192544], [-84.3915788401321, 33.7804458023644], [-84.3915597412422, 33.7803627554289], [-84.3915473076384, 33.7803073427711], [-84.3915291078824, 33.7802241544343], [-84.3915114467528, 33.780140885767], [-84.3915057738257, 33.7800992001454], [-84.3915028188727, 33.7800753658717], [-84.3914401592732, 33.7796413106068]]], [[[-84.3978195096787, 33.780458348126], [-84.3976493293126, 33.7804467731043], [-84.3976517148668, 33.7808036943881], [-84.3976465518305, 33.7810134217464], [-84.3976458110106, 33.7810439566394], [-84.3976362225496, 33.7814321082404], [-84.3974949317674, 33.7814317676049], [-84.3973587094755, 33.7814314335622], [-84.3972214343971, 33.7814310977294], [-84.3970798803708, 33.7814308391607], [-84.3969281221382, 33.7814304624198], [-84.3960973828164, 33.7814283968312], [-84.3957395229871, 33.7814275045027], [-84.3936742246265, 33.7814223388353], [-84.3936976484604, 33.7797723383051], [-84.3936991482441, 33.7796671606387], [-84.3937010565564, 33.7795297977786], [-84.3936936201538, 33.7794188317176], [-84.3937026494423, 33.7794185761686], [-84.3937371861568, 33.7770078781371], [-84.3950734349744, 33.7770138787386], [-84.3950812539361, 33.7770182102275], [-84.3952177861784, 33.7770712089888], [-84.3952905712013, 33.7771317210568], [-84.3953930057717, 33.7770176328208], [-84.3953658780875, 33.7769872794059], [-84.3952173619229, 33.7769114569546], [-84.3950384282555, 33.7768999540282], [-84.3937387980903, 33.7768703480557], [-84.3937437351905, 33.7765248035227], [-84.3937471930408, 33.7764014521132], [-84.3937631762798, 33.7760398288102], [-84.3942226802504, 33.7760015376967], [-84.3946707263226, 33.7758696529531], [-84.3949625135254, 33.7757022168878], [-84.3948388093247, 33.7756068263954], [-84.3948230066846, 33.7756157504061], [-84.3948070935416, 33.775624534863], [-84.39479107098, 33.7756331815675], [-84.3947749422296, 33.7756416869068], [-84.3947587062106, 33.7756500508829], [-84.3947423672418, 33.7756582734878], [-84.394725926396, 33.7756663520145], [-84.3947066393215, 33.7756756061423], [-84.3943790239421, 33.7757765793434], [-84.3941994248894, 33.7754087265022], [-84.3941833056589, 33.7753616169612], [-84.3941685072513, 33.7753179006037], [-84.3938688800365, 33.77431066903], [-84.3938620109295, 33.774284031548], [-84.3938552546906, 33.7742592485558], [-84.3938481693218, 33.7742345301863], [-84.3938407548305, 33.7742098791444], [-84.3938330123038, 33.7741852981329], [-84.3937695986823, 33.7739883164148], [-84.3938067569928, 33.7739899242029], [-84.3937516341662, 33.7738521729631], [-84.3935872019621, 33.7738448357134], [-84.3920742318356, 33.7738360689674], [-84.3920896607481, 33.7713964483464], [-84.3936112441019, 33.7714054227767], [-84.3937922396267, 33.7714064909949], [-84.3954375909655, 33.7714161762394], [-84.3956022978692, 33.7714172593716], [-84.3960638372578, 33.7714198376735], [-84.3966363341605, 33.7723064543273], [-84.3966812061365, 33.7723759962901], [-84.396725555628, 33.7724447304276], [-84.3969106058569, 33.7727305453928], [-84.3972293822411, 33.7729369903419], [-84.3972504307686, 33.7729508265421], [-84.3972787958596, 33.772968957161], [-84.3973074817557, 33.7729867337262], [-84.3973292020403, 33.7729998302043], [-84.397358433656, 33.7730169745811], [-84.3973805564725, 33.7730295933237], [-84.3974103132647, 33.77304609473], [-84.3974328234732, 33.7730582267484], [-84.3974554939926, 33.7730701474762], [-84.3974859673612, 33.7730857116093], [-84.3975167150353, 33.7731008947245], [-84.3975399524555, 33.7731120290374], [-84.3975711636758, 33.7731265368361], [-84.397594740918, 33.7731371610693], [-84.3976184590121, 33.7731475650314], [-84.397650297072, 33.7731610906394], [-84.3976468155213, 33.7731652609846], [-84.3978249054705, 33.7732613592368], [-84.3981736609632, 33.7733212451456], [-84.3981781878328, 33.7733215693635], [-84.398182689496, 33.7733221560092], [-84.4013971592355, 33.7738356231498], [-84.4014196981444, 33.773839391562], [-84.4014421558803, 33.7738434829159], [-84.4014645259655, 33.7738478972237], [-84.4014868019172, 33.7738526326947], [-84.401508976173, 33.7738576875399], [-84.4015310433298, 33.7738630599664], [-84.4015529958302, 33.7738687499886], [-84.401574828266, 33.7738747540103], [-84.4015965341596, 33.7738810720438], [-84.4016181059434, 33.773887700497], [-84.4016395382169, 33.7738946384787], [-84.4016608234176, 33.7739018841999], [-84.4016819572171, 33.7739094340625], [-84.4017029309758, 33.7739172871812], [-84.4017237403677, 33.7739254408595], [-84.4017443789076, 33.7739338924047], [-84.4017648390329, 33.7739426400282], [-84.4017851164153, 33.7739516801316], [-84.4018052045694, 33.7739610100224], [-84.4018250970149, 33.7739706288114], [-84.4018447883387, 33.7739805310991], [-84.401864272058, 33.7739907150947], [-84.4018835438467, 33.7740011781015], [-84.40190259614, 33.7740119174291], [-84.4019214246067, 33.7740229285776], [-84.4019400227616, 33.7740342088545], [-84.4019583862761, 33.7740457546615], [-84.4019765075852, 33.7740575633082], [-84.4019943834377, 33.7740696302928], [-84.4020120084277, 33.7740819529205], [-84.4020293760674, 33.7740945275973], [-84.4020464820258, 33.7741073498234], [-84.4020633208946, 33.7741204160024], [-84.4020798883453, 33.7741337225363], [-84.402091020724, 33.7741419189553], [-84.4021047385787, 33.7741523474391], [-84.4021155532534, 33.7741608356954], [-84.4021262225212, 33.7741694513612], [-84.4021445382683, 33.7741848283497], [-84.4021623918581, 33.7742005785996], [-84.4021797735535, 33.7742166949164], [-84.4021966714436, 33.7742331646998], [-84.4022130757865, 33.7742499789521], [-84.4022289768403, 33.7742671286757], [-84.402244363771, 33.7742846003665], [-84.4022575904746, 33.7743005749289], [-84.40227048408, 33.7743167394727], [-84.4022830402507, 33.7743330876946], [-84.4022952557355, 33.7743496150926], [-84.4023071272803, 33.7743663162633], [-84.4023186494766, 33.7743831876103], [-84.402329821225, 33.7744002219227], [-84.4023406371194, 33.7744174165059], [-84.4023510949806, 33.7744347641511], [-84.4023611915571, 33.7744522603561], [-84.4023709235947, 33.7744698997175], [-84.4023802889217, 33.7744876777311], [-84.4023892842839, 33.7745055889934], [-84.4023979064224, 33.7745236262976], [-84.4024061542498, 33.7745417869406], [-84.4024140234251, 33.7745600628161], [-84.4024215150202, 33.7745784512172], [-84.402428621455, 33.7745969440435], [-84.4024353394803, 33.7746155376947], [-84.4024416755541, 33.7746342249453], [-84.4024476221062, 33.7746530013015], [-84.4024531780418, 33.7746718613557], [-84.4024583433408, 33.7746907978946], [-84.4024631147542, 33.7747098073179], [-84.4024674901025, 33.7747288824167], [-84.4024714704503, 33.774748017779], [-84.4024750536256, 33.7747672089007], [-84.4024782374466, 33.7747864476712], [-84.4024810219032, 33.774805730484], [-84.4024834069753, 33.7748250501258], [-84.4024853904884, 33.774844401191], [-84.4024869713478, 33.7748637782718], [-84.4024881516977, 33.7748831759541], [-84.4024889282791, 33.774902587031], [-84.4024893032387, 33.7749220069901], [-84.4024892754767, 33.7749414286204], [-84.4024888439009, 33.7749608474156], [-84.4024880106531, 33.7749802570601], [-84.4024867886127, 33.7749996295781], [-84.4024207027271, 33.775891269276], [-84.4023219796212, 33.7772232258698], [-84.4022529781701, 33.7774316471859], [-84.4022372888477, 33.7774790471911], [-84.4022329640524, 33.7774946468011], [-84.402228315159, 33.7775101812089], [-84.4022233443142, 33.7775256459022], [-84.402218053665, 33.7775410363687], [-84.4022124442787, 33.777556348098], [-84.40220651722, 33.7775715756781], [-84.4022002757181, 33.7775867154961], [-84.4021937208402, 33.7776017630418], [-84.402186853651, 33.7776167129032], [-84.4021796773798, 33.7776315614675], [-84.4021721941735, 33.7776463042221], [-84.4021644061767, 33.7776609357532], [-84.4021563155387, 33.7776754524498], [-84.402147924409, 33.7776898507014], [-84.4021392360094, 33.77770412419], [-84.402130252492, 33.7777182702066], [-84.4021209760035, 33.7777322842387], [-84.4021114108482, 33.7777461608683], [-84.4021015581005, 33.7777598982897], [-84.402091423142, 33.7777734901812], [-84.402081005965, 33.7777869338378], [-84.4020703119532, 33.7778002238392], [-84.4020593432587, 33.7778133574762], [-84.4020481041881, 33.7778263302324], [-84.4020365968907, 33.7778391384969], [-84.4020248256756, 33.7778517786549], [-84.4020127937671, 33.7778642452902], [-84.4020005043995, 33.7778765365933], [-84.4019879629615, 33.7778886489472], [-84.4019751705179, 33.7779005769399], [-84.40196213246, 33.7779123178561], [-84.4019488530968, 33.7779238680809], [-84.4019353367399, 33.7779352249011], [-84.4019215855363, 33.7779463838042], [-84.4019076048797, 33.7779573429766], [-84.4018933990744, 33.777968097], [-84.4018789713545, 33.777978644065], [-84.4018643271089, 33.7779889805545], [-84.4018494717288, 33.7779991037534], [-84.4012312472376, 33.7783479598046], [-84.401085877867, 33.7784062518745], [-84.4009825685161, 33.7784209412158], [-84.4007228375226, 33.7784277609881], [-84.4004544981985, 33.7784176644139], [-84.4002994403354, 33.778393077902], [-84.4001675579813, 33.7783672679864], [-84.3999712373065, 33.7783288457486], [-84.3994282482344, 33.7782263434939], [-84.399371499321, 33.7782199090366], [-84.3993322426483, 33.7783342682557], [-84.399807200153, 33.7784216498467], [-84.4000091313629, 33.7784632833359], [-84.3998890882033, 33.7795151023931], [-84.399883533098, 33.7795673752926], [-84.3998629719554, 33.7797608390377], [-84.3998568565625, 33.7804526648572], [-84.399855641696, 33.7805900787545], [-84.3998544246698, 33.7807274935546], [-84.3998534039619, 33.7808429212238], [-84.399851994924, 33.781002321334], [-84.3998507800473, 33.7811397352191], [-84.3998481306564, 33.7814375122113], [-84.3997030228146, 33.7814371569723], [-84.3995553138017, 33.78143680557], [-84.3995549186078, 33.7814368072175], [-84.399449602894, 33.7814365235457], [-84.3994072105431, 33.781436406947], [-84.39940681542, 33.7814364347417], [-84.3992587122494, 33.7814360683997], [-84.3992610760475, 33.781139336967], [-84.3992621709322, 33.7810019233116], [-84.399263440691, 33.7808425225665], [-84.3992643606927, 33.7807270950901], [-84.3992654555709, 33.7805896814256], [-84.3992665260021, 33.7804552080878], [-84.3992643211343, 33.7804552122437], [-84.3990705972068, 33.7804547576336], [-84.3990681075587, 33.7805784003072], [-84.3990667177149, 33.7807526415565], [-84.3990675604005, 33.7814488433729], [-84.3981662355839, 33.781433423306], [-84.3980016430331, 33.781433014256], [-84.3978008474834, 33.7814325141105], [-84.3978112286068, 33.7810109151751], [-84.3978117291973, 33.7809906595514], [-84.3978139328215, 33.7809009528789], [-84.3978166370327, 33.7807909914824], [-84.3978195096787, 33.780458348126]]], [[[-84.3999891546868, 33.7803738151699], [-84.3999716232834, 33.7799037482314], [-84.399973643538, 33.7796727747782], [-84.3998873656788, 33.779682709958], [-84.399883533098, 33.7795673752926], [-84.4000095037337, 33.7784859294056], [-84.4005550039438, 33.7785878490803], [-84.4013269209182, 33.7785420783394], [-84.4022587832184, 33.779552094235], [-84.4022864443746, 33.7795820799273], [-84.4023682508332, 33.7796715721586], [-84.4024272484883, 33.7796991112919], [-84.4024877474378, 33.7797618615068], [-84.4026622807416, 33.779948670021], [-84.4027647431462, 33.7800584123294], [-84.403085649913, 33.7804050850186], [-84.4031634679798, 33.7805325844231], [-84.4032398524595, 33.7806153520193], [-84.4033462707746, 33.7807306873003], [-84.4034759966116, 33.7808712843944], [-84.4036110133412, 33.7810176138027], [-84.4040304758007, 33.7814722179336], [-84.4030546954093, 33.7814667596794], [-84.4028816757615, 33.7814657926183], [-84.4026013257951, 33.7814504716152], [-84.4024076702568, 33.7814493909632], [-84.4022639756761, 33.7814485879154], [-84.4022429121452, 33.7814484694375], [-84.4020781205457, 33.7814475414441], [-84.4019133624361, 33.7814466185768], [-84.4017485708582, 33.7814456964549], [-84.4015837803352, 33.7814447641927], [-84.401379033135, 33.7814436047609], [-84.400901806548, 33.7814409031286], [-84.4007701581527, 33.7814401638369], [-84.4006412416535, 33.7814394462745], [-84.3999797454595, 33.7814378125446], [-84.3999891546868, 33.7803738151699]]], [[[-84.4028063055688, 33.7740498020567], [-84.4028652614013, 33.7740048374699], [-84.4029727893669, 33.7740449985802], [-84.4033278435623, 33.7742551244186], [-84.4035892681691, 33.7744779475372], [-84.4036099939283, 33.7744956116788], [-84.4037879689588, 33.7746473063637], [-84.4049856435975, 33.7757176113237], [-84.4051156679792, 33.7758290107686], [-84.4051841960438, 33.7758859591932], [-84.4061090345278, 33.7766544995646], [-84.4061076455184, 33.7766589789585], [-84.4061063375814, 33.7766638801678], [-84.4061052327253, 33.7766688152459], [-84.4061043320172, 33.7766737796824], [-84.4061033638303, 33.7766812679719], [-84.4061029771974, 33.7766862791985], [-84.4061027957321, 33.7766912981419], [-84.406102821579, 33.776696319388], [-84.4061032484816, 33.7767038419385], [-84.4061035025324, 33.776798648279], [-84.4060636397491, 33.776914078374], [-84.4060361518326, 33.7770944394102], [-84.4060349133029, 33.777099454092], [-84.4060320596422, 33.7771118924964], [-84.4060294144613, 33.7771243647592], [-84.4060252881936, 33.7771462594453], [-84.4060231841596, 33.777158806397], [-84.4060213263682, 33.7771713772156], [-84.4060186224955, 33.7771934170134], [-84.4060173457212, 33.7772060335908], [-84.4060162806139, 33.7772186650857], [-84.4060149266594, 33.7772408005451], [-84.4060144414478, 33.777253462473], [-84.4060141721923, 33.7772661284904], [-84.4060142111639, 33.7772882937075], [-84.4060217291778, 33.7773946243819], [-84.4060240362407, 33.7774150873901], [-84.4060275066974, 33.7774423393788], [-84.4060304031478, 33.7774627498495], [-84.4060346572729, 33.7774899236775], [-84.4060381419993, 33.7775102698912], [-84.4060431775921, 33.7775373502344], [-84.4060472473261, 33.7775576213776], [-84.4060530621833, 33.7775845920104], [-84.4060593217018, 33.7776114941564], [-84.4060643055748, 33.7776316219663], [-84.4060713378135, 33.7776583900697], [-84.4060769012128, 33.7776784121631], [-84.4060827117359, 33.7776983850875], [-84.4060908414659, 33.7777249355658], [-84.4060994082234, 33.7777513896204], [-84.4061061251962, 33.7777711705364], [-84.4061119154037, 33.7777881058358], [-84.4061164444547, 33.7778007607387], [-84.4061211342757, 33.7778133756569], [-84.4061259848568, 33.7778259469838], [-84.4061309962005, 33.7778384756208], [-84.4061361650577, 33.7778509579677], [-84.4061414935879, 33.7778633940204], [-84.4061469796291, 33.7778757828812], [-84.4061526242537, 33.7778881218433], [-84.4061584242199, 33.7779004100111], [-84.4061643816824, 33.7779126455771], [-84.4061704933994, 33.7779248276462], [-84.4061767604483, 33.7779369553143], [-84.4061831817418, 33.7779490258786], [-84.4061897562003, 33.7779610393413], [-84.4061964838162, 33.7779729929974], [-84.4062033624302, 33.777984886851], [-84.4062103931171, 33.7779967190968], [-84.4062175737123, 33.7780084879355], [-84.406224904211, 33.778020191564], [-84.4062323824562, 33.7780318308879], [-84.4062400095176, 33.7780434022986], [-84.4062477821537, 33.7780549049007], [-84.4062488217951, 33.7780564050332], [-84.4062557014441, 33.7780663386921], [-84.4062637663017, 33.7780777009699], [-84.4062719756468, 33.7780889917362], [-84.4062803273123, 33.7781002082901], [-84.4062888223781, 33.7781113506297], [-84.4062974575975, 33.7781224160561], [-84.4063062340502, 33.7781334045673], [-84.4063151506516, 33.778144314362], [-84.4063186606858, 33.7781485128466], [-84.4063242041599, 33.778155144545], [-84.4063333956499, 33.7781658933106], [-84.4063458662071, 33.7781800980473], [-84.406355864045, 33.7781911554131], [-84.406567380996, 33.7784335951129], [-84.40692827205, 33.7788006818833], [-84.4071547859354, 33.7791321483125], [-84.4072683325075, 33.7794010409336], [-84.4072913277643, 33.7795959699884], [-84.4073195558155, 33.7796786143617], [-84.4073202674375, 33.7797431143716], [-84.40732030504, 33.7797465216369], [-84.4073216653525, 33.7798676891365], [-84.4073245555175, 33.7801250822678], [-84.4073262220815, 33.7802735123773], [-84.4073204191045, 33.7812231494345], [-84.4073177084528, 33.7813442283674], [-84.4072839857423, 33.7814066937598], [-84.4072348089707, 33.7814524645537], [-84.4071778562012, 33.7814760482391], [-84.4069294744558, 33.781474660263], [-84.4067978248393, 33.7814738994533], [-84.4064666305165, 33.7814720630517], [-84.4061385611027, 33.7814702350251], [-84.4060398582345, 33.7814696835678], [-84.4058687476388, 33.7814687278117], [-84.4057008947826, 33.7814677898525], [-84.4055294883292, 33.7814668323957], [-84.405364960163, 33.7814659127903], [-84.4052004330787, 33.7814649929633], [-84.4042682936625, 33.7814597782229], [-84.4041980406737, 33.7813915214627], [-84.4040538588631, 33.7812273874107], [-84.4034901128925, 33.7806164381633], [-84.4033812978919, 33.7804985162573], [-84.4033569674857, 33.7805196904086], [-84.4031542984015, 33.780300312389], [-84.4029517189721, 33.780079783348], [-84.402681374015, 33.7797876238915], [-84.4027117758997, 33.7797668620337], [-84.4026504853498, 33.7797064838832], [-84.4025529469217, 33.7795895540168], [-84.4021372554164, 33.7791502087532], [-84.4014686139315, 33.7784359369431], [-84.4014733808876, 33.7784014757808], [-84.4020346572019, 33.7780789850355], [-84.4022528661979, 33.7778857379232], [-84.4023973447541, 33.7776881113036], [-84.4024734899686, 33.777352571381], [-84.4025190399054, 33.7772334302943], [-84.4025931436549, 33.7762334753456], [-84.4026012678374, 33.7761237495651], [-84.402618529942, 33.7758908912052], [-84.4026838438219, 33.7750098337648], [-84.4026853177708, 33.7749866639081], [-84.4026861306446, 33.7749681090671], [-84.4026865297449, 33.7749541877037], [-84.4026867822273, 33.7749356222129], [-84.4026867602337, 33.7749216962448], [-84.4026864491158, 33.7749031309301], [-84.402686006056, 33.7748892102755], [-84.4026853827032, 33.7748752953755], [-84.4026842705114, 33.774856751429], [-84.4026832261252, 33.7748428535638], [-84.402681556892, 33.7748243386337], [-84.4026847084134, 33.7747542174658], [-84.4026303476502, 33.7745166036433], [-84.4025169695699, 33.7743015293709], [-84.4025920388816, 33.7742565332192], [-84.4026885659154, 33.7742025254535], [-84.4028063055688, 33.7740498020567]]], [[[-84.4038475106354, 33.7819226349715], [-84.403847388481, 33.7818783199795], [-84.4038079002581, 33.7818804570445], [-84.4036853225749, 33.7818872195925], [-84.4036853433932, 33.7818947771881], [-84.403547111865, 33.7818940120291], [-84.4035469465351, 33.7818939672639], [-84.4035264098183, 33.7818938452891], [-84.4034043373781, 33.7818931319046], [-84.4033625058897, 33.7818928704235], [-84.4031526564699, 33.7818916209355], [-84.4028086786214, 33.7818895738052], [-84.4028028996443, 33.7816027508487], [-84.4034027249056, 33.7816061143461], [-84.4035454986979, 33.7816069151297], [-84.4035454984472, 33.7816068240635], [-84.40414367804, 33.7816101402322], [-84.4041816789149, 33.7816653752493], [-84.4041838327656, 33.7818495034926], [-84.4041849656427, 33.7819618352579], [-84.4041852539216, 33.7820662674825], [-84.4041864560335, 33.7822036776197], [-84.4038507422507, 33.7821995139396], [-84.4038495406751, 33.7820621037967], [-84.4038484300133, 33.7819576731509], [-84.4038475106354, 33.7819226349715]]], [[[-84.396038053429, 33.7835448067299], [-84.3960403798745, 33.7832967240629], [-84.39603526727, 33.783079710767], [-84.3960211739196, 33.7830096949362], [-84.3960178008549, 33.7829923588567], [-84.3952127123447, 33.7829749251331], [-84.3947195115547, 33.782632475483], [-84.3947236314104, 33.782190221687], [-84.3947227616209, 33.7815899167785], [-84.3947292236999, 33.7815897668833], [-84.3960895046141, 33.7815931638316], [-84.3971429858786, 33.7815957585851], [-84.3971408820771, 33.7818177327172], [-84.3971389884013, 33.7820201983327], [-84.3971386791534, 33.7820522877597], [-84.3971354714589, 33.782390639997], [-84.3971303679174, 33.7825005237831], [-84.3971339919873, 33.7828948891032], [-84.3971083648041, 33.7828947376987], [-84.3971075266279, 33.7829180261953], [-84.39710755876, 33.7832985172865], [-84.3965922961606, 33.7832915358028], [-84.3965908179661, 33.7834895491415], [-84.3965708151397, 33.7834893384568], [-84.3965644181431, 33.783548247092], [-84.396038053429, 33.7835448067299]]], [[[-84.394693016295, 33.7850031441343], [-84.3951355138141, 33.7849985071437], [-84.3951361812586, 33.7852498436541], [-84.3951368618616, 33.7855061319934], [-84.3951371972685, 33.7856324318425], [-84.3951378719198, 33.7858864741661], [-84.3951380641589, 33.7859588618992], [-84.395138706835, 33.7862008600251], [-84.3951390985226, 33.7863483476336], [-84.3947065879376, 33.7863981920681], [-84.3947044178556, 33.7861750962582], [-84.3947016173132, 33.7858872811491], [-84.3946979171857, 33.7855069439398], [-84.3946954237935, 33.785250658945], [-84.394693016295, 33.7850031441343]]]]}, "properties": {"OBJECTID_12": 1, "OBJECTID": 1, "OBJECTID_1": 1, "Shape_Le_2": 16072.8260368, "Area_Acre": 379.508812784, "Shape_Leng": 77072.8487358, "CreationDate": 1628109919100, "Creator": "wsims6_GTFacilities", "EditDate": 1628109919100, "Editor": "wsims6_GTFacilities", "Shape__Area": 2234963.125, "Shape__Length": 28328.95689238449, "GlobalID": "30045a02-4c26-4345-a9dd-ecc93e115866"}}]}